"Id","Category","Name","Address","Lat","Long","subcategory","note","Opening","Closing","Creator","Created","Valid","Source "
"amb001","Medico di Medicina Generale","ACCIARRI SANDRO","Via Luigi Pirandello, 14/i, Bologna BO, Italy","44.5114173","11.3910366","privato",," Tue: 1600-1800. Mon, Wed, Fri: 0900-1100.","1 Jan, 6 Jan, P, LA, 25 Apr, 1 May, 2 Jun, 15 Aug, 1 Nov, 8 Dec, 25 Dec, 26 Dec, Aug","Gruppo MAL 2012","2012-01-02","2012-12-31","From http://www.salute.bologna.it/"
"amb002","Medico di Medicina Generale","ACCIARRI SANDRO","Via Rialto, Bologna BO, Italy","44.4883772","11.3491521","privato",," Mon: 1530-1800. Tue, Thu: 1000-1200. Wed, Fri: 1500-1800.","1 Jan, 6 Jan, P, LA, 25 Apr, 1 May, 2 Jun, 15 Aug, 1 Nov, 8 Dec, 25 Dec, 26 Dec, Aug","Gruppo MAL 2012","2012-01-02","2012-12-31","From http://www.salute.bologna.it/"
"amb003","Medico di Medicina Generale","ADALIO GIUSEPPINA","Piazza Giovanni Xxiii, Bologna BO, Italy","44.4953812","11.2850627","privato",," Mon: 1630-1830. Tue: 0830-1030. Wed: 1345-1545. Thu: 0800-1130. Fri: 1400-1530.","1 Jan, 6 Jan, P, LA, 25 Apr, 1 May, 2 Jun, 15 Aug, 1 Nov, 8 Dec, 25 Dec, 26 Dec, Aug","Gruppo MAL 2012","2012-01-02","2012-12-31","From http://www.salute.bologna.it/"
"amb004","Medico di Medicina Generale","ADALIO GIUSEPPINA","Via Mario Bastia, 18, Bologna BO, Italy","44.4919269","11.315698","privato",," Tue: 1100-1230. Thu: 1630-1830. Mon, Wed, Fri: 0830-1030.","1 Jan, 6 Jan, P, LA, 25 Apr, 1 May, 2 Jun, 15 Aug, 1 Nov, 8 Dec, 25 Dec, 26 Dec, Aug","Gruppo MAL 2012","2012-01-02","2012-12-31","From http://www.salute.bologna.it/"
"amb005","Medico di Medicina Generale","ADAMO FRANCESCA","Via Francesco Barbieri, Bologna BO, Italy","44.5168254","11.3413632","privato",," Wed: 1100-1300. Tue, Thu: 1700-1900. Mon, Fri: 1000-1200.","1 Jan, 6 Jan, P, LA, 25 Apr, 1 May, 2 Jun, 15 Aug, 1 Nov, 8 Dec, 25 Dec, 26 Dec, Aug","Gruppo MAL 2012","2012-01-02","2012-12-31","From http://www.salute.bologna.it/"
"amb006","Medico di Medicina Generale","ADAMO FRANCESCA","Via Giuseppe Bentivogli, Bologna BO, Italy","44.496069","11.3643345","privato",," Mon: 1700-1930. Tue, Thu: 0930-1130.","1 Jan, 6 Jan, P, LA, 25 Apr, 1 May, 2 Jun, 15 Aug, 1 Nov, 8 Dec, 25 Dec, 26 Dec, Aug","Gruppo MAL 2012","2012-01-02","2012-12-31","From http://www.salute.bologna.it/"
"amb007","Medico di Medicina Generale","ADANI CARLO","Via Castiglione, Bologna BO, Italy","44.4895186","11.3471222","privato",," Wed: 1500-1900. Mon, Thu: 1530-1900. Tue, Fri: 0930-1300.","1 Jan, 6 Jan, P, LA, 25 Apr, 1 May, 2 Jun, 15 Aug, 1 Nov, 8 Dec, 25 Dec, 26 Dec, Aug","Gruppo MAL 2012","2012-01-02","2012-12-31","From http://www.salute.bologna.it/"
"amb008","Medico di Medicina Generale","ALBERTI ALESSANDRO","Via Podgora, Bologna BO, Italy","44.4993731","11.3193538","privato",," Fri: 1500-1700. Mon, Wed: 1500-1800. Tue, Thu: 1000-1300.","1 Jan, 6 Jan, P, LA, 25 Apr, 1 May, 2 Jun, 15 Aug, 1 Nov, 8 Dec, 25 Dec, 26 Dec, Aug","Gruppo MAL 2012","2012-01-02","2012-12-31","From http://www.salute.bologna.it/"
"amb009","Medico di Medicina Generale","ALBINI UGO","Via Filippo De Pisis, Bologna BO, Italy","44.5025562","11.2909967","privato",," Mon: 1730-2000. Wed, Thu, Fri: 1700-2000. Tue, Sat: 0800-1030.","1 Jan, 6 Jan, P, LA, 25 Apr, 1 May, 2 Jun, 15 Aug, 1 Nov, 8 Dec, 25 Dec, 26 Dec, Aug","Gruppo MAL 2012","2012-01-02","2012-12-31","From http://www.salute.bologna.it/"
"amb010","Medico di Medicina Generale","ALDROVANDI EMANUELA","Piazza Dei Martiri, Bologna BO, Italy","44.5019096","11.3396991","privato",," Wed: 0900-1200. Thu: 0900-1100.","1 Jan, 6 Jan, P, LA, 25 Apr, 1 May, 2 Jun, 15 Aug, 1 Nov, 8 Dec, 25 Dec, 26 Dec, Aug","Gruppo MAL 2012","2012-01-02","2012-12-31","From http://www.salute.bologna.it/"
"amb011","Medico di Medicina Generale","ALDROVANDI EMANUELA","Via Galliera, Bologna BO, Italy","44.5001516","11.3429453","privato",," Mon: 1500-1900. Wed: 1700-1900. Thu: 1130-1300. Tue, Fri: 0900-1200.","1 Jan, 6 Jan, P, LA, 25 Apr, 1 May, 2 Jun, 15 Aug, 1 Nov, 8 Dec, 25 Dec, 26 Dec, Aug","Gruppo MAL 2012","2012-01-02","2012-12-31","From http://www.salute.bologna.it/"
"amb012","Medico di Medicina Generale","ALESSI PASQUALE","Via Federico Beroaldo, Bologna BO, Italy",,,"privato",," Fri: 1500-1800. Mon, Wed: 1500-1900. Tue, Thu: 0830-1200.","1 Jan, 6 Jan, P, LA, 25 Apr, 1 May, 2 Jun, 15 Aug, 1 Nov, 8 Dec, 25 Dec, 26 Dec, Aug","Gruppo MAL 2012","2012-01-02","2012-12-31","From http://www.salute.bologna.it/"
"amb013","Medico di Medicina Generale","AMMAR KHODOR","Via Isabella Andreini, Bologna BO, Italy","44.5019684","11.3737344","privato",," Mon, Tue, Wed, Thu, Fri: 0900-1200;1600-1800.","1 Jan, 6 Jan, P, LA, 25 Apr, 1 May, 2 Jun, 15 Aug, 1 Nov, 8 Dec, 25 Dec, 26 Dec, Aug","Gruppo MAL 2012","2012-01-02","2012-12-31","From http://www.salute.bologna.it/"
"amb014","Medico di Medicina Generale","AMORATI PAOLO","Via Saragozza, Bologna BO, Italy","44.4894478","11.3201805","privato",," Mon, Tue, Thu: 1430-1930. Wed, Fri: 0930-1230.","1 Jan, 6 Jan, P, LA, 25 Apr, 1 May, 2 Jun, 15 Aug, 1 Nov, 8 Dec, 25 Dec, 26 Dec, Aug","Gruppo MAL 2012","2012-01-02","2012-12-31","From http://www.salute.bologna.it/"
"amb015","Medico di Medicina Generale","AMOVILLI MARCO","Via Genuzio Bentini, Bologna BO, Italy","44.5478296","11.3561424","privato",," Mon, Thu: 1700-1900. Tue, Fri: 0900-1100.","1 Jan, 6 Jan, P, LA, 25 Apr, 1 May, 2 Jun, 15 Aug, 1 Nov, 8 Dec, 25 Dec, 26 Dec, Aug","Gruppo MAL 2012","2012-01-02","2012-12-31","From http://www.salute.bologna.it/"
"amb016","Medico di Medicina Generale","AMOVILLI MARCO","Via Zampieri, Bologna BO, Italy","44.5092957","11.3437528","privato",," Mon, Wed, Thu: 0830-1130. Tue, Fri: 1530-1830.","1 Jan, 6 Jan, P, LA, 25 Apr, 1 May, 2 Jun, 15 Aug, 1 Nov, 8 Dec, 25 Dec, 26 Dec, Aug","Gruppo MAL 2012","2012-01-02","2012-12-31","From http://www.salute.bologna.it/"
"amb017","Medico di Medicina Generale","ANANIA ALFONSO","Via Sardegna, Bologna BO, Italy","44.475348","11.3842196","privato",," Mon: 0830-1130. Wed: 0830-1145. Tue, Thu, Fri: 1600-1900.","1 Jan, 6 Jan, P, LA, 25 Apr, 1 May, 2 Jun, 15 Aug, 1 Nov, 8 Dec, 25 Dec, 26 Dec, Aug","Gruppo MAL 2012","2012-01-02","2012-12-31","From http://www.salute.bologna.it/"
"amb018","Medico di Medicina Generale","ANCONETANI BRUNO","Piazza Di Porta Castiglione, Bologna BO, Italy","44.4850914","11.3486392","privato",," Mon: 1830-1930. Wed: 1100-1200. Fri: 1800-1900.","1 Jan, 6 Jan, P, LA, 25 Apr, 1 May, 2 Jun, 15 Aug, 1 Nov, 8 Dec, 25 Dec, 26 Dec, Aug","Gruppo MAL 2012","2012-01-02","2012-12-31","From http://www.salute.bologna.it/"
"amb019","Medico di Medicina Generale","ANCONETANI BRUNO","Via Ruggi, Bologna BO, Italy","44.4807479","11.3677052","privato",," Tue, Wed, Thu: 1500-1800. Mon, Fri: 1100-1300.","1 Jan, 6 Jan, P, LA, 25 Apr, 1 May, 2 Jun, 15 Aug, 1 Nov, 8 Dec, 25 Dec, 26 Dec, Aug","Gruppo MAL 2012","2012-01-02","2012-12-31","From http://www.salute.bologna.it/"
"amb020","Medico di Medicina Generale","ANDREOLI STEFANO","Via Giacomo Matteotti, Bologna BO, Italy","44.5078385","11.3459951","privato",," Mon: 1500-2000. Wed, Thu: 1600-2000. Tue, Fri: 0900-1300.","1 Jan, 6 Jan, P, LA, 25 Apr, 1 May, 2 Jun, 15 Aug, 1 Nov, 8 Dec, 25 Dec, 26 Dec, Aug","Gruppo MAL 2012","2012-01-02","2012-12-31","From http://www.salute.bologna.it/"
"amb021","Medico di Medicina Generale","ANSELMI ANTONIO","Via Cleto Tomba, Bologna BO, Italy","44.5072533","11.3600789","privato",," Fri: 1500-1700. Tue, Wed: 1730-1900. Mon, Thu: 1030-1200.","1 Jan, 6 Jan, P, LA, 25 Apr, 1 May, 2 Jun, 15 Aug, 1 Nov, 8 Dec, 25 Dec, 26 Dec, Aug","Gruppo MAL 2012","2012-01-02","2012-12-31","From http://www.salute.bologna.it/"
"amb022","Medico di Medicina Generale","ANTONUCCI ASMERINO","Via Del Meloncello, Bologna BO, Italy","44.488149","11.3101833","privato",," Fri: 0900-1300. Mon, Wed: 1530-1900.","1 Jan, 6 Jan, P, LA, 25 Apr, 1 May, 2 Jun, 15 Aug, 1 Nov, 8 Dec, 25 Dec, 26 Dec, Aug","Gruppo MAL 2012","2012-01-02","2012-12-31","From http://www.salute.bologna.it/"
"amb023","Medico di Medicina Generale","ANTONUCCI ASMERINO","Via Lemonia, 45/e, Bologna BO, Italy","44.5066061","11.2996065","privato",," Fri: 1600-1900. Mon, Wed: 1400-1500. Tue, Thu: 0830-1200.","1 Jan, 6 Jan, P, LA, 25 Apr, 1 May, 2 Jun, 15 Aug, 1 Nov, 8 Dec, 25 Dec, 26 Dec, Aug","Gruppo MAL 2012","2012-01-02","2012-12-31","From http://www.salute.bologna.it/"
"amb024","Medico di Medicina Generale","ARCURI RITA FILOMENA","Piazza Giovanni Xxiii, Bologna BO, Italy","44.4953812","11.2850627","privato",," Fri: 0930-1130. Mon, Wed: 0930-1200. Tue, Thu: 1700-1900.","1 Jan, 6 Jan, P, LA, 25 Apr, 1 May, 2 Jun, 15 Aug, 1 Nov, 8 Dec, 25 Dec, 26 Dec, Aug","Gruppo MAL 2012","2012-01-02","2012-12-31","From http://www.salute.bologna.it/"
"amb025","Medico di Medicina Generale","ARCURI RITA FILOMENA","Via Piero Gobetti, Bologna BO, Italy","44.5173608","11.3377901","privato",," Thu: 1000-1200. Mon, Wed: 1630-1830.","1 Jan, 6 Jan, P, LA, 25 Apr, 1 May, 2 Jun, 15 Aug, 1 Nov, 8 Dec, 25 Dec, 26 Dec, Aug","Gruppo MAL 2012","2012-01-02","2012-12-31","From http://www.salute.bologna.it/"
"amb026","Medico di Medicina Generale","ARDITO PATRIZIA","Via Santo Stefano, Bologna BO, Italy","44.4892525","11.3510745","privato",," Mon: 1200-1300;1400-1500. Tue, Thu: 1600-1900. Wed, Fri: 1000-1400.","1 Jan, 6 Jan, P, LA, 25 Apr, 1 May, 2 Jun, 15 Aug, 1 Nov, 8 Dec, 25 Dec, 26 Dec, Aug","Gruppo MAL 2012","2012-01-02","2012-12-31","From http://www.salute.bologna.it/"
"amb027","Medico di Medicina Generale","ASSIRELLI BARBARA","Via Augusto Righi, Bologna BO, Italy","44.4989253","11.345221","privato",," Mon: 1730-1900. Thu: 1500-1800. Tue, Wed, Fri: 0830-1200.","1 Jan, 6 Jan, P, LA, 25 Apr, 1 May, 2 Jun, 15 Aug, 1 Nov, 8 Dec, 25 Dec, 26 Dec, Aug","Gruppo MAL 2012","2012-01-02","2012-12-31","From http://www.salute.bologna.it/"
"amb028","Medico di Medicina Generale","BAGALA' GAETANO","Via Giorgione, Bologna BO, Italy","44.5104827","11.3017072","privato",," Thu: 1530-1830. Mon, Wed: 1000-1200.","1 Jan, 6 Jan, P, LA, 25 Apr, 1 May, 2 Jun, 15 Aug, 1 Nov, 8 Dec, 25 Dec, 26 Dec, Aug","Gruppo MAL 2012","2012-01-02","2012-12-31","From http://www.salute.bologna.it/"
"amb029","Medico di Medicina Generale","BAGALA' GAETANO","Via Nani, Bologna BO, Italy","44.5189023","11.2773105","privato",," Mon: 1500-1700. Wed: 1600-1900. Fri: 1430-1730. Tue, Thu: 0930-1230.","1 Jan, 6 Jan, P, LA, 25 Apr, 1 May, 2 Jun, 15 Aug, 1 Nov, 8 Dec, 25 Dec, 26 Dec, Aug","Gruppo MAL 2012","2012-01-02","2012-12-31","From http://www.salute.bologna.it/"
"amb030","Medico di Medicina Generale","BAGNOLI LUIGI","Piazza Trento E Trieste, Bologna BO, Italy","44.4877214","11.3611131","privato",," Tue: 0800-1200. Thu: 0800-1200;1600-1800. Fri: 1530-1900. Mon, Wed: 1500-1900.","1 Jan, 6 Jan, P, LA, 25 Apr, 1 May, 2 Jun, 15 Aug, 1 Nov, 8 Dec, 25 Dec, 26 Dec, Aug","Gruppo MAL 2012","2012-01-02","2012-12-31","From http://www.salute.bologna.it/"
"amb031","Medico di Medicina Generale","BALDUZZI ANTONIO","Via Dal Lino, Bologna BO, Italy","44.4921377","11.3057748","privato",," Tue: 1000-1200. Thu: 1000-1230. Mon, Wed, Fri: 1700-1900.","1 Jan, 6 Jan, P, LA, 25 Apr, 1 May, 2 Jun, 15 Aug, 1 Nov, 8 Dec, 25 Dec, 26 Dec, Aug","Gruppo MAL 2012","2012-01-02","2012-12-31","From http://www.salute.bologna.it/"
"amb032","Medico di Medicina Generale","BALDUZZI ANTONIO","Via Rialto, Bologna BO, Italy","44.4883772","11.3491521","privato",," Tue, Thu: 1500-1700. Mon, Fri: 1000-1200.","1 Jan, 6 Jan, P, LA, 25 Apr, 1 May, 2 Jun, 15 Aug, 1 Nov, 8 Dec, 25 Dec, 26 Dec, Aug","Gruppo MAL 2012","2012-01-02","2012-12-31","From http://www.salute.bologna.it/"
"amb033","Medico di Medicina Generale","BARBIERI MASSIMO","Via Azzogardino, Bologna BO, Italy","44.5011683","11.3365419","privato",," Tue: 1600-1800. Mon, Fri: 1000-1200.","1 Jan, 6 Jan, P, LA, 25 Apr, 1 May, 2 Jun, 15 Aug, 1 Nov, 8 Dec, 25 Dec, 26 Dec, Aug","Gruppo MAL 2012","2012-01-02","2012-12-31","From http://www.salute.bologna.it/"
"amb034","Medico di Medicina Generale","BARBIERI MASSIMO","Via Marche, 2, Bologna BO, Italy","44.4794751","11.3835926","privato",," Mon: 1630-1830. Tue, Thu: 1000-1200. Wed, Fri: 1630-1900.","1 Jan, 6 Jan, P, LA, 25 Apr, 1 May, 2 Jun, 15 Aug, 1 Nov, 8 Dec, 25 Dec, 26 Dec, Aug","Gruppo MAL 2012","2012-01-02","2012-12-31","From http://www.salute.bologna.it/"
"amb035","Medico di Medicina Generale","BASSI BEATRICE","Via Castiglione, Bologna BO, Italy","44.4895186","11.3471222","privato",," Wed: 0900-1200. Fri: 0900-1200;1400-1600. Mon, Tue, Thu: 1500-1900.","1 Jan, 6 Jan, P, LA, 25 Apr, 1 May, 2 Jun, 15 Aug, 1 Nov, 8 Dec, 25 Dec, 26 Dec, Aug","Gruppo MAL 2012","2012-01-02","2012-12-31","From http://www.salute.bologna.it/"
"amb036","Medico di Medicina Generale","BELOTTI BARBARA","Via Di Corticella, Bologna BO, Italy","44.5320902","11.3531639","privato",," Tue, Wed: 1530-1815. Mon, Thu, Fri: 0830-1145.","1 Jan, 6 Jan, P, LA, 25 Apr, 1 May, 2 Jun, 15 Aug, 1 Nov, 8 Dec, 25 Dec, 26 Dec, Aug","Gruppo MAL 2012","2012-01-02","2012-12-31","From http://www.salute.bologna.it/"
"amb037","Medico di Medicina Generale","BELOTTI MASSIMO","Piazza Giovanni Xxiii, Bologna BO, Italy","44.4953812","11.2850627","privato",," Mon: 0830-1030. Wed: 0830-1100. Fri: 1530-1800. Tue, Thu: 1530-1830.","1 Jan, 6 Jan, P, LA, 25 Apr, 1 May, 2 Jun, 15 Aug, 1 Nov, 8 Dec, 25 Dec, 26 Dec, Aug","Gruppo MAL 2012","2012-01-02","2012-12-31","From http://www.salute.bologna.it/"
"amb038","Medico di Medicina Generale","BELOTTI MASSIMO","Via Giorgione, Bologna BO, Italy","44.5104827","11.3017072","privato",," Mon: 1600-1830. Thu: 0900-1100.","1 Jan, 6 Jan, P, LA, 25 Apr, 1 May, 2 Jun, 15 Aug, 1 Nov, 8 Dec, 25 Dec, 26 Dec, Aug","Gruppo MAL 2012","2012-01-02","2012-12-31","From http://www.salute.bologna.it/"
"amb039","Medico di Medicina Generale","BELTRANI MARIO","Via Augusto Murri, Bologna BO, Italy","44.4791299","11.3640459","privato",," Tue, Thu: 0800-1200;1300-1500. Mon, Wed, Fri: 0800-1200.","1 Jan, 6 Jan, P, LA, 25 Apr, 1 May, 2 Jun, 15 Aug, 1 Nov, 8 Dec, 25 Dec, 26 Dec, Aug","Gruppo MAL 2012","2012-01-02","2012-12-31","From http://www.salute.bologna.it/"
"amb040","Medico di Medicina Generale","BENASSI RITA","Via Ferrarese, Bologna BO, Italy","44.5290248","11.363979","privato",," Mon: 0930-1200. Fri: 0930-1030. Tue, Thu: 1600-1830.","1 Jan, 6 Jan, P, LA, 25 Apr, 1 May, 2 Jun, 15 Aug, 1 Nov, 8 Dec, 25 Dec, 26 Dec, Aug","Gruppo MAL 2012","2012-01-02","2012-12-31","From http://www.salute.bologna.it/"
"amb041","Medico di Medicina Generale","BENASSI RITA","Via San Felice, Bologna BO, Italy","44.4974618","11.3322049","privato",," Mon: 1600-1830. Thu: 0930-1200;1700-1830. Fri: 1130-1230. Tue, Wed: 0930-1200.","1 Jan, 6 Jan, P, LA, 25 Apr, 1 May, 2 Jun, 15 Aug, 1 Nov, 8 Dec, 25 Dec, 26 Dec, Aug","Gruppo MAL 2012","2012-01-02","2012-12-31","From http://www.salute.bologna.it/"
"amb042","Medico di Medicina Generale","BERARDI SALVATORE","Via Dagnini, Bologna BO, Italy","44.4791896","11.3695529","privato",," Tue: 0830-0930;1630-1900. Wed: 0900-1200. Mon, Thu, Fri: 1630-1900.","1 Jan, 6 Jan, P, LA, 25 Apr, 1 May, 2 Jun, 15 Aug, 1 Nov, 8 Dec, 25 Dec, 26 Dec, Aug","Gruppo MAL 2012","2012-01-02","2012-12-31","From http://www.salute.bologna.it/"
"amb043","Medico di Medicina Generale","BERNASCONI TOMMASO","Via San Vitale, Bologna BO, Italy","44.4942188","11.3518204","privato",," Tue: 0900-1100. Wed: 1400-1600. Fri: 0800-1000. Mon, Thu: 1700-1900.","1 Jan, 6 Jan, P, LA, 25 Apr, 1 May, 2 Jun, 15 Aug, 1 Nov, 8 Dec, 25 Dec, 26 Dec, Aug","Gruppo MAL 2012","2012-01-02","2012-12-31","From http://www.salute.bologna.it/"
"amb044","Medico di Medicina Generale","BEVINI MAURIZIO","Via Della Battaglia, Bologna BO, Italy","44.4671475","11.3799324","privato",," Tue: 1000-1230;1700-1930. Mon, Wed: 1430-1700. Thu, Fri: 1000-1230.","1 Jan, 6 Jan, P, LA, 25 Apr, 1 May, 2 Jun, 15 Aug, 1 Nov, 8 Dec, 25 Dec, 26 Dec, Aug","Gruppo MAL 2012","2012-01-02","2012-12-31","From http://www.salute.bologna.it/"
"amb045","Medico di Medicina Generale","BIAVATI FRANCESCO","Via Montello, Bologna BO, Italy","44.4991789","11.3217276","privato",," Tue, Thu: 1600-1900. Mon, Wed, Fri: 1000-1300.","1 Jan, 6 Jan, P, LA, 25 Apr, 1 May, 2 Jun, 15 Aug, 1 Nov, 8 Dec, 25 Dec, 26 Dec, Aug","Gruppo MAL 2012","2012-01-02","2012-12-31","From http://www.salute.bologna.it/"
"amb046","Medico di Medicina Generale","BOLDRINI MARIA PATRIZIA","Viale Abramo Lincoln, Bologna BO, Italy","44.4825916","11.3885805","privato",," Mon: 0900-1200. Tue, Thu: 1600-1900. Wed, Fri: 1000-1200.","1 Jan, 6 Jan, P, LA, 25 Apr, 1 May, 2 Jun, 15 Aug, 1 Nov, 8 Dec, 25 Dec, 26 Dec, Aug","Gruppo MAL 2012","2012-01-02","2012-12-31","From http://www.salute.bologna.it/"
"amb047","Medico di Medicina Generale","BOLELLI MILVIA","Piazza Aldo Capitini, Bologna BO, Italy","44.4953139","11.2928214","privato",," Tue, Thu: 0900-1100. Mon, Wed, Fri: 1500-1800.","1 Jan, 6 Jan, P, LA, 25 Apr, 1 May, 2 Jun, 15 Aug, 1 Nov, 8 Dec, 25 Dec, 26 Dec, Aug","Gruppo MAL 2012","2012-01-02","2012-12-31","From http://www.salute.bologna.it/"
"amb048","Medico di Medicina Generale","BORGATTI ROBERTO","Via Del Triumvirato, Bologna BO, Italy","44.5211022","11.2964445","privato",," Mon, Wed: 1400-1500. Tue, Thu, Fri: 1530-1900.","1 Jan, 6 Jan, P, LA, 25 Apr, 1 May, 2 Jun, 15 Aug, 1 Nov, 8 Dec, 25 Dec, 26 Dec, Aug","Gruppo MAL 2012","2012-01-02","2012-12-31","From http://www.salute.bologna.it/"
"amb049","Medico di Medicina Generale","BORGATTI ROBERTO","Via Della Pietra,, Bologna BO, Italy","44.5099443","11.285356","privato",," Mon: 1530-1900. Wed, Fri: 0900-1200.","1 Jan, 6 Jan, P, LA, 25 Apr, 1 May, 2 Jun, 15 Aug, 1 Nov, 8 Dec, 25 Dec, 26 Dec, Aug","Gruppo MAL 2012","2012-01-02","2012-12-31","From http://www.salute.bologna.it/"
"amb050","Medico di Medicina Generale","BORGHI PAOLO","Via Del Meloncello, Bologna BO, Italy","44.488149","11.3101833","privato",," Mon: 0830-1100. Wed: 0800-1100. Fri: 1500-1830. Tue, Thu: 0830-1100;1530-1830.","1 Jan, 6 Jan, P, LA, 25 Apr, 1 May, 2 Jun, 15 Aug, 1 Nov, 8 Dec, 25 Dec, 26 Dec, Aug","Gruppo MAL 2012","2012-01-02","2012-12-31","From http://www.salute.bologna.it/"
"amb051","Medico di Medicina Generale","BRESCHI PAOLO","Via Emilia Levante, Bologna BO, Italy","44.4806921","11.3816329","privato",," Tue, Thu: 1000-1300. Mon, Wed, Fri: 1700-2000.","1 Jan, 6 Jan, P, LA, 25 Apr, 1 May, 2 Jun, 15 Aug, 1 Nov, 8 Dec, 25 Dec, 26 Dec, Aug","Gruppo MAL 2012","2012-01-02","2012-12-31","From http://www.salute.bologna.it/"
"amb052","Medico di Medicina Generale","BRUNI MONICA","Via Grazia Deledda, Bologna BO, Italy","44.5095583","11.3967888","privato",," Fri: 1230-1300;1300-1330. Tue, Wed: 1500-1700. Mon, Thu: 1130-1230.","1 Jan, 6 Jan, P, LA, 25 Apr, 1 May, 2 Jun, 15 Aug, 1 Nov, 8 Dec, 25 Dec, 26 Dec, Aug","Gruppo MAL 2012","2012-01-02","2012-12-31","From http://www.salute.bologna.it/"
"amb053","Medico di Medicina Generale","BRUNI MONICA","Via Parigi, Bologna BO, Italy","44.4966975","11.3405424","privato",," Mon, Tue, Wed: 1830-1930.","1 Jan, 6 Jan, P, LA, 25 Apr, 1 May, 2 Jun, 15 Aug, 1 Nov, 8 Dec, 25 Dec, 26 Dec, Aug","Gruppo MAL 2012","2012-01-02","2012-12-31","From http://www.salute.bologna.it/"
"amb054","Medico di Medicina Generale","BUSINELLO MARIO","Via Agucchi, Bologna BO, Italy","44.5211784","11.3123682","privato",," Mon: 1400-1900. Wed: 1630-1900. Fri: 1400-1700. Tue, Thu: 1000-1230.","1 Jan, 6 Jan, P, LA, 25 Apr, 1 May, 2 Jun, 15 Aug, 1 Nov, 8 Dec, 25 Dec, 26 Dec, Aug","Gruppo MAL 2012","2012-01-02","2012-12-31","From http://www.salute.bologna.it/"
"amb055","Medico di Medicina Generale","CACCAVELLI ANGELA","Piazza Di Porta Castiglione, Bologna BO, Italy","44.4850914","11.3486392","privato",," Mon: 1530-1700. Tue: 1100-1230. Wed: 1700-1900. Thu: 1100-1300. Fri: 0830-1030.","1 Jan, 6 Jan, P, LA, 25 Apr, 1 May, 2 Jun, 15 Aug, 1 Nov, 8 Dec, 25 Dec, 26 Dec, Aug","Gruppo MAL 2012","2012-01-02","2012-12-31","From http://www.salute.bologna.it/"
"amb056","Medico di Medicina Generale","CACCAVELLI ANGELA","Via Ugo Bassi, Bologna BO, Italy","44.4953418","11.3397028","privato",," Tue: 0830-1000. Wed: 1530-1630. Fri: 1115-1230. Mon, Thu: 1800-1900.","1 Jan, 6 Jan, P, LA, 25 Apr, 1 May, 2 Jun, 15 Aug, 1 Nov, 8 Dec, 25 Dec, 26 Dec, Aug","Gruppo MAL 2012","2012-01-02","2012-12-31","From http://www.salute.bologna.it/"
"amb057","Medico di Medicina Generale","CADEDDU MARIA GRAZIA","Via Decumana, Bologna BO, Italy","44.5073634","11.3004325","privato",," Mon, Wed: 1500-1800. Tue, Thu, Fri: 1000-1200.","1 Jan, 6 Jan, P, LA, 25 Apr, 1 May, 2 Jun, 15 Aug, 1 Nov, 8 Dec, 25 Dec, 26 Dec, Aug","Gruppo MAL 2012","2012-01-02","2012-12-31","From http://www.salute.bologna.it/"
"amb058","Medico di Medicina Generale","CALAMELLI RICCARDO","Via Augusto Murri, Bologna BO, Italy","44.4791299","11.3640459","privato",," Tue, Thu: 0930-1230. Mon, Wed, Fri: 1530-1830.","1 Jan, 6 Jan, P, LA, 25 Apr, 1 May, 2 Jun, 15 Aug, 1 Nov, 8 Dec, 25 Dec, 26 Dec, Aug","Gruppo MAL 2012","2012-01-02","2012-12-31","From http://www.salute.bologna.it/"
"amb059","Medico di Medicina Generale","CALLEGATI MARIA LUISA","Via Di Corticella, Bologna BO, Italy","44.5320902","11.3531639","privato",," Tue: 1530-1830. Thu: 1700-2000. Mon, Wed, Fri: 0930-1230.","1 Jan, 6 Jan, P, LA, 25 Apr, 1 May, 2 Jun, 15 Aug, 1 Nov, 8 Dec, 25 Dec, 26 Dec, Aug","Gruppo MAL 2012","2012-01-02","2012-12-31","From http://www.salute.bologna.it/"
"amb060","Medico di Medicina Generale","CALOGIURI FRANCESCO","Via Fiorita, Bologna BO, Italy","44.4810942","11.3772552","privato",," Fri: 0900-1200;1600-1900. Mon, Wed: 1530-1930. Tue, Thu: 0900-1200.","1 Jan, 6 Jan, P, LA, 25 Apr, 1 May, 2 Jun, 15 Aug, 1 Nov, 8 Dec, 25 Dec, 26 Dec, Aug","Gruppo MAL 2012","2012-01-02","2012-12-31","From http://www.salute.bologna.it/"
"amb061","Medico di Medicina Generale","CALZONI PAOLO","Via Di Corticella, Bologna BO, Italy","44.5320902","11.3531639","privato",," Tue, Thu: 0900-1200. Mon, Wed, Fri: 1430-1800.","1 Jan, 6 Jan, P, LA, 25 Apr, 1 May, 2 Jun, 15 Aug, 1 Nov, 8 Dec, 25 Dec, 26 Dec, Aug","Gruppo MAL 2012","2012-01-02","2012-12-31","From http://www.salute.bologna.it/"
"amb062","Medico di Medicina Generale","CAMERANESI ALESSANDRO","Via Cherubini, Bologna BO, Italy","44.4671501","11.378227","privato",," Tue, Thu: 1630-1830. Mon, Wed, Fri: 1230-1430.","1 Jan, 6 Jan, P, LA, 25 Apr, 1 May, 2 Jun, 15 Aug, 1 Nov, 8 Dec, 25 Dec, 26 Dec, Aug","Gruppo MAL 2012","2012-01-02","2012-12-31","From http://www.salute.bologna.it/"
"amb063","Medico di Medicina Generale","CAMMARATA ANTONINO","Via D'azeglio, Bologna BO, Italy","44.6393636","11.1872138","privato",," Tue, Thu: 1030-1230.","1 Jan, 6 Jan, P, LA, 25 Apr, 1 May, 2 Jun, 15 Aug, 1 Nov, 8 Dec, 25 Dec, 26 Dec, Aug","Gruppo MAL 2012","2012-01-02","2012-12-31","From http://www.salute.bologna.it/"
"amb064","Medico di Medicina Generale","CAMMARATA ANTONINO","Via Fiorita, Bologna BO, Italy","44.4810942","11.3772552","privato",," Tue, Thu: 1530-1830. Mon, Wed, Fri: 1000-1300.","1 Jan, 6 Jan, P, LA, 25 Apr, 1 May, 2 Jun, 15 Aug, 1 Nov, 8 Dec, 25 Dec, 26 Dec, Aug","Gruppo MAL 2012","2012-01-02","2012-12-31","From http://www.salute.bologna.it/"
"amb065","Medico di Medicina Generale","CAMPANELLI ANNA RITA","Via Dell'indipendenza, Bologna BO, Italy","44.4992356","11.3438494","privato",," Tue, Wed, Thu: 1030-1230. Mon, Fri: 1500-1800.","1 Jan, 6 Jan, P, LA, 25 Apr, 1 May, 2 Jun, 15 Aug, 1 Nov, 8 Dec, 25 Dec, 26 Dec, Aug","Gruppo MAL 2012","2012-01-02","2012-12-31","From http://www.salute.bologna.it/"
"amb066","Medico di Medicina Generale","CAMPANELLI ANNA RITA","Via Don G. Fornasini, Bologna BO, Italy","44.5186571","11.3525736","privato",," Tue, Wed: 1700-1930. Mon, Fri: 1100-1200.","1 Jan, 6 Jan, P, LA, 25 Apr, 1 May, 2 Jun, 15 Aug, 1 Nov, 8 Dec, 25 Dec, 26 Dec, Aug","Gruppo MAL 2012","2012-01-02","2012-12-31","From http://www.salute.bologna.it/"
"amb067","Medico di Medicina Generale","CAMPANELLI ANNA RITA","Via Giuseppe Ceneri, Bologna BO, Italy","44.4958628","11.365058","privato",," Mon: 0830-0930.","1 Jan, 6 Jan, P, LA, 25 Apr, 1 May, 2 Jun, 15 Aug, 1 Nov, 8 Dec, 25 Dec, 26 Dec, Aug","Gruppo MAL 2012","2012-01-02","2012-12-31","From http://www.salute.bologna.it/"
"amb068","Medico di Medicina Generale","CAPELLI CARLA","Via Federico Beroaldo, Bologna BO, Italy","44.5184235","11.3944254","privato",," Wed, Thu: 1030-1300. Mon, Tue, Fri: 1500-1900.","1 Jan, 6 Jan, P, LA, 25 Apr, 1 May, 2 Jun, 15 Aug, 1 Nov, 8 Dec, 25 Dec, 26 Dec, Aug","Gruppo MAL 2012","2012-01-02","2012-12-31","From http://www.salute.bologna.it/"
"amb069","Medico di Medicina Generale","CAPOBIANCO CLAUDIO","Via Ferrarese, Bologna BO, Italy","44.5290248","11.363979","privato",," Fri: 1000-1300;1300-1330. Mon, Wed: 1530-1900. Tue, Thu: 0900-1230.","1 Jan, 6 Jan, P, LA, 25 Apr, 1 May, 2 Jun, 15 Aug, 1 Nov, 8 Dec, 25 Dec, 26 Dec, Aug","Gruppo MAL 2012","2012-01-02","2012-12-31","From http://www.salute.bologna.it/"
"amb070","Medico di Medicina Generale","CASADEI MASSIMO","Via Di Corticella, Bologna BO, Italy","44.5320902","11.3531639","privato",," Tue, Wed: 0900-1200. Mon, Thu, Fri: 1500-1800.","1 Jan, 6 Jan, P, LA, 25 Apr, 1 May, 2 Jun, 15 Aug, 1 Nov, 8 Dec, 25 Dec, 26 Dec, Aug","Gruppo MAL 2012","2012-01-02","2012-12-31","From http://www.salute.bologna.it/"
"amb071","Medico di Medicina Generale","CASADIO ROBERTO","Via Dell'indipendenza, Bologna BO, Italy","44.4992356","11.3438494","privato",," Tue: 0830-1230. Wed: 1530-1900. Fri: 0830-1200. Mon, Thu: 1530-1800.","1 Jan, 6 Jan, P, LA, 25 Apr, 1 May, 2 Jun, 15 Aug, 1 Nov, 8 Dec, 25 Dec, 26 Dec, Aug","Gruppo MAL 2012","2012-01-02","2012-12-31","From http://www.salute.bologna.it/"
"amb072","Medico di Medicina Generale","CASARINI PIERO","Piazza Trento E Trieste, Bologna BO, Italy","44.4877214","11.3611131","privato",," Fri: 0830-1230. Mon, Wed: 0930-1130;1500-1900. Tue, Thu: 1500-1900.","1 Jan, 6 Jan, P, LA, 25 Apr, 1 May, 2 Jun, 15 Aug, 1 Nov, 8 Dec, 25 Dec, 26 Dec, Aug","Gruppo MAL 2012","2012-01-02","2012-12-31","From http://www.salute.bologna.it/"
"amb073","Medico di Medicina Generale","CASARINI PIERO","Via Carlo Alberto Pizzardi, Bologna BO, Italy","44.4896654","11.3693644","privato",," Mon, Wed, Thu: 0900-1200. Tue, Fri: 1500-1900.","1 Jan, 6 Jan, P, LA, 25 Apr, 1 May, 2 Jun, 15 Aug, 1 Nov, 8 Dec, 25 Dec, 26 Dec, Aug","Gruppo MAL 2012","2012-01-02","2012-12-31","From http://www.salute.bologna.it/"
"amb074","Medico di Medicina Generale","CASTELLITTO ANTHONY","Via Castiglione, Bologna BO, Italy","44.4895186","11.3471222","privato",," Wed: 1500-1630. Fri: 1500-1600.","1 Jan, 6 Jan, P, LA, 25 Apr, 1 May, 2 Jun, 15 Aug, 1 Nov, 8 Dec, 25 Dec, 26 Dec, Aug","Gruppo MAL 2012","2012-01-02","2012-12-31","From http://www.salute.bologna.it/"
"amb075","Medico di Medicina Generale","CASTELLITTO ANTHONY","Via Ferrarese, Bologna BO, Italy","44.5290248","11.363979","privato",," Mon: 0900-1000. Tue: 1530-1630. Thu: 0830-1000.","1 Jan, 6 Jan, P, LA, 25 Apr, 1 May, 2 Jun, 15 Aug, 1 Nov, 8 Dec, 25 Dec, 26 Dec, Aug","Gruppo MAL 2012","2012-01-02","2012-12-31","From http://www.salute.bologna.it/"
"amb076","Medico di Medicina Generale","CASTELLITTO ANTHONY","Via San Donato, Bologna BO, Italy","44.5137744","11.3882182","privato",," Mon, Thu: 1700-1900. Tue, Wed, Fri: 1000-1200.","1 Jan, 6 Jan, P, LA, 25 Apr, 1 May, 2 Jun, 15 Aug, 1 Nov, 8 Dec, 25 Dec, 26 Dec, Aug","Gruppo MAL 2012","2012-01-02","2012-12-31","From http://www.salute.bologna.it/"
"amb077","Medico di Medicina Generale","CAU ROBERTO","Via Genuzio Bentini, Bologna BO, Italy","44.5478296","11.3561424","privato",," Wed: 0830-1100;1500-1900. Fri: 1500-1900. Mon, Tue, Thu: 0830-1200.","1 Jan, 6 Jan, P, LA, 25 Apr, 1 May, 2 Jun, 15 Aug, 1 Nov, 8 Dec, 25 Dec, 26 Dec, Aug","Gruppo MAL 2012","2012-01-02","2012-12-31","From http://www.salute.bologna.it/"
"amb078","Medico di Medicina Generale","CAVALLO LO MAGNO MARIO","Via Degli Orti, Bologna BO, Italy","44.4758466","11.3773975","privato",," Tue: 1000-1100. Mon, Wed: 1430-1600. Thu, Fri: 1030-1200.","1 Jan, 6 Jan, P, LA, 25 Apr, 1 May, 2 Jun, 15 Aug, 1 Nov, 8 Dec, 25 Dec, 26 Dec, Aug","Gruppo MAL 2012","2012-01-02","2012-12-31","From http://www.salute.bologna.it/"
"amb079","Medico di Medicina Generale","CAVALLO LO MAGNO MARIO","Via San Felice, Bologna BO, Italy","44.4974618","11.3322049","privato",," Mon: 1100-1200. Tue, Wed, Fri: 1600-1730.","1 Jan, 6 Jan, P, LA, 25 Apr, 1 May, 2 Jun, 15 Aug, 1 Nov, 8 Dec, 25 Dec, 26 Dec, Aug","Gruppo MAL 2012","2012-01-02","2012-12-31","From http://www.salute.bologna.it/"
"amb080","Medico di Medicina Generale","CAVAZZONI RENZO","Via Lemonia, 45/e, Bologna BO, Italy","44.5066061","11.2996065","privato",," Tue: 1500-1930. Thu: 1500-1900. Mon, Wed, Fri: 1100-1300.","1 Jan, 6 Jan, P, LA, 25 Apr, 1 May, 2 Jun, 15 Aug, 1 Nov, 8 Dec, 25 Dec, 26 Dec, Aug","Gruppo MAL 2012","2012-01-02","2012-12-31","From http://www.salute.bologna.it/"
"amb081","Medico di Medicina Generale","CAVAZZONI RENZO","Via Pasubio, Bologna BO, Italy","44.4980875","11.3190464","privato",," Tue, Thu: 1100-1230. Mon, Wed, Fri: 1530-1830.","1 Jan, 6 Jan, P, LA, 25 Apr, 1 May, 2 Jun, 15 Aug, 1 Nov, 8 Dec, 25 Dec, 26 Dec, Aug","Gruppo MAL 2012","2012-01-02","2012-12-31","From http://www.salute.bologna.it/"
"amb082","Medico di Medicina Generale","CHIERICI STEFANO","Piazza Dell'unita', Bologna BO, Italy","44.5115449","11.3474324","privato",," Mon, Wed: 1830-2000. Tue, Thu, Fri: 1800-1930.","1 Jan, 6 Jan, P, LA, 25 Apr, 1 May, 2 Jun, 15 Aug, 1 Nov, 8 Dec, 25 Dec, 26 Dec, Aug","Gruppo MAL 2012","2012-01-02","2012-12-31","From http://www.salute.bologna.it/"
"amb083","Medico di Medicina Generale","CHIESURA ANTONIO","Via Sardegna, Bologna BO, Italy","44.475348","11.3842196","privato",," Mon, Wed: 1600-1900. Tue, Thu, Fri: 0900-1200.","1 Jan, 6 Jan, P, LA, 25 Apr, 1 May, 2 Jun, 15 Aug, 1 Nov, 8 Dec, 25 Dec, 26 Dec, Aug","Gruppo MAL 2012","2012-01-02","2012-12-31","From http://www.salute.bologna.it/"
"amb084","Medico di Medicina Generale","CHIRIACO' LUCIANO","Via Gatti, Bologna BO, Italy","44.5433551","11.3559214","privato",," Fri: 0930-1230. Mon, Wed: 0900-1230. Tue, Thu: 1630-1900.","1 Jan, 6 Jan, P, LA, 25 Apr, 1 May, 2 Jun, 15 Aug, 1 Nov, 8 Dec, 25 Dec, 26 Dec, Aug","Gruppo MAL 2012","2012-01-02","2012-12-31","From http://www.salute.bologna.it/"
"amb085","Medico di Medicina Generale","CHIRIACO' LUCIANO","Via Giacomo Matteotti, Bologna BO, Italy","44.5078385","11.3459951","privato",," Mon: 1600-2000. Tue: 1430-1630. Wed: 0800-0900. Thu: 0800-1000. Fri: 1500-1900.","1 Jan, 6 Jan, P, LA, 25 Apr, 1 May, 2 Jun, 15 Aug, 1 Nov, 8 Dec, 25 Dec, 26 Dec, Aug","Gruppo MAL 2012","2012-01-02","2012-12-31","From http://www.salute.bologna.it/"
"amb086","Medico di Medicina Generale","CIARDULLI CARMINE","Via Fiorita, Bologna BO, Italy","44.4810942","11.3772552","privato",," Mon: 1430-1600. Wed: 0830-1030. Thu: 1800-1930. Fri: 0845-1100.","1 Jan, 6 Jan, P, LA, 25 Apr, 1 May, 2 Jun, 15 Aug, 1 Nov, 8 Dec, 25 Dec, 26 Dec, Aug","Gruppo MAL 2012","2012-01-02","2012-12-31","From http://www.salute.bologna.it/"
"amb087","Medico di Medicina Generale","CIARDULLI CARMINE","Via Giuseppe Massarenti, Bologna BO, Italy","44.4933814","11.3739186","privato",," Tue: 1500-1900. Wed: 1500-1730. Thu: 1500-1800. Mon, Fri: 1630-1900.","1 Jan, 6 Jan, P, LA, 25 Apr, 1 May, 2 Jun, 15 Aug, 1 Nov, 8 Dec, 25 Dec, 26 Dec, Aug","Gruppo MAL 2012","2012-01-02","2012-12-31","From http://www.salute.bologna.it/"
"amb088","Medico di Medicina Generale","CICOGNANI MICHELE","Via Alfonsine, Bologna BO, Italy","44.4744583","11.3875088","privato",," Thu: 1530-1900. Mon, Tue: 1600-1900. Wed, Fri: 0830-1130.","1 Jan, 6 Jan, P, LA, 25 Apr, 1 May, 2 Jun, 15 Aug, 1 Nov, 8 Dec, 25 Dec, 26 Dec, Aug","Gruppo MAL 2012","2012-01-02","2012-12-31","From http://www.salute.bologna.it/"
"amb089","Medico di Medicina Generale","CIPOLLANI FRANCA","Via Adelaide Borghi Mamo, Bologna BO, Italy","44.4765426","11.3620714","privato",," Tue: 1500-1600. Thu: 0900-1030. Fri: 1200-1300. Mon, Wed: 0900-1200.","1 Jan, 6 Jan, P, LA, 25 Apr, 1 May, 2 Jun, 15 Aug, 1 Nov, 8 Dec, 25 Dec, 26 Dec, Aug","Gruppo MAL 2012","2012-01-02","2012-12-31","From http://www.salute.bologna.it/"
"amb090","Medico di Medicina Generale","CIPOLLANI FRANCA","Via Augusto Murri, Bologna BO, Italy","44.4791299","11.3640459","privato",," Tue: 1600-1830. Thu: 1530-1630. Fri: 0900-1200.","1 Jan, 6 Jan, P, LA, 25 Apr, 1 May, 2 Jun, 15 Aug, 1 Nov, 8 Dec, 25 Dec, 26 Dec, Aug","Gruppo MAL 2012","2012-01-02","2012-12-31","From http://www.salute.bologna.it/"
"amb091","Medico di Medicina Generale","COLELLA PASQUALE","Via Marco Emilio Lepido, 177, Bologna BO, Italy","44.5198613","11.2683093","privato",," Wed, Thu: 1500-1900. Mon, Tue, Fri: 0900-1300.","1 Jan, 6 Jan, P, LA, 25 Apr, 1 May, 2 Jun, 15 Aug, 1 Nov, 8 Dec, 25 Dec, 26 Dec, Aug","Gruppo MAL 2012","2012-01-02","2012-12-31","From http://www.salute.bologna.it/"
"amb092","Medico di Medicina Generale","COMELLINI MARCO","Via Broccaindosso, Bologna BO, Italy","44.4926348","11.3551263","privato",," Mon, Wed: 1600-2000. Tue, Thu, Fri: 1600-1930.","1 Jan, 6 Jan, P, LA, 25 Apr, 1 May, 2 Jun, 15 Aug, 1 Nov, 8 Dec, 25 Dec, 26 Dec, Aug","Gruppo MAL 2012","2012-01-02","2012-12-31","From http://www.salute.bologna.it/"
"amb093","Medico di Medicina Generale","CONSOLINI PIER LUIGI","Via Mazzini, Bologna BO, Italy","44.4870673","11.3652409","privato",," Mon: 1000-1200. Tue: 1800-1930. Thu: 1400-1600.","1 Jan, 6 Jan, P, LA, 25 Apr, 1 May, 2 Jun, 15 Aug, 1 Nov, 8 Dec, 25 Dec, 26 Dec, Aug","Gruppo MAL 2012","2012-01-02","2012-12-31","From http://www.salute.bologna.it/"
"amb094","Medico di Medicina Generale","CONSOLINI PIER LUIGI","Via Pietro Mascagni, Bologna BO, Italy","44.4700223","11.3731526","privato",," Thu: 0900-1100. Mon, Wed: 1630-1900. Tue, Fri: 1400-1630.","1 Jan, 6 Jan, P, LA, 25 Apr, 1 May, 2 Jun, 15 Aug, 1 Nov, 8 Dec, 25 Dec, 26 Dec, Aug","Gruppo MAL 2012","2012-01-02","2012-12-31","From http://www.salute.bologna.it/"
"amb095","Medico di Medicina Generale","CONTINI LUIGI","Via Parigi, Bologna BO, Italy","44.4966975","11.3405424","privato",," Mon, Wed: 1700-1830. Tue, Thu, Fri: 1030-1200.","1 Jan, 6 Jan, P, LA, 25 Apr, 1 May, 2 Jun, 15 Aug, 1 Nov, 8 Dec, 25 Dec, 26 Dec, Aug","Gruppo MAL 2012","2012-01-02","2012-12-31","From http://www.salute.bologna.it/"
"amb096","Medico di Medicina Generale","CONTISSA FELICE","Piazza Grigoris Lambrakis, Bologna BO, Italy","44.4768763","11.3974968","privato",," Tue: 1600-1800. Wed: 1700-1830. Fri: 1030-1230. Mon, Thu: 1100-1230.","1 Jan, 6 Jan, P, LA, 25 Apr, 1 May, 2 Jun, 15 Aug, 1 Nov, 8 Dec, 25 Dec, 26 Dec, Aug","Gruppo MAL 2012","2012-01-02","2012-12-31","From http://www.salute.bologna.it/"
"amb097","Medico di Medicina Generale","CONTISSA FELICE","Via Giuseppe Massarenti, Bologna BO, Italy","44.4933814","11.3739186","privato",," Fri: 1615-1800. Mon, Wed: 1600-1800.","1 Jan, 6 Jan, P, LA, 25 Apr, 1 May, 2 Jun, 15 Aug, 1 Nov, 8 Dec, 25 Dec, 26 Dec, Aug","Gruppo MAL 2012","2012-01-02","2012-12-31","From http://www.salute.bologna.it/"
"amb098","Medico di Medicina Generale","CONTISSA FELICE","Via Grazia Deledda, Bologna BO, Italy","44.5095583","11.3967888","privato",," Thu: 1600-1900. Fri: 1500-1600. Mon, Tue, Wed: 1100-1230.","1 Jan, 6 Jan, P, LA, 25 Apr, 1 May, 2 Jun, 15 Aug, 1 Nov, 8 Dec, 25 Dec, 26 Dec, Aug","Gruppo MAL 2012","2012-01-02","2012-12-31","From http://www.salute.bologna.it/"
"amb099","Medico di Medicina Generale","CORDELLA ANTONIO","Via Augusto Righi, Bologna BO, Italy","44.4989253","11.345221","privato",," Mon: 1830-1930. Tue: 1130-1230. Thu: 1100-1200. Fri: 1330-1430.","1 Jan, 6 Jan, P, LA, 25 Apr, 1 May, 2 Jun, 15 Aug, 1 Nov, 8 Dec, 25 Dec, 26 Dec, Aug","Gruppo MAL 2012","2012-01-02","2012-12-31","From http://www.salute.bologna.it/"
"amb100","Medico di Medicina Generale","CORDELLA ANTONIO","Via Battindarno, Bologna BO, Italy","44.502228","11.297766","privato",," Mon: 0930-1100. Wed: 1700-1830. Fri: 0930-1030.","1 Jan, 6 Jan, P, LA, 25 Apr, 1 May, 2 Jun, 15 Aug, 1 Nov, 8 Dec, 25 Dec, 26 Dec, Aug","Gruppo MAL 2012","2012-01-02","2012-12-31","From http://www.salute.bologna.it/"
"amb101","Medico di Medicina Generale","CORDELLA ANTONIO","Via Parigi, Bologna BO, Italy","44.4966975","11.3405424","privato",," Tue: 0930-1030. Thu: 0830-1030. Fri: 1130-1300. Mon, Wed: 1500-1600.","1 Jan, 6 Jan, P, LA, 25 Apr, 1 May, 2 Jun, 15 Aug, 1 Nov, 8 Dec, 25 Dec, 26 Dec, Aug","Gruppo MAL 2012","2012-01-02","2012-12-31","From http://www.salute.bologna.it/"
"amb102","Medico di Medicina Generale","COSTANTINI ALESSANDRO","Via Santo Stefano, Bologna BO, Italy","44.4892525","11.3510745","privato",," Sat: 1100-1200. Tue, Wed, Thu: 1700-1900. Mon, Fri: 1030-1230.","1 Jan, 6 Jan, P, LA, 25 Apr, 1 May, 2 Jun, 15 Aug, 1 Nov, 8 Dec, 25 Dec, 26 Dec, Aug","Gruppo MAL 2012","2012-01-02","2012-12-31","From http://www.salute.bologna.it/"
"amb103","Medico di Medicina Generale","CREMONINI PAOLO","Via Battindarno, Bologna BO, Italy","44.502228","11.297766","privato",," Mon: 1530-1830. Thu: 1600-1830. Fri: 1430-1530. Tue, Wed: 0930-1200.","1 Jan, 6 Jan, P, LA, 25 Apr, 1 May, 2 Jun, 15 Aug, 1 Nov, 8 Dec, 25 Dec, 26 Dec, Aug","Gruppo MAL 2012","2012-01-02","2012-12-31","From http://www.salute.bologna.it/"
"amb104","Medico di Medicina Generale","CROOKE ALDO STEFANO","Via Parigi, Bologna BO, Italy","44.4966975","11.3405424","privato",," Mon: 1100-1300. Wed: 0830-1030. Tue, Thu, Fri: 1700-1900.","1 Jan, 6 Jan, P, LA, 25 Apr, 1 May, 2 Jun, 15 Aug, 1 Nov, 8 Dec, 25 Dec, 26 Dec, Aug","Gruppo MAL 2012","2012-01-02","2012-12-31","From http://www.salute.bologna.it/"
"amb105","Medico di Medicina Generale","CUPPINI ANNA ROSA","Via Luigi Pirandello, 14/l, Bologna BO, Italy","44.5114173","11.3910366","privato",," Mon: 1000-1230. Tue: 1630-1830. Wed: 0930-1100;1500-1600. Thu, Fri: 1000-1200.","1 Jan, 6 Jan, P, LA, 25 Apr, 1 May, 2 Jun, 15 Aug, 1 Nov, 8 Dec, 25 Dec, 26 Dec, Aug","Gruppo MAL 2012","2012-01-02","2012-12-31","From http://www.salute.bologna.it/"
"amb106","Medico di Medicina Generale","CURTI GABRIELE","Via Aristotile Fioravanti, Bologna BO, Italy","44.5127276","11.3414972","privato",," Mon, Tue, Wed, Thu, Fri: 1600-1930.","1 Jan, 6 Jan, P, LA, 25 Apr, 1 May, 2 Jun, 15 Aug, 1 Nov, 8 Dec, 25 Dec, 26 Dec, Aug","Gruppo MAL 2012","2012-01-02","2012-12-31","From http://www.salute.bologna.it/"
"amb107","Medico di Medicina Generale","CURTI MAURIZIO","Via Agucchi, Bologna BO, Italy","44.5211784","11.3123682","privato",," Mon: 1900-2100. Tue: 1730-1900. Wed: 1430-1600. Thu, Fri: 1700-1900.","1 Jan, 6 Jan, P, LA, 25 Apr, 1 May, 2 Jun, 15 Aug, 1 Nov, 8 Dec, 25 Dec, 26 Dec, Aug","Gruppo MAL 2012","2012-01-02","2012-12-31","From http://www.salute.bologna.it/"
"amb108","Medico di Medicina Generale","DALAITI ANDREA","Via Guerrazzi, Bologna BO, Italy","44.4909998","11.351089","privato",," Mon, Thu: 0830-1000;1500-1900. Tue, Wed, Fri: 1500-1900.","1 Jan, 6 Jan, P, LA, 25 Apr, 1 May, 2 Jun, 15 Aug, 1 Nov, 8 Dec, 25 Dec, 26 Dec, Aug","Gruppo MAL 2012","2012-01-02","2012-12-31","From http://www.salute.bologna.it/"
"amb109","Medico di Medicina Generale","DE BELLIS PIETRO","Via San Donato, Bologna BO, Italy","44.5137744","11.3882182","privato",," Wed, Thu: 1430-1930. Mon, Tue, Fri: 0800-1100.","1 Jan, 6 Jan, P, LA, 25 Apr, 1 May, 2 Jun, 15 Aug, 1 Nov, 8 Dec, 25 Dec, 26 Dec, Aug","Gruppo MAL 2012","2012-01-02","2012-12-31","From http://www.salute.bologna.it/"
"amb110","Medico di Medicina Generale","DE CAMILLIS MANUELA","Via Augusto Righi, Bologna BO, Italy","44.4989253","11.345221","privato",," Mon: 0830-1300. Wed, Thu: 1400-1600. Tue, Fri: 0830-1200.","1 Jan, 6 Jan, P, LA, 25 Apr, 1 May, 2 Jun, 15 Aug, 1 Nov, 8 Dec, 25 Dec, 26 Dec, Aug","Gruppo MAL 2012","2012-01-02","2012-12-31","From http://www.salute.bologna.it/"
"amb111","Medico di Medicina Generale","DE SANTIS FRANCO","Via Rodolfo Audinot, Bologna BO, Italy","44.4923288","11.3270592","privato",," Tue: 0900-1200. Wed: 0900-1100. Mon, Fri: 1600-1900.","1 Jan, 6 Jan, P, LA, 25 Apr, 1 May, 2 Jun, 15 Aug, 1 Nov, 8 Dec, 25 Dec, 26 Dec, Aug","Gruppo MAL 2012","2012-01-02","2012-12-31","From http://www.salute.bologna.it/"
"amb112","Medico di Medicina Generale","DE SANTIS FRANCO","Via Ugo Bassi, Bologna BO, Italy","44.4953418","11.3397028","privato",," Mon: 0900-1200. Thu: 0900-1100. Fri: 0915-1200. Tue, Wed: 1500-1700.","1 Jan, 6 Jan, P, LA, 25 Apr, 1 May, 2 Jun, 15 Aug, 1 Nov, 8 Dec, 25 Dec, 26 Dec, Aug","Gruppo MAL 2012","2012-01-02","2012-12-31","From http://www.salute.bologna.it/"
"amb113","Medico di Medicina Generale","DE SENEEN MICHELE","Piazza Di Porta Mascarella, Bologna BO, Italy","44.5021583","11.3526702","privato",," Mon: 1600-1700. Wed: 1700-1800.","1 Jan, 6 Jan, P, LA, 25 Apr, 1 May, 2 Jun, 15 Aug, 1 Nov, 8 Dec, 25 Dec, 26 Dec, Aug","Gruppo MAL 2012","2012-01-02","2012-12-31","From http://www.salute.bologna.it/"
"amb114","Medico di Medicina Generale","DE SENEEN MICHELE","Via Augusto Murri, Bologna BO, Italy","44.4791299","11.3640459","privato",," Fri: 1630-1800. Mon, Wed: 1130-1300. Tue, Thu: 1730-1900.","1 Jan, 6 Jan, P, LA, 25 Apr, 1 May, 2 Jun, 15 Aug, 1 Nov, 8 Dec, 25 Dec, 26 Dec, Aug","Gruppo MAL 2012","2012-01-02","2012-12-31","From http://www.salute.bologna.it/"
"amb115","Medico di Medicina Generale","DE VICARIIS MARIA IMMACOLATA","Piazza Di Porta Mascarella, Bologna BO, Italy","44.5021583","11.3526702","privato",," Tue, Wed, Fri: 0830-0930.","1 Jan, 6 Jan, P, LA, 25 Apr, 1 May, 2 Jun, 15 Aug, 1 Nov, 8 Dec, 25 Dec, 26 Dec, Aug","Gruppo MAL 2012","2012-01-02","2012-12-31","From http://www.salute.bologna.it/"
"amb116","Medico di Medicina Generale","DE VICARIIS MARIA IMMACOLATA","Via Della Barca, Bologna BO, Italy","44.494466","11.2959151","privato",," Mon: 1530-1700. Wed: 1800-1900. Thu: 0930-1130. Tue, Fri: 1000-1200.","1 Jan, 6 Jan, P, LA, 25 Apr, 1 May, 2 Jun, 15 Aug, 1 Nov, 8 Dec, 25 Dec, 26 Dec, Aug","Gruppo MAL 2012","2012-01-02","2012-12-31","From http://www.salute.bologna.it/"
"amb117","Medico di Medicina Generale","DE VICARIIS MARIA IMMACOLATA","Via Marco Emilio Lepido, 151, Bologna BO, Italy","44.5187664","11.2719514","privato",," Mon: 1000-1200. Tue, Thu: 1700-1900. Wed, Fri: 1500-1700.","1 Jan, 6 Jan, P, LA, 25 Apr, 1 May, 2 Jun, 15 Aug, 1 Nov, 8 Dec, 25 Dec, 26 Dec, Aug","Gruppo MAL 2012","2012-01-02","2012-12-31","From http://www.salute.bologna.it/"
"amb118","Medico di Medicina Generale","DEL VECCHIO AURELIO","Piazza Clodoveo Bonazzi, Bologna BO, Italy","44.496323","11.2930951","privato",," Mon: 0830-1030. Tue: 0900-1000. Thu: 1400-1500. Wed, Fri: 0830-1000.","1 Jan, 6 Jan, P, LA, 25 Apr, 1 May, 2 Jun, 15 Aug, 1 Nov, 8 Dec, 25 Dec, 26 Dec, Aug","Gruppo MAL 2012","2012-01-02","2012-12-31","From http://www.salute.bologna.it/"
"amb119","Medico di Medicina Generale","DEL VECCHIO AURELIO","Via Della Barca, Bologna BO, Italy","44.494466","11.2959151","privato",," Wed: 1630-2000. Mon, Tue, Thu, Fri: 1645-1930.","1 Jan, 6 Jan, P, LA, 25 Apr, 1 May, 2 Jun, 15 Aug, 1 Nov, 8 Dec, 25 Dec, 26 Dec, Aug","Gruppo MAL 2012","2012-01-02","2012-12-31","From http://www.salute.bologna.it/"
"amb120","Medico di Medicina Generale","DELL'ISOLA GIULIO","Via Emilia Ponente, Bologna BO, Italy","44.506448","11.3058634","privato",," Mon: 1600-1830. Tue, Wed, Thu, Fri: 1000-1230.","1 Jan, 6 Jan, P, LA, 25 Apr, 1 May, 2 Jun, 15 Aug, 1 Nov, 8 Dec, 25 Dec, 26 Dec, Aug","Gruppo MAL 2012","2012-01-02","2012-12-31","From http://www.salute.bologna.it/"
"amb121","Medico di Medicina Generale","DENI CECILIA","Via Marco Emilio Lepido, 177, Bologna BO, Italy","44.5198613","11.2683093","privato",," Tue, Thu: 1500-1900. Mon, Wed, Fri: 0900-1300.","1 Jan, 6 Jan, P, LA, 25 Apr, 1 May, 2 Jun, 15 Aug, 1 Nov, 8 Dec, 25 Dec, 26 Dec, Aug","Gruppo MAL 2012","2012-01-02","2012-12-31","From http://www.salute.bologna.it/"
"amb122","Medico di Medicina Generale","DI FALCO ANTONELLA","Via Guglielmo Oberdan, Bologna BO, Italy","44.4965546","11.3459426","privato",," Wed: 1600-1800. Thu: 1330-1430. Mon, Tue, Fri: 1000-1200.","1 Jan, 6 Jan, P, LA, 25 Apr, 1 May, 2 Jun, 15 Aug, 1 Nov, 8 Dec, 25 Dec, 26 Dec, Aug","Gruppo MAL 2012","2012-01-02","2012-12-31","From http://www.salute.bologna.it/"
"amb123","Medico di Medicina Generale","DI GIACOMO ARTURO","Via Emilia Ponente, Bologna BO, Italy","44.506448","11.3058634","privato",," Mon, Tue, Thu: 1000-1300. Wed, Fri: 1530-1830.","1 Jan, 6 Jan, P, LA, 25 Apr, 1 May, 2 Jun, 15 Aug, 1 Nov, 8 Dec, 25 Dec, 26 Dec, Aug","Gruppo MAL 2012","2012-01-02","2012-12-31","From http://www.salute.bologna.it/"
"amb124","Medico di Medicina Generale","DONATO ALFONSO","Via Degli Orti, Bologna BO, Italy","44.4758466","11.3773975","privato",," Mon: 1500-1700. Tue: 1500-1600. Wed: 1700-1900. Thu: 1600-1700. Fri: 1630-1900.","1 Jan, 6 Jan, P, LA, 25 Apr, 1 May, 2 Jun, 15 Aug, 1 Nov, 8 Dec, 25 Dec, 26 Dec, Aug","Gruppo MAL 2012","2012-01-02","2012-12-31","From http://www.salute.bologna.it/"
"amb125","Medico di Medicina Generale","DOVESI ANNA","Via San Donato, Bologna BO, Italy","44.5137744","11.3882182","privato",," Mon, Tue, Thu: 1500-1800. Wed, Fri: 0900-1200.","1 Jan, 6 Jan, P, LA, 25 Apr, 1 May, 2 Jun, 15 Aug, 1 Nov, 8 Dec, 25 Dec, 26 Dec, Aug","Gruppo MAL 2012","2012-01-02","2012-12-31","From http://www.salute.bologna.it/"
"amb126","Medico di Medicina Generale","ELEONORI ROBERTO","Via D'azeglio, Bologna BO, Italy","44.6393636","11.1872138","privato",," Mon, Tue, Wed, Thu, Fri: 1600-1730.","1 Jan, 6 Jan, P, LA, 25 Apr, 1 May, 2 Jun, 15 Aug, 1 Nov, 8 Dec, 25 Dec, 26 Dec, Aug","Gruppo MAL 2012","2012-01-02","2012-12-31","From http://www.salute.bologna.it/"
"amb127","Medico di Medicina Generale","ELEONORI ROBERTO","Via Fiorita, Bologna BO, Italy","44.4810942","11.3772552","privato",," Tue, Thu: 1045-1200.","1 Jan, 6 Jan, P, LA, 25 Apr, 1 May, 2 Jun, 15 Aug, 1 Nov, 8 Dec, 25 Dec, 26 Dec, Aug","Gruppo MAL 2012","2012-01-02","2012-12-31","From http://www.salute.bologna.it/"
"amb128","Medico di Medicina Generale","ERMINI GIULIANO","Via Dell'indipendenza, Bologna BO, Italy","44.4992356","11.3438494","privato",," Fri: 1530-1900. Mon, Wed: 0830-1100.","1 Jan, 6 Jan, P, LA, 25 Apr, 1 May, 2 Jun, 15 Aug, 1 Nov, 8 Dec, 25 Dec, 26 Dec, Aug","Gruppo MAL 2012","2012-01-02","2012-12-31","From http://www.salute.bologna.it/"
"amb129","Medico di Medicina Generale","ERMINI GIULIANO","Via Pontida, Bologna BO, Italy","44.5236897","11.2670702","privato",," Mon, Wed, Thu: 1600-1900. Tue, Fri: 0800-1100.","1 Jan, 6 Jan, P, LA, 25 Apr, 1 May, 2 Jun, 15 Aug, 1 Nov, 8 Dec, 25 Dec, 26 Dec, Aug","Gruppo MAL 2012","2012-01-02","2012-12-31","From http://www.salute.bologna.it/"
"amb130","Medico di Medicina Generale","FANTINELLI SAURO","Via Gatti, Bologna BO, Italy","44.5433551","11.3559214","privato",," Tue, Thu: 1000-1230. Mon, Wed, Fri: 1500-1900.","1 Jan, 6 Jan, P, LA, 25 Apr, 1 May, 2 Jun, 15 Aug, 1 Nov, 8 Dec, 25 Dec, 26 Dec, Aug","Gruppo MAL 2012","2012-01-02","2012-12-31","From http://www.salute.bologna.it/"
"amb131","Medico di Medicina Generale","FARINA GIAMPAOLO","Via Cherubini, Bologna BO, Italy","44.4671501","11.378227","privato",," Tue: 1630-1930. Thu: 1500-1830. Fri: 0900-1230. Mon, Wed: 0930-1230.","1 Jan, 6 Jan, P, LA, 25 Apr, 1 May, 2 Jun, 15 Aug, 1 Nov, 8 Dec, 25 Dec, 26 Dec, Aug","Gruppo MAL 2012","2012-01-02","2012-12-31","From http://www.salute.bologna.it/"
"amb132","Medico di Medicina Generale","FARIOLI FRANCESCA","Via Giacomo Matteotti, Bologna BO, Italy","44.5078385","11.3459951","privato",," Mon: 0830-1030. Tue: 1000-1300. Fri: 1600-1900. Wed, Thu: 1000-1200.","1 Jan, 6 Jan, P, LA, 25 Apr, 1 May, 2 Jun, 15 Aug, 1 Nov, 8 Dec, 25 Dec, 26 Dec, Aug","Gruppo MAL 2012","2012-01-02","2012-12-31","From http://www.salute.bologna.it/"
"amb133","Medico di Medicina Generale","FARNETI PIERO","Piazza Grigoris Lambrakis, Bologna BO, Italy","44.4768763","11.3974968","privato",," Tue, Thu: 1800-1900. Mon, Fri: 1130-1230.","1 Jan, 6 Jan, P, LA, 25 Apr, 1 May, 2 Jun, 15 Aug, 1 Nov, 8 Dec, 25 Dec, 26 Dec, Aug","Gruppo MAL 2012","2012-01-02","2012-12-31","From http://www.salute.bologna.it/"
"amb134","Medico di Medicina Generale","FARNETI PIERO","Via Augusto Murri, Bologna BO, Italy","44.4791299","11.3640459","privato",," Tue, Thu: 1000-1200. Mon, Wed, Fri: 1500-1730.","1 Jan, 6 Jan, P, LA, 25 Apr, 1 May, 2 Jun, 15 Aug, 1 Nov, 8 Dec, 25 Dec, 26 Dec, Aug","Gruppo MAL 2012","2012-01-02","2012-12-31","From http://www.salute.bologna.it/"
"amb135","Medico di Medicina Generale","FEROCINO AGATA","Via Isabella Andreini, Bologna BO, Italy","44.5019684","11.3737344","privato",," Tue, Thu: 1530-1900. Mon, Wed, Fri: 0830-1230.","1 Jan, 6 Jan, P, LA, 25 Apr, 1 May, 2 Jun, 15 Aug, 1 Nov, 8 Dec, 25 Dec, 26 Dec, Aug","Gruppo MAL 2012","2012-01-02","2012-12-31","From http://www.salute.bologna.it/"
"amb136","Medico di Medicina Generale","FERRARESI ANDREA","Piazza Clodoveo Bonazzi, Bologna BO, Italy","44.496323","11.2930951","privato",," Mon: 1630-1730. Wed: 1430-1530. Fri: 1730-1830. Tue, Thu: 1130-1230.","1 Jan, 6 Jan, P, LA, 25 Apr, 1 May, 2 Jun, 15 Aug, 1 Nov, 8 Dec, 25 Dec, 26 Dec, Aug","Gruppo MAL 2012","2012-01-02","2012-12-31","From http://www.salute.bologna.it/"
"amb137","Medico di Medicina Generale","FERRARI CLAUDIO","Via San Donato, Bologna BO, Italy","44.5137744","11.3882182","privato",," Wed, Thu: 1000-1100;1500-1900. Mon, Tue, Fri: 1500-1900.","1 Jan, 6 Jan, P, LA, 25 Apr, 1 May, 2 Jun, 15 Aug, 1 Nov, 8 Dec, 25 Dec, 26 Dec, Aug","Gruppo MAL 2012","2012-01-02","2012-12-31","From http://www.salute.bologna.it/"
"amb138","Medico di Medicina Generale","FERRARI GIUSEPPE","Via Augusto Righi, Bologna BO, Italy","44.4989253","11.345221","privato",," Mon: 1500-1730. Wed: 0800-0830. Fri: 1130-1230.","1 Jan, 6 Jan, P, LA, 25 Apr, 1 May, 2 Jun, 15 Aug, 1 Nov, 8 Dec, 25 Dec, 26 Dec, Aug","Gruppo MAL 2012","2012-01-02","2012-12-31","From http://www.salute.bologna.it/"
"amb139","Medico di Medicina Generale","FERRARI GIUSEPPE","Via Giuseppe Massarenti, Bologna BO, Italy","44.4933814","11.3739186","privato",," Tue: 1030-1300. Fri: 1600-1830. Mon, Wed, Thu: 1100-1300.","1 Jan, 6 Jan, P, LA, 25 Apr, 1 May, 2 Jun, 15 Aug, 1 Nov, 8 Dec, 25 Dec, 26 Dec, Aug","Gruppo MAL 2012","2012-01-02","2012-12-31","From http://www.salute.bologna.it/"
"amb140","Medico di Medicina Generale","FERRERIO GIUSEPPE","Via Nicolo' Dall'arca, Bologna BO, Italy","44.5115358","11.3431467","privato",," Thu: 1600-1900. Mon, Wed: 0930-1230. Tue, Fri: 0930-1230;1600-1900.","1 Jan, 6 Jan, P, LA, 25 Apr, 1 May, 2 Jun, 15 Aug, 1 Nov, 8 Dec, 25 Dec, 26 Dec, Aug","Gruppo MAL 2012","2012-01-02","2012-12-31","From http://www.salute.bologna.it/"
"amb141","Medico di Medicina Generale","FERSINI FRANCO","Via De' Coltelli, Bologna BO, Italy","44.487724","11.3507367","privato",," Tue, Thu: 1000-1200. Mon, Wed, Fri: 1515-1900.","1 Jan, 6 Jan, P, LA, 25 Apr, 1 May, 2 Jun, 15 Aug, 1 Nov, 8 Dec, 25 Dec, 26 Dec, Aug","Gruppo MAL 2012","2012-01-02","2012-12-31","From http://www.salute.bologna.it/"
"amb142","Medico di Medicina Generale","FINELLI IRENE","Via Di Corticella, Bologna BO, Italy","44.5320902","11.3531639","privato",," Tue: 1530-1830. Mon, Thu: 1500-1830. Wed, Fri: 0900-1130.","1 Jan, 6 Jan, P, LA, 25 Apr, 1 May, 2 Jun, 15 Aug, 1 Nov, 8 Dec, 25 Dec, 26 Dec, Aug","Gruppo MAL 2012","2012-01-02","2012-12-31","From http://www.salute.bologna.it/"
"amb143","Medico di Medicina Generale","FORESTI ALESSANDRA","Via Parigi, Bologna BO, Italy","44.4966975","11.3405424","privato",," Tue: 1400-1730. Thu: 0900-1300. Fri: 1300-1300;1300-1730. Mon, Wed: 1000-1300.","1 Jan, 6 Jan, P, LA, 25 Apr, 1 May, 2 Jun, 15 Aug, 1 Nov, 8 Dec, 25 Dec, 26 Dec, Aug","Gruppo MAL 2012","2012-01-02","2012-12-31","From http://www.salute.bologna.it/"
"amb144","Medico di Medicina Generale","FORESTI ALESSANDRA","Viale Abramo Lincoln, Bologna BO, Italy","44.4825916","11.3885805","privato",," Tue: 1100-1230. Mon, Wed: 1700-1830.","1 Jan, 6 Jan, P, LA, 25 Apr, 1 May, 2 Jun, 15 Aug, 1 Nov, 8 Dec, 25 Dec, 26 Dec, Aug","Gruppo MAL 2012","2012-01-02","2012-12-31","From http://www.salute.bologna.it/"
"amb145","Medico di Medicina Generale","FRANZE' MARIA GRAZIA","Via Alceste Giovannini, Bologna BO, Italy","44.5177666","11.3392195","privato",," Fri: 1300-1400. Mon, Wed: 1530-1900. Tue, Thu: 0930-1230.","1 Jan, 6 Jan, P, LA, 25 Apr, 1 May, 2 Jun, 15 Aug, 1 Nov, 8 Dec, 25 Dec, 26 Dec, Aug","Gruppo MAL 2012","2012-01-02","2012-12-31","From http://www.salute.bologna.it/"
"amb146","Medico di Medicina Generale","FRANZE' MARIA GRAZIA","Via Augusto Murri, Bologna BO, Italy","44.4791299","11.3640459","privato",," Tue: 1530-1730. Wed, Fri: 0930-1130.","1 Jan, 6 Jan, P, LA, 25 Apr, 1 May, 2 Jun, 15 Aug, 1 Nov, 8 Dec, 25 Dec, 26 Dec, Aug","Gruppo MAL 2012","2012-01-02","2012-12-31","From http://www.salute.bologna.it/"
"amb147","Medico di Medicina Generale","FREZZOTTI DANIELA","Via Marco Polo, 22/b, Bologna BO, Italy","44.5188681","11.3287859","privato",," Wed: 1530-1830. Tue, Thu: 0900-1200;1530-1830. Mon, Fri: 0900-1200.","1 Jan, 6 Jan, P, LA, 25 Apr, 1 May, 2 Jun, 15 Aug, 1 Nov, 8 Dec, 25 Dec, 26 Dec, Aug","Gruppo MAL 2012","2012-01-02","2012-12-31","From http://www.salute.bologna.it/"
"amb148","Medico di Medicina Generale","FURLO' GIANCARLO","Via D'azeglio, Bologna BO, Italy","44.6393636","11.1872138","privato",," Tue, Thu, Fri: 0800-0930.","1 Jan, 6 Jan, P, LA, 25 Apr, 1 May, 2 Jun, 15 Aug, 1 Nov, 8 Dec, 25 Dec, 26 Dec, Aug","Gruppo MAL 2012","2012-01-02","2012-12-31","From http://www.salute.bologna.it/"
"amb149","Medico di Medicina Generale","FURLO' GIANCARLO","Via Degli Orti, Bologna BO, Italy","44.4758466","11.3773975","privato",," Mon, Wed: 0800-1100. Tue, Thu, Fri: 1500-1900.","1 Jan, 6 Jan, P, LA, 25 Apr, 1 May, 2 Jun, 15 Aug, 1 Nov, 8 Dec, 25 Dec, 26 Dec, Aug","Gruppo MAL 2012","2012-01-02","2012-12-31","From http://www.salute.bologna.it/"
"amb150","Medico di Medicina Generale","GABUSI STEFANO","Via Genuzio Bentini, Bologna BO, Italy","44.5478296","11.3561424","privato",," Mon, Thu: 0900-1000. Tue, Fri: 1700-1900.","1 Jan, 6 Jan, P, LA, 25 Apr, 1 May, 2 Jun, 15 Aug, 1 Nov, 8 Dec, 25 Dec, 26 Dec, Aug","Gruppo MAL 2012","2012-01-02","2012-12-31","From http://www.salute.bologna.it/"
"amb151","Medico di Medicina Generale","GABUSI STEFANO","Via Zampieri, Bologna BO, Italy","44.5092957","11.3437528","privato",," Tue: 0830-1130. Fri: 0830-1200. Mon, Wed, Thu: 1600-1900.","1 Jan, 6 Jan, P, LA, 25 Apr, 1 May, 2 Jun, 15 Aug, 1 Nov, 8 Dec, 25 Dec, 26 Dec, Aug","Gruppo MAL 2012","2012-01-02","2012-12-31","From http://www.salute.bologna.it/"
"amb152","Medico di Medicina Generale","GAGGIOLI GIORGIO","Vicolo Sant'arcangelo, Bologna BO, Italy","44.4931132","11.3399864","privato",," Mon, Tue, Wed, Thu, Fri: 1530-1830.","1 Jan, 6 Jan, P, LA, 25 Apr, 1 May, 2 Jun, 15 Aug, 1 Nov, 8 Dec, 25 Dec, 26 Dec, Aug","Gruppo MAL 2012","2012-01-02","2012-12-31","From http://www.salute.bologna.it/"
"amb153","Medico di Medicina Generale","GALATI MICHELE","Via Arno, Bologna BO, Italy","44.474803","11.3889243","privato",," Fri: 1530-1800. Mon, Wed: 1530-1900. Tue, Thu: 0930-1230.","1 Jan, 6 Jan, P, LA, 25 Apr, 1 May, 2 Jun, 15 Aug, 1 Nov, 8 Dec, 25 Dec, 26 Dec, Aug","Gruppo MAL 2012","2012-01-02","2012-12-31","From http://www.salute.bologna.it/"
"amb154","Medico di Medicina Generale","GALAVERNI GIORGIO","Via Del Triumvirato, Bologna BO, Italy","44.5211022","11.2964445","privato",," Wed: 1600-1730. Mon, Fri: 0930-1100.","1 Jan, 6 Jan, P, LA, 25 Apr, 1 May, 2 Jun, 15 Aug, 1 Nov, 8 Dec, 25 Dec, 26 Dec, Aug","Gruppo MAL 2012","2012-01-02","2012-12-31","From http://www.salute.bologna.it/"
"amb155","Medico di Medicina Generale","GALAVERNI GIORGIO","Via Taddeo Alderotti, Bologna BO, Italy","44.5040837","11.293102","privato",," Tue, Wed: 0900-1100. Mon, Thu, Fri: 1530-1800.","1 Jan, 6 Jan, P, LA, 25 Apr, 1 May, 2 Jun, 15 Aug, 1 Nov, 8 Dec, 25 Dec, 26 Dec, Aug","Gruppo MAL 2012","2012-01-02","2012-12-31","From http://www.salute.bologna.it/"
"amb156","Medico di Medicina Generale","GALBIATI MAURIZIO","Via Amendola, Bologna BO, Italy","44.503457","11.3405348","privato",," Mon, Tue, Wed, Thu, Fri: 1415-1600.","1 Jan, 6 Jan, P, LA, 25 Apr, 1 May, 2 Jun, 15 Aug, 1 Nov, 8 Dec, 25 Dec, 26 Dec, Aug","Gruppo MAL 2012","2012-01-02","2012-12-31","From http://www.salute.bologna.it/"
"amb157","Medico di Medicina Generale","GALBIATI MAURIZIO","Via Della Ca' Bianca, Bologna BO, Italy","44.5244893","11.3212182","privato",," Wed: 0900-1100. Mon, Tue, Thu, Fri: 1630-1830.","1 Jan, 6 Jan, P, LA, 25 Apr, 1 May, 2 Jun, 15 Aug, 1 Nov, 8 Dec, 25 Dec, 26 Dec, Aug","Gruppo MAL 2012","2012-01-02","2012-12-31","From http://www.salute.bologna.it/"
"amb158","Medico di Medicina Generale","GALVANI ROBERTO","Via G. Cesare Croce, Bologna BO, Italy","44.4944468","11.3565917","privato",," Mon, Tue, Wed, Thu, Fri: 1530-1700.","1 Jan, 6 Jan, P, LA, 25 Apr, 1 May, 2 Jun, 15 Aug, 1 Nov, 8 Dec, 25 Dec, 26 Dec, Aug","Gruppo MAL 2012","2012-01-02","2012-12-31","From http://www.salute.bologna.it/"
"amb159","Medico di Medicina Generale","GAMBERINI PIER STEFANO","Via Dal Lino, Bologna BO, Italy","44.4921377","11.3057748","privato",," Fri: 1000-1230. Tue, Thu: 1600-1900.","1 Jan, 6 Jan, P, LA, 25 Apr, 1 May, 2 Jun, 15 Aug, 1 Nov, 8 Dec, 25 Dec, 26 Dec, Aug","Gruppo MAL 2012","2012-01-02","2012-12-31","From http://www.salute.bologna.it/"
"amb160","Medico di Medicina Generale","GAMBERINI PIER STEFANO","Via Mascarella, Bologna BO, Italy","44.4999578","11.3506972","privato",," Mon: 1530-1830. Wed: 0900-1200. Fri: 1600-1830. Tue, Thu: 0900-1100.","1 Jan, 6 Jan, P, LA, 25 Apr, 1 May, 2 Jun, 15 Aug, 1 Nov, 8 Dec, 25 Dec, 26 Dec, Aug","Gruppo MAL 2012","2012-01-02","2012-12-31","From http://www.salute.bologna.it/"
"amb161","Medico di Medicina Generale","GAMBERINI SILVANO","Via Della Beverara, Bologna BO, Italy","44.5176026","11.3311391","privato",," Mon, Tue, Wed, Thu, Fri: 1430-1830.","1 Jan, 6 Jan, P, LA, 25 Apr, 1 May, 2 Jun, 15 Aug, 1 Nov, 8 Dec, 25 Dec, 26 Dec, Aug","Gruppo MAL 2012","2012-01-02","2012-12-31","From http://www.salute.bologna.it/"
"amb162","Medico di Medicina Generale","GARDELLI TULLIO","Via Leandro Alberti, 50/a, Bologna BO, Italy","44.484984","11.3668168","privato",," Mon: 1700-1930. Wed: 0900-1230. Fri: 0900-1200. Tue, Thu: 1500-1900.","1 Jan, 6 Jan, P, LA, 25 Apr, 1 May, 2 Jun, 15 Aug, 1 Nov, 8 Dec, 25 Dec, 26 Dec, Aug","Gruppo MAL 2012","2012-01-02","2012-12-31","From http://www.salute.bologna.it/"
"amb163","Medico di Medicina Generale","GARDO VITTORIA","Via Caduti Di Casteldebole, Bologna BO, Italy","44.4979994","11.2743331","privato",," Tue, Thu: 1530-1900. Mon, Wed, Fri: 0800-1130.","1 Jan, 6 Jan, P, LA, 25 Apr, 1 May, 2 Jun, 15 Aug, 1 Nov, 8 Dec, 25 Dec, 26 Dec, Aug","Gruppo MAL 2012","2012-01-02","2012-12-31","From http://www.salute.bologna.it/"
"amb164","Medico di Medicina Generale","GATTI GIOVANNI","Via San Mamolo, Bologna BO, Italy","44.4786459","11.329786","privato",," Fri: 0900-1200. Tue, Wed: 1500-1900. Mon, Thu: 0900-1300.","1 Jan, 6 Jan, P, LA, 25 Apr, 1 May, 2 Jun, 15 Aug, 1 Nov, 8 Dec, 25 Dec, 26 Dec, Aug","Gruppo MAL 2012","2012-01-02","2012-12-31","From http://www.salute.bologna.it/"
"amb165","Medico di Medicina Generale","GAUDIOSO MONICA","Via Del Meloncello, Bologna BO, Italy","44.488149","11.3101833","privato",," Tue: 1100-1230. Thu: 1100-1200. Fri: 1530-1630. Mon, Wed: 1800-1900.","1 Jan, 6 Jan, P, LA, 25 Apr, 1 May, 2 Jun, 15 Aug, 1 Nov, 8 Dec, 25 Dec, 26 Dec, Aug","Gruppo MAL 2012","2012-01-02","2012-12-31","From http://www.salute.bologna.it/"
"amb166","Medico di Medicina Generale","GAUDIOSO MONICA","Via Pietro Mascagni, Bologna BO, Italy","44.4700223","11.3731526","privato",," Tue: 1800-1900. Thu: 1500-1600. Mon, Wed, Fri: 0900-1000.","1 Jan, 6 Jan, P, LA, 25 Apr, 1 May, 2 Jun, 15 Aug, 1 Nov, 8 Dec, 25 Dec, 26 Dec, Aug","Gruppo MAL 2012","2012-01-02","2012-12-31","From http://www.salute.bologna.it/"
"amb167","Medico di Medicina Generale","GELATI GIANCARLA","Via Federico Beroaldo, Bologna BO, Italy",,,"privato",," Tue, Thu: 1500-1830. Mon, Wed, Fri: 0830-1130.","1 Jan, 6 Jan, P, LA, 25 Apr, 1 May, 2 Jun, 15 Aug, 1 Nov, 8 Dec, 25 Dec, 26 Dec, Aug","Gruppo MAL 2012","2012-01-02","2012-12-31","From http://www.salute.bologna.it/"
"amb168","Medico di Medicina Generale","GENTILI FABIO","Via Degli Orti, Bologna BO, Italy","44.4758466","11.3773975","privato",," Mon, Tue, Wed: 1100-1300. Thu, Fri: 1500-1800.","1 Jan, 6 Jan, P, LA, 25 Apr, 1 May, 2 Jun, 15 Aug, 1 Nov, 8 Dec, 25 Dec, 26 Dec, Aug","Gruppo MAL 2012","2012-01-02","2012-12-31","From http://www.salute.bologna.it/"
"amb169","Medico di Medicina Generale","GENTILI FABIO","Via San Donato, Bologna BO, Italy","44.5137744","11.3882182","privato",," Thu: 1030-1230. Mon, Tue: 1500-1800.","1 Jan, 6 Jan, P, LA, 25 Apr, 1 May, 2 Jun, 15 Aug, 1 Nov, 8 Dec, 25 Dec, 26 Dec, Aug","Gruppo MAL 2012","2012-01-02","2012-12-31","From http://www.salute.bologna.it/"
"amb170","Medico di Medicina Generale","GERSON KENNETH","Via Piero Gobetti, Bologna BO, Italy","44.5173608","11.3377901","privato",," Mon, Wed, Thu: 1600-1930. Tue, Fri: 0900-1200.","1 Jan, 6 Jan, P, LA, 25 Apr, 1 May, 2 Jun, 15 Aug, 1 Nov, 8 Dec, 25 Dec, 26 Dec, Aug","Gruppo MAL 2012","2012-01-02","2012-12-31","From http://www.salute.bologna.it/"
"amb171","Medico di Medicina Generale","GHILARDI BRUNELLA","Via Cherubini, Bologna BO, Italy","44.4671501","11.378227","privato",," Fri: 1100-1300. Mon, Wed: 1530-1830. Tue, Thu: 0900-1130.","1 Jan, 6 Jan, P, LA, 25 Apr, 1 May, 2 Jun, 15 Aug, 1 Nov, 8 Dec, 25 Dec, 26 Dec, Aug","Gruppo MAL 2012","2012-01-02","2012-12-31","From http://www.salute.bologna.it/"
"amb172","Medico di Medicina Generale","GIOVETTI ENZO","Via Marco Emilio Lepido, 177, Bologna BO, Italy","44.5198613","11.2683093","privato",," Tue, Thu: 0900-1300. Mon, Wed, Fri: 1530-1900.","1 Jan, 6 Jan, P, LA, 25 Apr, 1 May, 2 Jun, 15 Aug, 1 Nov, 8 Dec, 25 Dec, 26 Dec, Aug","Gruppo MAL 2012","2012-01-02","2012-12-31","From http://www.salute.bologna.it/"
"amb173","Medico di Medicina Generale","GRANDINI PAOLA","Via Guglielmo Oberdan, Bologna BO, Italy","44.4965546","11.3459426","privato",," Tue, Thu: 0930-1130;1300-1330. Mon, Wed, Fri: 0930-1130.","1 Jan, 6 Jan, P, LA, 25 Apr, 1 May, 2 Jun, 15 Aug, 1 Nov, 8 Dec, 25 Dec, 26 Dec, Aug","Gruppo MAL 2012","2012-01-02","2012-12-31","From http://www.salute.bologna.it/"
"amb174","Medico di Medicina Generale","GRASSI MARILENA","Via Augusto Murri, Bologna BO, Italy","44.4791299","11.3640459","privato",," Tue, Wed, Thu: 0900-1200. Mon, Fri: 1500-1800.","1 Jan, 6 Jan, P, LA, 25 Apr, 1 May, 2 Jun, 15 Aug, 1 Nov, 8 Dec, 25 Dec, 26 Dec, Aug","Gruppo MAL 2012","2012-01-02","2012-12-31","From http://www.salute.bologna.it/"
"amb175","Medico di Medicina Generale","GRILLINI GIGLIOLA","Via Nani, Bologna BO, Italy","44.5189023","11.2773105","privato",," Wed: 1630-1930. Tue, Thu: 1600-1930. Mon, Fri: 0900-1230.","1 Jan, 6 Jan, P, LA, 25 Apr, 1 May, 2 Jun, 15 Aug, 1 Nov, 8 Dec, 25 Dec, 26 Dec, Aug","Gruppo MAL 2012","2012-01-02","2012-12-31","From http://www.salute.bologna.it/"
"amb176","Medico di Medicina Generale","GUALANDRA ROSSELLA","Via Caduti Di Casteldebole, Bologna BO, Italy","44.4979994","11.2743331","privato",," Tue: 0800-1100. Thu: 0830-1130. Fri: 1530-1830. Mon, Wed: 1530-1900.","1 Jan, 6 Jan, P, LA, 25 Apr, 1 May, 2 Jun, 15 Aug, 1 Nov, 8 Dec, 25 Dec, 26 Dec, Aug","Gruppo MAL 2012","2012-01-02","2012-12-31","From http://www.salute.bologna.it/"
"amb177","Medico di Medicina Generale","GUASINA MARCO","Via Pietro Mengoli, Bologna BO, Italy","44.4880273","11.3707508","privato",," Mon, Tue, Thu: 1530-1900. Wed, Fri: 1000-1230.","1 Jan, 6 Jan, P, LA, 25 Apr, 1 May, 2 Jun, 15 Aug, 1 Nov, 8 Dec, 25 Dec, 26 Dec, Aug","Gruppo MAL 2012","2012-01-02","2012-12-31","From http://www.salute.bologna.it/"
"amb178","Medico di Medicina Generale","IENNA SALVATORE","Via Augusto Murri, Bologna BO, Italy","44.4791299","11.3640459","privato",," Wed: 1530-1800. Fri: 0900-1100;1530-1900. Mon, Tue, Thu: 0900-1100;1600-1800.","1 Jan, 6 Jan, P, LA, 25 Apr, 1 May, 2 Jun, 15 Aug, 1 Nov, 8 Dec, 25 Dec, 26 Dec, Aug","Gruppo MAL 2012","2012-01-02","2012-12-31","From http://www.salute.bologna.it/"
"amb179","Medico di Medicina Generale","INFUSINI ANTONIO ERNESTO","Via Cherubini, Bologna BO, Italy","44.4671501","11.378227","privato",," Mon, Fri: 1100-1300.","1 Jan, 6 Jan, P, LA, 25 Apr, 1 May, 2 Jun, 15 Aug, 1 Nov, 8 Dec, 25 Dec, 26 Dec, Aug","Gruppo MAL 2012","2012-01-02","2012-12-31","From http://www.salute.bologna.it/"
"amb180","Medico di Medicina Generale","INFUSINI ANTONIO ERNESTO","Via Toscana, Bologna BO, Italy","44.458903","11.3700585","privato",," Tue, Wed, Thu: 1600-1900. Mon, Fri: 0900-1000.","1 Jan, 6 Jan, P, LA, 25 Apr, 1 May, 2 Jun, 15 Aug, 1 Nov, 8 Dec, 25 Dec, 26 Dec, Aug","Gruppo MAL 2012","2012-01-02","2012-12-31","From http://www.salute.bologna.it/"
"amb181","Medico di Medicina Generale","LAFRATTA VINCENZO","Via Dell'indipendenza, Bologna BO, Italy","44.4992356","11.3438494","privato",," Tue: 1530-1830. Wed: 1530-1900. Thu: 0930-1200. Mon, Fri: 0930-1130.","1 Jan, 6 Jan, P, LA, 25 Apr, 1 May, 2 Jun, 15 Aug, 1 Nov, 8 Dec, 25 Dec, 26 Dec, Aug","Gruppo MAL 2012","2012-01-02","2012-12-31","From http://www.salute.bologna.it/"
"amb182","Medico di Medicina Generale","LALLI ANTONIO LUIGI","Via Di Corticella, Bologna BO, Italy","44.5320902","11.3531639","privato",," Tue, Wed: 1500-1830. Mon, Thu, Fri: 0900-1230.","1 Jan, 6 Jan, P, LA, 25 Apr, 1 May, 2 Jun, 15 Aug, 1 Nov, 8 Dec, 25 Dec, 26 Dec, Aug","Gruppo MAL 2012","2012-01-02","2012-12-31","From http://www.salute.bologna.it/"
"amb183","Medico di Medicina Generale","LANZONI IVANO","Via Bellaria, Bologna BO, Italy","44.4771684","11.3856847","privato",," Wed: 0930-1100. Thu: 1000-1200. Mon, Tue, Fri: 1700-1830.","1 Jan, 6 Jan, P, LA, 25 Apr, 1 May, 2 Jun, 15 Aug, 1 Nov, 8 Dec, 25 Dec, 26 Dec, Aug","Gruppo MAL 2012","2012-01-02","2012-12-31","From http://www.salute.bologna.it/"
"amb184","Medico di Medicina Generale","LELLI OMAR","Via Arno, Bologna BO, Italy","44.474803","11.3889243","privato",," Wed: 0930-1200. Mon, Thu: 1800-2000. Tue, Fri: 1030-1300.","1 Jan, 6 Jan, P, LA, 25 Apr, 1 May, 2 Jun, 15 Aug, 1 Nov, 8 Dec, 25 Dec, 26 Dec, Aug","Gruppo MAL 2012","2012-01-02","2012-12-31","From http://www.salute.bologna.it/"
"amb185","Medico di Medicina Generale","LELLI OMAR","Via Emilia Levante, Bologna BO, Italy","44.4806921","11.3816329","privato",," Mon: 1130-1300. Wed: 1200-1300. Thu: 1630-1800. Tue, Fri: 1800-1930.","1 Jan, 6 Jan, P, LA, 25 Apr, 1 May, 2 Jun, 15 Aug, 1 Nov, 8 Dec, 25 Dec, 26 Dec, Aug","Gruppo MAL 2012","2012-01-02","2012-12-31","From http://www.salute.bologna.it/"
"amb186","Medico di Medicina Generale","LENZI DONATELLA","Via Sabotino, Bologna BO, Italy","44.4970571","11.3233298","privato",," Tue, Wed, Thu: 1500-1900. Mon, Fri: 0900-1230.","1 Jan, 6 Jan, P, LA, 25 Apr, 1 May, 2 Jun, 15 Aug, 1 Nov, 8 Dec, 25 Dec, 26 Dec, Aug","Gruppo MAL 2012","2012-01-02","2012-12-31","From http://www.salute.bologna.it/"
"amb187","Medico di Medicina Generale","LEONELLI GIULIANO","Via Augusto Romagnoli, Bologna BO, Italy","44.476693","11.3700833","privato",," Wed: 0830-1130;1600-1830. Tue, Thu: 0830-1200. Mon, Fri: 0830-1130.","1 Jan, 6 Jan, P, LA, 25 Apr, 1 May, 2 Jun, 15 Aug, 1 Nov, 8 Dec, 25 Dec, 26 Dec, Aug","Gruppo MAL 2012","2012-01-02","2012-12-31","From http://www.salute.bologna.it/"
"amb188","Medico di Medicina Generale","LINSALATA ISABELLA","Via Zanardi, Bologna BO, Italy","44.524146","11.3226975","privato",," Mon: 1130-1230. Wed: 1630-1830. Thu: 0915-1015. Tue, Fri: 0930-1100.","1 Jan, 6 Jan, P, LA, 25 Apr, 1 May, 2 Jun, 15 Aug, 1 Nov, 8 Dec, 25 Dec, 26 Dec, Aug","Gruppo MAL 2012","2012-01-02","2012-12-31","From http://www.salute.bologna.it/"
"amb189","Medico di Medicina Generale","LIPPARINI STEFANO","Via Guglielmo Marconi, Bologna BO, Italy","44.4988138","11.3384067","privato",," Mon, Tue, Wed, Thu, Fri: 1500-1900.","1 Jan, 6 Jan, P, LA, 25 Apr, 1 May, 2 Jun, 15 Aug, 1 Nov, 8 Dec, 25 Dec, 26 Dec, Aug","Gruppo MAL 2012","2012-01-02","2012-12-31","From http://www.salute.bologna.it/"
"amb190","Medico di Medicina Generale","LIVANI MARIA FRANCESCA","Via Ferrarese, Bologna BO, Italy","44.5290248","11.363979","privato",," Tue: 0930-1230. Mon, Wed: 1700-2000. Thu, Fri: 1000-1230.","1 Jan, 6 Jan, P, LA, 25 Apr, 1 May, 2 Jun, 15 Aug, 1 Nov, 8 Dec, 25 Dec, 26 Dec, Aug","Gruppo MAL 2012","2012-01-02","2012-12-31","From http://www.salute.bologna.it/"
"amb191","Medico di Medicina Generale","LOLLI GRAZIANO","Via Degli Orti, Bologna BO, Italy","44.4758466","11.3773975","privato",," Mon, Wed: 1600-1900. Tue, Thu, Fri: 0900-1200.","1 Jan, 6 Jan, P, LA, 25 Apr, 1 May, 2 Jun, 15 Aug, 1 Nov, 8 Dec, 25 Dec, 26 Dec, Aug","Gruppo MAL 2012","2012-01-02","2012-12-31","From http://www.salute.bologna.it/"
"amb192","Medico di Medicina Generale","LUSVARDI ANDREA","Via Frassinago, Bologna BO, Italy","44.4922762","11.3320711","privato",," Mon, Tue, Wed, Thu, Fri: 1400-1800.","1 Jan, 6 Jan, P, LA, 25 Apr, 1 May, 2 Jun, 15 Aug, 1 Nov, 8 Dec, 25 Dec, 26 Dec, Aug","Gruppo MAL 2012","2012-01-02","2012-12-31","From http://www.salute.bologna.it/"
"amb193","Medico di Medicina Generale","MACCAFERRI MARCO","Via Cesare Boldrini, Bologna BO, Italy","44.5045119","11.3411052","privato",," Tue, Fri: 1130-1230.","1 Jan, 6 Jan, P, LA, 25 Apr, 1 May, 2 Jun, 15 Aug, 1 Nov, 8 Dec, 25 Dec, 26 Dec, Aug","Gruppo MAL 2012","2012-01-02","2012-12-31","From http://www.salute.bologna.it/"
"amb194","Medico di Medicina Generale","MACCAFERRI MARCO","Via Saragozza, Bologna BO, Italy","44.4894478","11.3201805","privato",," Fri: 1430-1830. Mon, Tue, Wed, Thu: 1500-1830.","1 Jan, 6 Jan, P, LA, 25 Apr, 1 May, 2 Jun, 15 Aug, 1 Nov, 8 Dec, 25 Dec, 26 Dec, Aug","Gruppo MAL 2012","2012-01-02","2012-12-31","From http://www.salute.bologna.it/"
"amb195","Medico di Medicina Generale","MACCARI SANDRA","Piazza Clodoveo Bonazzi, Bologna BO, Italy","44.496323","11.2930951","privato",," Wed: 0830-1130.","1 Jan, 6 Jan, P, LA, 25 Apr, 1 May, 2 Jun, 15 Aug, 1 Nov, 8 Dec, 25 Dec, 26 Dec, Aug","Gruppo MAL 2012","2012-01-02","2012-12-31","From http://www.salute.bologna.it/"
"amb196","Medico di Medicina Generale","MACCARI SANDRA","Via Parigi, Bologna BO, Italy","44.4966975","11.3405424","privato",," Mon, Wed, Thu: 1530-1900. Tue, Fri: 0830-1200.","1 Jan, 6 Jan, P, LA, 25 Apr, 1 May, 2 Jun, 15 Aug, 1 Nov, 8 Dec, 25 Dec, 26 Dec, Aug","Gruppo MAL 2012","2012-01-02","2012-12-31","From http://www.salute.bologna.it/"
"amb197","Medico di Medicina Generale","MAGAGNI PAOLO","Via Genuzio Bentini, Bologna BO, Italy","44.5478296","11.3561424","privato",," Tue: 1000-1300. Wed, Thu: 1600-1900. Mon, Fri: 1500-1900.","1 Jan, 6 Jan, P, LA, 25 Apr, 1 May, 2 Jun, 15 Aug, 1 Nov, 8 Dec, 25 Dec, 26 Dec, Aug","Gruppo MAL 2012","2012-01-02","2012-12-31","From http://www.salute.bologna.it/"
"amb198","Medico di Medicina Generale","MAJONCHI ROBERTO","Via Carlo Cattaneo, Bologna BO, Italy","44.5204529","11.2756893","privato",," Tue, Thu: 1700-1900. Mon, Wed, Fri: 1500-1700.","1 Jan, 6 Jan, P, LA, 25 Apr, 1 May, 2 Jun, 15 Aug, 1 Nov, 8 Dec, 25 Dec, 26 Dec, Aug","Gruppo MAL 2012","2012-01-02","2012-12-31","From http://www.salute.bologna.it/"
"amb199","Medico di Medicina Generale","MALAVOLTI LUCA","Via D. Calvart, Bologna BO, Italy","44.5159297","11.3454588","privato",," Mon, Wed, Thu: 1500-1800. Tue, Fri: 0930-1230.","1 Jan, 6 Jan, P, LA, 25 Apr, 1 May, 2 Jun, 15 Aug, 1 Nov, 8 Dec, 25 Dec, 26 Dec, Aug","Gruppo MAL 2012","2012-01-02","2012-12-31","From http://www.salute.bologna.it/"
"amb200","Medico di Medicina Generale","MANGANARO DOMENICO","Via Emilia Levante, Bologna BO, Italy","44.4806921","11.3816329","privato",," Mon: 0900-1100. Wed: 1700-1830. Thu, Fri: 1100-1200.","1 Jan, 6 Jan, P, LA, 25 Apr, 1 May, 2 Jun, 15 Aug, 1 Nov, 8 Dec, 25 Dec, 26 Dec, Aug","Gruppo MAL 2012","2012-01-02","2012-12-31","From http://www.salute.bologna.it/"
"amb201","Medico di Medicina Generale","MANGANARO DOMENICO","Via Tommaso Salvini, Bologna BO, Italy","44.5042689","11.3655201","privato",," Mon: 1830-2000. Fri: 0900-1045. Tue, Wed, Thu: 1430-1630.","1 Jan, 6 Jan, P, LA, 25 Apr, 1 May, 2 Jun, 15 Aug, 1 Nov, 8 Dec, 25 Dec, 26 Dec, Aug","Gruppo MAL 2012","2012-01-02","2012-12-31","From http://www.salute.bologna.it/"
"amb202","Medico di Medicina Generale","MANGANARO GIOVANNI","Via Sardegna, Bologna BO, Italy","44.475348","11.3842196","privato",," Mon: 1630-1900. Wed: 1600-1900. Fri: 1000-1200. Tue, Thu: 0930-1130.","1 Jan, 6 Jan, P, LA, 25 Apr, 1 May, 2 Jun, 15 Aug, 1 Nov, 8 Dec, 25 Dec, 26 Dec, Aug","Gruppo MAL 2012","2012-01-02","2012-12-31","From http://www.salute.bologna.it/"
"amb203","Medico di Medicina Generale","MANUZZI PATRIZIA","Via Adelaide Ristori, Bologna BO, Italy","44.5025381","11.3708495","privato",," Mon: 1530-1730. Wed, Thu: 1045-1300;1300-1330. Tue, Fri: 1400-1500.","1 Jan, 6 Jan, P, LA, 25 Apr, 1 May, 2 Jun, 15 Aug, 1 Nov, 8 Dec, 25 Dec, 26 Dec, Aug","Gruppo MAL 2012","2012-01-02","2012-12-31","From http://www.salute.bologna.it/"
"amb204","Medico di Medicina Generale","MAODDI CATERINA","Via Cesare Battisti, Bologna BO, Italy","44.4938074","11.3385139","privato",," Mon, Tue: 1500-1600. Wed, Thu, Fri: 0900-1000.","1 Jan, 6 Jan, P, LA, 25 Apr, 1 May, 2 Jun, 15 Aug, 1 Nov, 8 Dec, 25 Dec, 26 Dec, Aug","Gruppo MAL 2012","2012-01-02","2012-12-31","From http://www.salute.bologna.it/"
"amb205","Medico di Medicina Generale","MARANDO GRAZIA MARIA","Via Augusto Murri, Bologna BO, Italy","44.4791299","11.3640459","privato",," Mon, Tue: 1500-1600. Wed, Thu, Fri: 0900-1000.","1 Jan, 6 Jan, P, LA, 25 Apr, 1 May, 2 Jun, 15 Aug, 1 Nov, 8 Dec, 25 Dec, 26 Dec, Aug","Gruppo MAL 2012","2012-01-02","2012-12-31","From http://www.salute.bologna.it/"
"amb206","Medico di Medicina Generale","MARCHESINI FABIO","Via Emilia Ponente, Bologna BO, Italy","44.506448","11.3058634","privato",," Mon: 1130-1300;1300-1400. Tue, Thu: 1700-1900.","1 Jan, 6 Jan, P, LA, 25 Apr, 1 May, 2 Jun, 15 Aug, 1 Nov, 8 Dec, 25 Dec, 26 Dec, Aug","Gruppo MAL 2012","2012-01-02","2012-12-31","From http://www.salute.bologna.it/"
"amb207","Medico di Medicina Generale","MARCHESINI FABIO","Via Lemonia, 45/e, Bologna BO, Italy","44.5066061","11.2996065","privato",," Tue: 1100-1300. Thu: 1200-1330. Mon, Wed, Fri: 1700-1930.","1 Jan, 6 Jan, P, LA, 25 Apr, 1 May, 2 Jun, 15 Aug, 1 Nov, 8 Dec, 25 Dec, 26 Dec, Aug","Gruppo MAL 2012","2012-01-02","2012-12-31","From http://www.salute.bologna.it/"
"amb208","Medico di Medicina Generale","MARINO' VINCENZO","Via Degli Orti, Bologna BO, Italy","44.4758466","11.3773975","privato",," Mon: 1530-1930. Tue, Thu: 1530-2000. Wed, Fri: 0800-1200.","1 Jan, 6 Jan, P, LA, 25 Apr, 1 May, 2 Jun, 15 Aug, 1 Nov, 8 Dec, 25 Dec, 26 Dec, Aug","Gruppo MAL 2012","2012-01-02","2012-12-31","From http://www.salute.bologna.it/"
"amb209","Medico di Medicina Generale","MARTELLA MARIA LUCIA","Piazza Grigoris Lambrakis, Bologna BO, Italy","44.4768763","11.3974968","privato",," Mon: 1530-1730. Wed: 1530-1900. Tue, Thu, Fri: 1730-1900.","1 Jan, 6 Jan, P, LA, 25 Apr, 1 May, 2 Jun, 15 Aug, 1 Nov, 8 Dec, 25 Dec, 26 Dec, Aug","Gruppo MAL 2012","2012-01-02","2012-12-31","From http://www.salute.bologna.it/"
"amb210","Medico di Medicina Generale","MARTELLI DANIELA","Via Lemonia, 45/e, Bologna BO, Italy","44.5066061","11.2996065","privato",," Mon, Wed: 1630-1900. Tue, Thu, Fri: 1000-1230.","1 Jan, 6 Jan, P, LA, 25 Apr, 1 May, 2 Jun, 15 Aug, 1 Nov, 8 Dec, 25 Dec, 26 Dec, Aug","Gruppo MAL 2012","2012-01-02","2012-12-31","From http://www.salute.bologna.it/"
"amb211","Medico di Medicina Generale","MARZO CARLA","Via Guglielmo Oberdan, Bologna BO, Italy","44.4965546","11.3459426","privato",," Tue: 1530-1700. Wed: 1730-1900. Fri: 1100-1300;1300-1330. Mon, Thu: 0930-1100.","1 Jan, 6 Jan, P, LA, 25 Apr, 1 May, 2 Jun, 15 Aug, 1 Nov, 8 Dec, 25 Dec, 26 Dec, Aug","Gruppo MAL 2012","2012-01-02","2012-12-31","From http://www.salute.bologna.it/"
"amb212","Medico di Medicina Generale","MARZO CARLA","Via Tullio Golfarelli, Bologna BO, Italy",,,"privato",," Mon: 1600-1900. Wed: 0900-1100. Fri: 0900-1030.","1 Jan, 6 Jan, P, LA, 25 Apr, 1 May, 2 Jun, 15 Aug, 1 Nov, 8 Dec, 25 Dec, 26 Dec, Aug","Gruppo MAL 2012","2012-01-02","2012-12-31","From http://www.salute.bologna.it/"
"amb213","Medico di Medicina Generale","MASCAGNI GIUSEPPE","Via Emilia Ponente, Bologna BO, Italy","44.506448","11.3058634","privato",," Tue, Thu: 0930-1100. Mon, Wed, Fri: 1700-1900.","1 Jan, 6 Jan, P, LA, 25 Apr, 1 May, 2 Jun, 15 Aug, 1 Nov, 8 Dec, 25 Dec, 26 Dec, Aug","Gruppo MAL 2012","2012-01-02","2012-12-31","From http://www.salute.bologna.it/"
"amb214","Medico di Medicina Generale","MASCAGNI GIUSEPPE","Via Pasubio, Bologna BO, Italy","44.4980875","11.3190464","privato",," Mon, Wed, Fri: 0830-1000.","1 Jan, 6 Jan, P, LA, 25 Apr, 1 May, 2 Jun, 15 Aug, 1 Nov, 8 Dec, 25 Dec, 26 Dec, Aug","Gruppo MAL 2012","2012-01-02","2012-12-31","From http://www.salute.bologna.it/"
"amb215","Medico di Medicina Generale","MASCIA FILOMENA","Via Don Minzoni, Bologna BO, Italy","44.5027219","11.3372826","privato",," Thu: 1600-1800. Mon, Tue: 0815-1100. Wed, Fri: 1800-1900.","1 Jan, 6 Jan, P, LA, 25 Apr, 1 May, 2 Jun, 15 Aug, 1 Nov, 8 Dec, 25 Dec, 26 Dec, Aug","Gruppo MAL 2012","2012-01-02","2012-12-31","From http://www.salute.bologna.it/"
"amb216","Medico di Medicina Generale","MASCIA FILOMENA","Via Montefiorino, Bologna BO, Italy","44.4962573","11.3153172","privato",," Mon: 1600-1800. Wed: 0815-1100. Fri: 1000-1130.","1 Jan, 6 Jan, P, LA, 25 Apr, 1 May, 2 Jun, 15 Aug, 1 Nov, 8 Dec, 25 Dec, 26 Dec, Aug","Gruppo MAL 2012","2012-01-02","2012-12-31","From http://www.salute.bologna.it/"
"amb217","Medico di Medicina Generale","MASOTTI MASSIMO","Via Cesare Battisti, Bologna BO, Italy","44.4938074","11.3385139","privato",," Mon: 1100-1400. Tue, Thu: 1600-1900. Wed, Fri: 1600-1800.","1 Jan, 6 Jan, P, LA, 25 Apr, 1 May, 2 Jun, 15 Aug, 1 Nov, 8 Dec, 25 Dec, 26 Dec, Aug","Gruppo MAL 2012","2012-01-02","2012-12-31","From http://www.salute.bologna.it/"
"amb218","Medico di Medicina Generale","MASOTTI MASSIMO","Via Marco Emilio Lepido, 45/c, Bologna BO, Italy","44.5172964","11.2757796","privato",," Mon, Tue, Fri: 0900-1000.","1 Jan, 6 Jan, P, LA, 25 Apr, 1 May, 2 Jun, 15 Aug, 1 Nov, 8 Dec, 25 Dec, 26 Dec, Aug","Gruppo MAL 2012","2012-01-02","2012-12-31","From http://www.salute.bologna.it/"
"amb219","Medico di Medicina Generale","MATERA GIANNI","Via Ghirardini, Bologna BO, Italy","44.4680013","11.3734924","privato",," Fri: 1430-1800. Tue, Wed: 0930-1230. Mon, Thu: 1430-1930.","1 Jan, 6 Jan, P, LA, 25 Apr, 1 May, 2 Jun, 15 Aug, 1 Nov, 8 Dec, 25 Dec, 26 Dec, Aug","Gruppo MAL 2012","2012-01-02","2012-12-31","From http://www.salute.bologna.it/"
"amb220","Medico di Medicina Generale","MATRA' ANNUNZIO","Via Salvador Allende, Bologna BO, Italy","44.4843527","11.3880229","privato",," Wed: 1600-1900. Thu: 1600-1930. Fri: 1000-1300;1600-1800. Mon, Tue: 1000-1300;1600-1900.","1 Jan, 6 Jan, P, LA, 25 Apr, 1 May, 2 Jun, 15 Aug, 1 Nov, 8 Dec, 25 Dec, 26 Dec, Aug","Gruppo MAL 2012","2012-01-02","2012-12-31","From http://www.salute.bologna.it/"
"amb221","Medico di Medicina Generale","MAZZANTI PATRIZIA","Piazza Aldo Capitini, Bologna BO, Italy","44.4953139","11.2928214","privato",," Mon, Thu: 1600-1900. Tue, Wed, Fri: 1100-1400.","1 Jan, 6 Jan, P, LA, 25 Apr, 1 May, 2 Jun, 15 Aug, 1 Nov, 8 Dec, 25 Dec, 26 Dec, Aug","Gruppo MAL 2012","2012-01-02","2012-12-31","From http://www.salute.bologna.it/"
"amb222","Medico di Medicina Generale","MAZZETTI GAITO PIERO","Via Bellaria, Bologna BO, Italy","44.4771684","11.3856847","privato",," Tue: 1500-1800. Wed: 0800-1030;1400-1700. Fri: 0800-1030;1500-1800. Mon, Thu: 0800-1230.","1 Jan, 6 Jan, P, LA, 25 Apr, 1 May, 2 Jun, 15 Aug, 1 Nov, 8 Dec, 25 Dec, 26 Dec, Aug","Gruppo MAL 2012","2012-01-02","2012-12-31","From http://www.salute.bologna.it/"
"amb223","Medico di Medicina Generale","MAZZETTI GAITO PIERO","Via Garibaldi, Bologna BO, Italy","44.489745","11.3434185","privato",," Tue: 0800-1030. Mon, Thu: 1530-1730.","1 Jan, 6 Jan, P, LA, 25 Apr, 1 May, 2 Jun, 15 Aug, 1 Nov, 8 Dec, 25 Dec, 26 Dec, Aug","Gruppo MAL 2012","2012-01-02","2012-12-31","From http://www.salute.bologna.it/"
"amb224","Medico di Medicina Generale","MAZZONI GIAMPIERO","Via Pasubio, Bologna BO, Italy","44.4980875","11.3190464","privato",," Mon: 1100-1300;1500-1830. Wed: 0830-1030;1500-1830. Tue, Thu, Fri: 1500-1830.","1 Jan, 6 Jan, P, LA, 25 Apr, 1 May, 2 Jun, 15 Aug, 1 Nov, 8 Dec, 25 Dec, 26 Dec, Aug","Gruppo MAL 2012","2012-01-02","2012-12-31","From http://www.salute.bologna.it/"
"amb225","Medico di Medicina Generale","MAZZONI GIANLUIGI","Via Pasubio, Bologna BO, Italy","44.4980875","11.3190464","privato",," Mon, Wed: 1500-1900. Tue, Thu, Fri: 1500-1800.","1 Jan, 6 Jan, P, LA, 25 Apr, 1 May, 2 Jun, 15 Aug, 1 Nov, 8 Dec, 25 Dec, 26 Dec, Aug","Gruppo MAL 2012","2012-01-02","2012-12-31","From http://www.salute.bologna.it/"
"amb226","Medico di Medicina Generale","MAZZONI GIANLUIGI","Via Saragozza, Bologna BO, Italy","44.4900031","11.3334144","privato",," Mon, Tue, Thu, Fri: 1015-1100.","1 Jan, 6 Jan, P, LA, 25 Apr, 1 May, 2 Jun, 15 Aug, 1 Nov, 8 Dec, 25 Dec, 26 Dec, Aug","Gruppo MAL 2012","2012-01-02","2012-12-31","From http://www.salute.bologna.it/"
"amb227","Medico di Medicina Generale","MERLO DARIO","Via Ferrarese, Bologna BO, Italy","44.5290248","11.363979","privato",," Tue: 0930-1100. Thu: 0900-1030. Fri: 1500-1630. Mon, Wed: 1530-1700.","1 Jan, 6 Jan, P, LA, 25 Apr, 1 May, 2 Jun, 15 Aug, 1 Nov, 8 Dec, 25 Dec, 26 Dec, Aug","Gruppo MAL 2012","2012-01-02","2012-12-31","From http://www.salute.bologna.it/"
"amb228","Medico di Medicina Generale","MINGHELLI MARIA CRISTINA","Via Marco Emilio Lepido, 177, Bologna BO, Italy","44.5198613","11.2683093","privato",," Tue, Wed, Thu: 0900-1300. Mon, Fri: 1500-1900.","1 Jan, 6 Jan, P, LA, 25 Apr, 1 May, 2 Jun, 15 Aug, 1 Nov, 8 Dec, 25 Dec, 26 Dec, Aug","Gruppo MAL 2012","2012-01-02","2012-12-31","From http://www.salute.bologna.it/"
"amb229","Medico di Medicina Generale","MOHAMED ALAMIN MUNIRA","Via Ferrarese, Bologna BO, Italy","44.5290248","11.363979","privato",," Tue: 1330-1430. Wed: 1730-1930. Thu: 1030-1230. Mon, Fri: 1700-1900.","1 Jan, 6 Jan, P, LA, 25 Apr, 1 May, 2 Jun, 15 Aug, 1 Nov, 8 Dec, 25 Dec, 26 Dec, Aug","Gruppo MAL 2012","2012-01-02","2012-12-31","From http://www.salute.bologna.it/"
"amb230","Medico di Medicina Generale","MOHAMED ALAMIN MUNIRA","Via San Vitale, Bologna BO, Italy","44.4942188","11.3518204","privato",," Tue: 1700-1800.","1 Jan, 6 Jan, P, LA, 25 Apr, 1 May, 2 Jun, 15 Aug, 1 Nov, 8 Dec, 25 Dec, 26 Dec, Aug","Gruppo MAL 2012","2012-01-02","2012-12-31","From http://www.salute.bologna.it/"
"amb231","Medico di Medicina Generale","MONORCHIO SAVERIO","Via Augusto Righi, Bologna BO, Italy","44.4989253","11.345221","privato",," Mon: 1800-1900. Tue: 0900-1100. Wed: 0800-0900. Thu: 1200-1300. Fri: 1700-1900.","1 Jan, 6 Jan, P, LA, 25 Apr, 1 May, 2 Jun, 15 Aug, 1 Nov, 8 Dec, 25 Dec, 26 Dec, Aug","Gruppo MAL 2012","2012-01-02","2012-12-31","From http://www.salute.bologna.it/"
"amb232","Medico di Medicina Generale","MONORCHIO SAVERIO","Via Casarini, Bologna BO, Italy","44.5041685","11.329189","privato",," Tue, Wed: 1600-1900. Mon, Thu, Fri: 0900-1100.","1 Jan, 6 Jan, P, LA, 25 Apr, 1 May, 2 Jun, 15 Aug, 1 Nov, 8 Dec, 25 Dec, 26 Dec, Aug","Gruppo MAL 2012","2012-01-02","2012-12-31","From http://www.salute.bologna.it/"
"amb233","Medico di Medicina Generale","MONORCHIO SAVERIO","Via Parigi, Bologna BO, Italy","44.4966975","11.3405424","privato",," Mon, Thu: 1630-1745. Tue, Fri: 1130-1230.","1 Jan, 6 Jan, P, LA, 25 Apr, 1 May, 2 Jun, 15 Aug, 1 Nov, 8 Dec, 25 Dec, 26 Dec, Aug","Gruppo MAL 2012","2012-01-02","2012-12-31","From http://www.salute.bologna.it/"
"amb234","Medico di Medicina Generale","MONTANARI MARIA TERESA","Via Federico Beroaldo, Bologna BO, Italy",,,"privato",," Wed, Thu: 1500-1800. Mon, Tue, Fri: 0830-1130.","1 Jan, 6 Jan, P, LA, 25 Apr, 1 May, 2 Jun, 15 Aug, 1 Nov, 8 Dec, 25 Dec, 26 Dec, Aug","Gruppo MAL 2012","2012-01-02","2012-12-31","From http://www.salute.bologna.it/"
"amb235","Medico di Medicina Generale","MONTI DANTE","Via Dante, Bologna BO, Italy","44.4872918","11.3570444","privato",," Mon, Tue, Thu: 1500-1900. Wed, Fri: 0900-1100;1700-1900.","1 Jan, 6 Jan, P, LA, 25 Apr, 1 May, 2 Jun, 15 Aug, 1 Nov, 8 Dec, 25 Dec, 26 Dec, Aug","Gruppo MAL 2012","2012-01-02","2012-12-31","From http://www.salute.bologna.it/"
"amb236","Medico di Medicina Generale","MONTOSI PAOLO","Via Isabella Andreini, Bologna BO, Italy","44.5019684","11.3737344","privato",," Mon, Tue, Wed, Thu, Fri: 1530-1900.","1 Jan, 6 Jan, P, LA, 25 Apr, 1 May, 2 Jun, 15 Aug, 1 Nov, 8 Dec, 25 Dec, 26 Dec, Aug","Gruppo MAL 2012","2012-01-02","2012-12-31","From http://www.salute.bologna.it/"
"amb237","Medico di Medicina Generale","MORINI EMIDIO","Via Giuseppe Massarenti, Bologna BO, Italy","44.4933814","11.3739186","privato",," Mon, Tue, Wed, Thu, Fri: 0845-1045.","1 Jan, 6 Jan, P, LA, 25 Apr, 1 May, 2 Jun, 15 Aug, 1 Nov, 8 Dec, 25 Dec, 26 Dec, Aug","Gruppo MAL 2012","2012-01-02","2012-12-31","From http://www.salute.bologna.it/"
"amb238","Medico di Medicina Generale","MORINI EMIDIO","Via Marsili, 1, Bologna BO, Italy","44.4899785","11.3411702","privato",," Mon, Wed, Fri: 1530-1700.","1 Jan, 6 Jan, P, LA, 25 Apr, 1 May, 2 Jun, 15 Aug, 1 Nov, 8 Dec, 25 Dec, 26 Dec, Aug","Gruppo MAL 2012","2012-01-02","2012-12-31","From http://www.salute.bologna.it/"
"amb239","Medico di Medicina Generale","MORUZZI GIAMPIERO","Via Parigi, Bologna BO, Italy","44.4966975","11.3405424","privato",," Thu: 1000-1230. Fri: 0930-1230. Mon, Tue, Wed: 1400-1900.","1 Jan, 6 Jan, P, LA, 25 Apr, 1 May, 2 Jun, 15 Aug, 1 Nov, 8 Dec, 25 Dec, 26 Dec, Aug","Gruppo MAL 2012","2012-01-02","2012-12-31","From http://www.salute.bologna.it/"
"amb240","Medico di Medicina Generale","MOTTARAN CARLO","Via Ferrarese, Bologna BO, Italy","44.5290248","11.363979","privato",," Tue: 1530-1830. Thu: 1530-1900. Mon, Wed, Fri: 0930-1230.","1 Jan, 6 Jan, P, LA, 25 Apr, 1 May, 2 Jun, 15 Aug, 1 Nov, 8 Dec, 25 Dec, 26 Dec, Aug","Gruppo MAL 2012","2012-01-02","2012-12-31","From http://www.salute.bologna.it/"
"amb241","Medico di Medicina Generale","MUSCONI MARINELLA","Via G. Papini, Bologna BO, Italy","44.5342535","11.3535379","privato",," Mon: 1500-1800. Wed: 1430-1630.","1 Jan, 6 Jan, P, LA, 25 Apr, 1 May, 2 Jun, 15 Aug, 1 Nov, 8 Dec, 25 Dec, 26 Dec, Aug","Gruppo MAL 2012","2012-01-02","2012-12-31","From http://www.salute.bologna.it/"
"amb242","Medico di Medicina Generale","MUSCONI MARINELLA","Via Genuzio Bentini, Bologna BO, Italy","44.5478296","11.3561424","privato",," Wed: 1700-1800. Thu: 1430-1530. Fri: 1500-1800. Mon, Tue: 1400-1500.","1 Jan, 6 Jan, P, LA, 25 Apr, 1 May, 2 Jun, 15 Aug, 1 Nov, 8 Dec, 25 Dec, 26 Dec, Aug","Gruppo MAL 2012","2012-01-02","2012-12-31","From http://www.salute.bologna.it/"
"amb243","Medico di Medicina Generale","MUSTAFA ATTAIB","Via Zanardi, Bologna BO, Italy","44.524146","11.3226975","privato",," Tue, Thu: 1300-1300;1300-1800. Mon, Wed, Fri: 0830-1230.","1 Jan, 6 Jan, P, LA, 25 Apr, 1 May, 2 Jun, 15 Aug, 1 Nov, 8 Dec, 25 Dec, 26 Dec, Aug","Gruppo MAL 2012","2012-01-02","2012-12-31","From http://www.salute.bologna.it/"
"amb244","Medico di Medicina Generale","NALDONI PAOLA","Via Andrea Costa, Bologna BO, Italy","44.4925668","11.3024479","privato",," Mon, Tue, Wed, Thu, Fri: 1400-1600.","1 Jan, 6 Jan, P, LA, 25 Apr, 1 May, 2 Jun, 15 Aug, 1 Nov, 8 Dec, 25 Dec, 26 Dec, Aug","Gruppo MAL 2012","2012-01-02","2012-12-31","From http://www.salute.bologna.it/"
"amb245","Medico di Medicina Generale","NALDONI PAOLA","Via Nani, Bologna BO, Italy","44.5189023","11.2773105","privato",," Wed: 0800-1100. Mon, Tue, Thu, Fri: 1700-1900.","1 Jan, 6 Jan, P, LA, 25 Apr, 1 May, 2 Jun, 15 Aug, 1 Nov, 8 Dec, 25 Dec, 26 Dec, Aug","Gruppo MAL 2012","2012-01-02","2012-12-31","From http://www.salute.bologna.it/"
"amb246","Medico di Medicina Generale","NICOSIA SALVATORE","Via Santo Stefano, Bologna BO, Italy","44.4892525","11.3510745","privato",," Mon: 0930-1030. Wed: 1600-1700.","1 Jan, 6 Jan, P, LA, 25 Apr, 1 May, 2 Jun, 15 Aug, 1 Nov, 8 Dec, 25 Dec, 26 Dec, Aug","Gruppo MAL 2012","2012-01-02","2012-12-31","From http://www.salute.bologna.it/"
"amb247","Medico di Medicina Generale","NICOSIA SALVATORE","Via Sardegna, Bologna BO, Italy","44.475348","11.3842196","privato",," Mon: 1500-1700. Tue: 1300-1500. Fri: 1030-1230. Wed, Thu: 1000-1230.","1 Jan, 6 Jan, P, LA, 25 Apr, 1 May, 2 Jun, 15 Aug, 1 Nov, 8 Dec, 25 Dec, 26 Dec, Aug","Gruppo MAL 2012","2012-01-02","2012-12-31","From http://www.salute.bologna.it/"
"amb248","Medico di Medicina Generale","NIGRO GRAZIANO","Via Nani, Bologna BO, Italy","44.5189023","11.2773105","privato",," Mon: 0930-1230;1300-1315. Tue, Thu: 1530-1900. Wed, Fri: 0930-1230.","1 Jan, 6 Jan, P, LA, 25 Apr, 1 May, 2 Jun, 15 Aug, 1 Nov, 8 Dec, 25 Dec, 26 Dec, Aug","Gruppo MAL 2012","2012-01-02","2012-12-31","From http://www.salute.bologna.it/"
"amb249","Medico di Medicina Generale","OGGIANU MASSIMO","Piazza Dell'unita', Bologna BO, Italy","44.5113385","11.3473655","privato",," Tue: 1700-1930. Wed: 1700-1900. Thu: 1430-1630. Mon, Fri: 0830-1030.","1 Jan, 6 Jan, P, LA, 25 Apr, 1 May, 2 Jun, 15 Aug, 1 Nov, 8 Dec, 25 Dec, 26 Dec, Aug","Gruppo MAL 2012","2012-01-02","2012-12-31","From http://www.salute.bologna.it/"
"amb250","Medico di Medicina Generale","OGGIANU MASSIMO","Via Saffi, 63, Bologna BO, Italy","44.5007973","11.3233227","privato",," Tue: 0900-1100. Wed: 0900-1030. Thu: 1700-1900. Mon, Fri: 1630-1830.","1 Jan, 6 Jan, P, LA, 25 Apr, 1 May, 2 Jun, 15 Aug, 1 Nov, 8 Dec, 25 Dec, 26 Dec, Aug","Gruppo MAL 2012","2012-01-02","2012-12-31","From http://www.salute.bologna.it/"
"amb251","Medico di Medicina Generale","OGNIBENE GIAN LUCA","Piazza Giovanni Xxiii, Bologna BO, Italy","44.4953812","11.2850627","privato",," Mon: 1500-1630. Tue: 1030-1200. Wed: 1545-1715. Thu: 1300-1400. Fri: 0830-0930.","1 Jan, 6 Jan, P, LA, 25 Apr, 1 May, 2 Jun, 15 Aug, 1 Nov, 8 Dec, 25 Dec, 26 Dec, Aug","Gruppo MAL 2012","2012-01-02","2012-12-31","From http://www.salute.bologna.it/"
"amb252","Medico di Medicina Generale","OGNIBENE GIAN LUCA","Via Mario Bastia, 18, Bologna BO, Italy","44.4919269","11.315698","privato",," Tue: 1530-1700. Thu: 1000-1130. Mon, Wed: 1730-1830.","1 Jan, 6 Jan, P, LA, 25 Apr, 1 May, 2 Jun, 15 Aug, 1 Nov, 8 Dec, 25 Dec, 26 Dec, Aug","Gruppo MAL 2012","2012-01-02","2012-12-31","From http://www.salute.bologna.it/"
"amb253","Medico di Medicina Generale","OGNIBENE GIAN LUCA","Via Normandia, Bologna BO, Italy","44.5229975","11.2636782","privato",," Thu: 1730-1900. Mon, Wed, Fri: 1000-1130.","1 Jan, 6 Jan, P, LA, 25 Apr, 1 May, 2 Jun, 15 Aug, 1 Nov, 8 Dec, 25 Dec, 26 Dec, Aug","Gruppo MAL 2012","2012-01-02","2012-12-31","From http://www.salute.bologna.it/"
"amb254","Medico di Medicina Generale","ORSONI SONIA","Via Lemonia, 45/e, Bologna BO, Italy","44.5066061","11.2996065","privato",," Tue: 1800-1900. Thu: 1730-1830. Fri: 1300-1400. Mon, Wed: 1230-1330.","1 Jan, 6 Jan, P, LA, 25 Apr, 1 May, 2 Jun, 15 Aug, 1 Nov, 8 Dec, 25 Dec, 26 Dec, Aug","Gruppo MAL 2012","2012-01-02","2012-12-31","From http://www.salute.bologna.it/"
"amb255","Medico di Medicina Generale","ORSONI SONIA","Via Mascarella, Bologna BO, Italy","44.4999578","11.3506972","privato",," Tue: 1600-1730. Mon, Wed, Thu: 1500-1630.","1 Jan, 6 Jan, P, LA, 25 Apr, 1 May, 2 Jun, 15 Aug, 1 Nov, 8 Dec, 25 Dec, 26 Dec, Aug","Gruppo MAL 2012","2012-01-02","2012-12-31","From http://www.salute.bologna.it/"
"amb256","Medico di Medicina Generale","PAGANINI LUISA","Via Federico Beroaldo, Bologna BO, Italy",,,"privato",," Mon, Wed: 1500-1700. Tue, Thu, Fri: 0900-1100.","1 Jan, 6 Jan, P, LA, 25 Apr, 1 May, 2 Jun, 15 Aug, 1 Nov, 8 Dec, 25 Dec, 26 Dec, Aug","Gruppo MAL 2012","2012-01-02","2012-12-31","From http://www.salute.bologna.it/"
"amb257","Medico di Medicina Generale","PAGGIOLA CRISTINA","Via Aristotile Fioravanti, Bologna BO, Italy","44.5127276","11.3414972","privato",," Tue, Thu: 0900-1000. Mon, Wed, Fri: 1530-1630.","1 Jan, 6 Jan, P, LA, 25 Apr, 1 May, 2 Jun, 15 Aug, 1 Nov, 8 Dec, 25 Dec, 26 Dec, Aug","Gruppo MAL 2012","2012-01-02","2012-12-31","From http://www.salute.bologna.it/"
"amb258","Medico di Medicina Generale","PALASCIANO MARIA","Via Rodolfo Audinot, Bologna BO, Italy","44.4923288","11.3270592","privato",," Mon: 0900-1230. Thu: 0930-1230;1630-1900. Fri: 0930-1230. Tue, Wed: 1630-1900.","1 Jan, 6 Jan, P, LA, 25 Apr, 1 May, 2 Jun, 15 Aug, 1 Nov, 8 Dec, 25 Dec, 26 Dec, Aug","Gruppo MAL 2012","2012-01-02","2012-12-31","From http://www.salute.bologna.it/"
"amb259","Medico di Medicina Generale","PALAZZI TRIVELLI ALBERTO","Via Giuseppe Massarenti, Bologna BO, Italy","44.4933814","11.3739186","privato",," Mon: 0930-1100;1600-1730. Thu: 0930-1100. Fri: 0930-1100;1600-1700. Tue, Wed: 1600-1730.","1 Jan, 6 Jan, P, LA, 25 Apr, 1 May, 2 Jun, 15 Aug, 1 Nov, 8 Dec, 25 Dec, 26 Dec, Aug","Gruppo MAL 2012","2012-01-02","2012-12-31","From http://www.salute.bologna.it/"
"amb260","Medico di Medicina Generale","PALMIERI STEFANO","Piazza Di Porta Mascarella, Bologna BO, Italy","44.5021583","11.3526702","privato",," Tue: 1000-1100. Fri: 1600-1700.","1 Jan, 6 Jan, P, LA, 25 Apr, 1 May, 2 Jun, 15 Aug, 1 Nov, 8 Dec, 25 Dec, 26 Dec, Aug","Gruppo MAL 2012","2012-01-02","2012-12-31","From http://www.salute.bologna.it/"
"amb261","Medico di Medicina Generale","PALMIERI STEFANO","Via Giuseppe Massarenti, Bologna BO, Italy","44.4933814","11.3739186","privato",," Tue: 1500-1600. Wed: 1630-1830. Thu: 1000-1100. Mon, Fri: 1000-1200.","1 Jan, 6 Jan, P, LA, 25 Apr, 1 May, 2 Jun, 15 Aug, 1 Nov, 8 Dec, 25 Dec, 26 Dec, Aug","Gruppo MAL 2012","2012-01-02","2012-12-31","From http://www.salute.bologna.it/"
"amb262","Medico di Medicina Generale","PALMIERI STEFANO","Via San Gervasio, Bologna BO, Italy","44.4964623","11.3380397","privato",," Tue: 1700-1800. Thu: 1600-1700.","1 Jan, 6 Jan, P, LA, 25 Apr, 1 May, 2 Jun, 15 Aug, 1 Nov, 8 Dec, 25 Dec, 26 Dec, Aug","Gruppo MAL 2012","2012-01-02","2012-12-31","From http://www.salute.bologna.it/"
"amb263","Medico di Medicina Generale","PAOLO MARCELLO","Via Marco Emilio Lepido, 151, Bologna BO, Italy","44.5187664","11.2719514","privato",," Mon, Tue, Thu: 1600-1900. Wed, Fri: 1500-1600.","1 Jan, 6 Jan, P, LA, 25 Apr, 1 May, 2 Jun, 15 Aug, 1 Nov, 8 Dec, 25 Dec, 26 Dec, Aug","Gruppo MAL 2012","2012-01-02","2012-12-31","From http://www.salute.bologna.it/"
"amb264","Medico di Medicina Generale","PARRINELLO TULLIO","Via Della Battaglia, Bologna BO, Italy","44.4671475","11.3799324","privato",," Mon, Wed: 1730-1900. Tue, Thu, Fri: 1530-1700.","1 Jan, 6 Jan, P, LA, 25 Apr, 1 May, 2 Jun, 15 Aug, 1 Nov, 8 Dec, 25 Dec, 26 Dec, Aug","Gruppo MAL 2012","2012-01-02","2012-12-31","From http://www.salute.bologna.it/"
"amb265","Medico di Medicina Generale","PASI CLAUDIO","Via Floriano Ambrosini, Bologna BO, Italy","44.5003953","11.3253712","privato",," Mon, Tue, Wed: 1630-1830.","1 Jan, 6 Jan, P, LA, 25 Apr, 1 May, 2 Jun, 15 Aug, 1 Nov, 8 Dec, 25 Dec, 26 Dec, Aug","Gruppo MAL 2012","2012-01-02","2012-12-31","From http://www.salute.bologna.it/"
"amb266","Medico di Medicina Generale","PASI CLAUDIO","Via Parigi, Bologna BO, Italy","44.4966975","11.3405424","privato",," Wed: 1830-1930. Fri: 1500-1900. Mon, Tue, Sat: 1030-1200.","1 Jan, 6 Jan, P, LA, 25 Apr, 1 May, 2 Jun, 15 Aug, 1 Nov, 8 Dec, 25 Dec, 26 Dec, Aug","Gruppo MAL 2012","2012-01-02","2012-12-31","From http://www.salute.bologna.it/"
"amb267","Medico di Medicina Generale","PASQUALONI PAOLO","Via Lemonia, 45/e, Bologna BO, Italy","44.5066061","11.2996065","privato",," Fri: 0930-1200. Tue, Thu: 1630-1900.","1 Jan, 6 Jan, P, LA, 25 Apr, 1 May, 2 Jun, 15 Aug, 1 Nov, 8 Dec, 25 Dec, 26 Dec, Aug","Gruppo MAL 2012","2012-01-02","2012-12-31","From http://www.salute.bologna.it/"
"amb268","Medico di Medicina Generale","PASQUALONI PAOLO","Via Nani, Bologna BO, Italy","44.5189023","11.2773105","privato",," Mon: 1630-1930. Tue: 0900-1200. Wed: 1600-1900. Thu: 1030-1300. Fri: 1600-1930.","1 Jan, 6 Jan, P, LA, 25 Apr, 1 May, 2 Jun, 15 Aug, 1 Nov, 8 Dec, 25 Dec, 26 Dec, Aug","Gruppo MAL 2012","2012-01-02","2012-12-31","From http://www.salute.bologna.it/"
"amb269","Medico di Medicina Generale","PATERNICO' ANNA","Via Carlo Alberto Pizzardi, Bologna BO, Italy","44.4896654","11.3693644","privato",," Tue: 0830-1130;1500-1600. Wed, Thu: 1530-1900. Mon, Fri: 0830-1130.","1 Jan, 6 Jan, P, LA, 25 Apr, 1 May, 2 Jun, 15 Aug, 1 Nov, 8 Dec, 25 Dec, 26 Dec, Aug","Gruppo MAL 2012","2012-01-02","2012-12-31","From http://www.salute.bologna.it/"
"amb270","Medico di Medicina Generale","PATIERNO MARCO","Via Ferrarese, Bologna BO, Italy","44.5115","11.3489","privato",," Tue, Wed, Thu: 1600-1900. Mon, Fri: 1000-1200.","1 Jan, 6 Jan, P, LA, 25 Apr, 1 May, 2 Jun, 15 Aug, 1 Nov, 8 Dec, 25 Dec, 26 Dec, Aug","Gruppo MAL 2012","2012-01-02","2012-12-31","From http://www.salute.bologna.it/"
"amb271","Medico di Medicina Generale","PELLECCHIA GABRIELE","Via Adelaide Borghi Mamo, Bologna BO, Italy","44.4765426","11.3620714","privato",," Wed: 1800-1900. Mon, Thu: 1500-1630.","1 Jan, 6 Jan, P, LA, 25 Apr, 1 May, 2 Jun, 15 Aug, 1 Nov, 8 Dec, 25 Dec, 26 Dec, Aug","Gruppo MAL 2012","2012-01-02","2012-12-31","From http://www.salute.bologna.it/"
"amb272","Medico di Medicina Generale","PELLECCHIA GABRIELE","Via Marsili, 1, Bologna BO, Italy","44.4899785","11.3411702","privato",," Mon, Thu: 0930-1130. Tue, Fri: 1000-1130.","1 Jan, 6 Jan, P, LA, 25 Apr, 1 May, 2 Jun, 15 Aug, 1 Nov, 8 Dec, 25 Dec, 26 Dec, Aug","Gruppo MAL 2012","2012-01-02","2012-12-31","From http://www.salute.bologna.it/"
"amb273","Medico di Medicina Generale","PELLECCHIA GABRIELE","Via Parigi, Bologna BO, Italy","44.4966975","11.3405424","privato",," Mon: 1730-1830. Wed: 1530-1700. Thu: 1800-1930. Tue, Fri: 0830-0930.","1 Jan, 6 Jan, P, LA, 25 Apr, 1 May, 2 Jun, 15 Aug, 1 Nov, 8 Dec, 25 Dec, 26 Dec, Aug","Gruppo MAL 2012","2012-01-02","2012-12-31","From http://www.salute.bologna.it/"
"amb274","Medico di Medicina Generale","PERINI AURELIA","Via Bellaria, Bologna BO, Italy","44.4771684","11.3856847","privato",," Mon, Tue: 1500-1600. Wed, Thu, Fri: 0900-1000.","1 Jan, 6 Jan, P, LA, 25 Apr, 1 May, 2 Jun, 15 Aug, 1 Nov, 8 Dec, 25 Dec, 26 Dec, Aug","Gruppo MAL 2012","2012-01-02","2012-12-31","From http://www.salute.bologna.it/"
"amb275","Medico di Medicina Generale","PETRIGNANI ALBERTO","Via Degli Orti, Bologna BO, Italy","44.4758466","11.3773975","privato",," Wed: 0800-1030. Fri: 0900-1000;1530-1930. Mon, Tue, Thu: 1530-1930.","1 Jan, 6 Jan, P, LA, 25 Apr, 1 May, 2 Jun, 15 Aug, 1 Nov, 8 Dec, 25 Dec, 26 Dec, Aug","Gruppo MAL 2012","2012-01-02","2012-12-31","From http://www.salute.bologna.it/"
"amb276","Medico di Medicina Generale","PEZZOLI ANDREA","Via Gatti, Bologna BO, Italy","44.5433551","11.3559214","privato",," Tue, Thu: 1700-2000. Mon, Wed, Fri: 0930-1230.","1 Jan, 6 Jan, P, LA, 25 Apr, 1 May, 2 Jun, 15 Aug, 1 Nov, 8 Dec, 25 Dec, 26 Dec, Aug","Gruppo MAL 2012","2012-01-02","2012-12-31","From http://www.salute.bologna.it/"
"amb277","Medico di Medicina Generale","PEZZOLI ANDREA","Via Genuzio Bentini, Bologna BO, Italy","44.5478296","11.3561424","privato",," Mon, Wed, Fri: 1700-2000.","1 Jan, 6 Jan, P, LA, 25 Apr, 1 May, 2 Jun, 15 Aug, 1 Nov, 8 Dec, 25 Dec, 26 Dec, Aug","Gruppo MAL 2012","2012-01-02","2012-12-31","From http://www.salute.bologna.it/"
"amb278","Medico di Medicina Generale","PIERRO ANTONELLA","Via Marco Polo, 22/b, Bologna BO, Italy","44.5188681","11.3287859","privato",," Tue: 1645-1915.","1 Jan, 6 Jan, P, LA, 25 Apr, 1 May, 2 Jun, 15 Aug, 1 Nov, 8 Dec, 25 Dec, 26 Dec, Aug","Gruppo MAL 2012","2012-01-02","2012-12-31","From http://www.salute.bologna.it/"
"amb279","Medico di Medicina Generale","PIERRO ANTONELLA","Via Procaccini, Bologna BO, Italy","44.5133826","11.3441834","privato",," Tue: 1430-1530. Thu: 1645-1915. Mon, Wed, Fri: 0845-1215.","1 Jan, 6 Jan, P, LA, 25 Apr, 1 May, 2 Jun, 15 Aug, 1 Nov, 8 Dec, 25 Dec, 26 Dec, Aug","Gruppo MAL 2012","2012-01-02","2012-12-31","From http://www.salute.bologna.it/"
"amb280","Medico di Medicina Generale","PINI MARTINO","Via Massenzio Masia, Bologna BO, Italy","44.497219","11.3633179","privato",," Tue, Thu: 1500-1800. Mon, Wed, Fri: 0830-1030.","1 Jan, 6 Jan, P, LA, 25 Apr, 1 May, 2 Jun, 15 Aug, 1 Nov, 8 Dec, 25 Dec, 26 Dec, Aug","Gruppo MAL 2012","2012-01-02","2012-12-31","From http://www.salute.bologna.it/"
"amb281","Medico di Medicina Generale","PIOLA LIA","Via Mazzini, Bologna BO, Italy","44.487259","11.3653579","privato",," Mon, Wed, Thu: 1630-1900. Tue, Fri: 0930-1130.","1 Jan, 6 Jan, P, LA, 25 Apr, 1 May, 2 Jun, 15 Aug, 1 Nov, 8 Dec, 25 Dec, 26 Dec, Aug","Gruppo MAL 2012","2012-01-02","2012-12-31","From http://www.salute.bologna.it/"
"amb282","Medico di Medicina Generale","PIOLA LIA","Via Ugo Bassi, Bologna BO, Italy","44.4953418","11.3397028","privato",," Thu: 1000-1200.","1 Jan, 6 Jan, P, LA, 25 Apr, 1 May, 2 Jun, 15 Aug, 1 Nov, 8 Dec, 25 Dec, 26 Dec, Aug","Gruppo MAL 2012","2012-01-02","2012-12-31","From http://www.salute.bologna.it/"
"amb283","Medico di Medicina Generale","PIROMALLO SANDRO","Via Giacomo Matteotti, Bologna BO, Italy","44.5078385","11.3459951","privato",," Mon: 1000-1230. Tue: 1100-1300. Wed: 1800-2000. Thu: 1630-1800. Fri: 0830-1000.","1 Jan, 6 Jan, P, LA, 25 Apr, 1 May, 2 Jun, 15 Aug, 1 Nov, 8 Dec, 25 Dec, 26 Dec, Aug","Gruppo MAL 2012","2012-01-02","2012-12-31","From http://www.salute.bologna.it/"
"amb284","Medico di Medicina Generale","PIROMALLO SANDRO","Via Isabella Andreini, Bologna BO, Italy","44.5019684","11.3737344","privato",," Mon: 1700-2000. Tue: 0830-1000. Wed: 1500-1700. Thu: 1400-1600. Fri: 1100-1300.","1 Jan, 6 Jan, P, LA, 25 Apr, 1 May, 2 Jun, 15 Aug, 1 Nov, 8 Dec, 25 Dec, 26 Dec, Aug","Gruppo MAL 2012","2012-01-02","2012-12-31","From http://www.salute.bologna.it/"
"amb285","Medico di Medicina Generale","PIZZI MIRELLA","Via Del Pratello, Bologna BO, Italy","44.4953625","11.3326162","privato",," Tue, Thu: 1630-1830. Mon, Wed, Fri: 0930-1230.","1 Jan, 6 Jan, P, LA, 25 Apr, 1 May, 2 Jun, 15 Aug, 1 Nov, 8 Dec, 25 Dec, 26 Dec, Aug","Gruppo MAL 2012","2012-01-02","2012-12-31","From http://www.salute.bologna.it/"
"amb286","Medico di Medicina Generale","PRETTO PAOLA","Via Del Meloncello, Bologna BO, Italy","44.488149","11.3101833","privato",," Tue: 1630-1830. Thu: 1530-1700. Mon, Wed, Fri: 1000-1200.","1 Jan, 6 Jan, P, LA, 25 Apr, 1 May, 2 Jun, 15 Aug, 1 Nov, 8 Dec, 25 Dec, 26 Dec, Aug","Gruppo MAL 2012","2012-01-02","2012-12-31","From http://www.salute.bologna.it/"
"amb287","Medico di Medicina Generale","PRETTO PAOLA","Via F. Magni, Bologna BO, Italy","44.5200426","11.2726059","privato",," Thu: 1000-1200. Mon, Wed: 1700-1900.","1 Jan, 6 Jan, P, LA, 25 Apr, 1 May, 2 Jun, 15 Aug, 1 Nov, 8 Dec, 25 Dec, 26 Dec, Aug","Gruppo MAL 2012","2012-01-02","2012-12-31","From http://www.salute.bologna.it/"
"amb288","Medico di Medicina Generale","PROCOPIO PIETRO","Via Lemonia, 45/e, Bologna BO, Italy","44.5066061","11.2996065","privato",," Mon, Wed: 0930-1130. Tue, Thu, Fri: 1600-1900.","1 Jan, 6 Jan, P, LA, 25 Apr, 1 May, 2 Jun, 15 Aug, 1 Nov, 8 Dec, 25 Dec, 26 Dec, Aug","Gruppo MAL 2012","2012-01-02","2012-12-31","From http://www.salute.bologna.it/"
"amb289","Medico di Medicina Generale","PUGNALIN MASSIMO","Via Caduti Di Casteldebole, Bologna BO, Italy","44.4979994","11.2743331","privato",," Thu: 0800-1100. Mon, Tue: 0830-1130. Wed, Fri: 1600-1900.","1 Jan, 6 Jan, P, LA, 25 Apr, 1 May, 2 Jun, 15 Aug, 1 Nov, 8 Dec, 25 Dec, 26 Dec, Aug","Gruppo MAL 2012","2012-01-02","2012-12-31","From http://www.salute.bologna.it/"
"amb290","Medico di Medicina Generale","PUGNALIN MASSIMO","Via Guglielmo Oberdan, Bologna BO, Italy","44.4965546","11.3459426","privato",," Wed: 0900-1000. Mon, Thu: 1700-1900.","1 Jan, 6 Jan, P, LA, 25 Apr, 1 May, 2 Jun, 15 Aug, 1 Nov, 8 Dec, 25 Dec, 26 Dec, Aug","Gruppo MAL 2012","2012-01-02","2012-12-31","From http://www.salute.bologna.it/"
"amb291","Medico di Medicina Generale","QUADRELLI STEFANO","Via Dell'indipendenza, Bologna BO, Italy","44.4992356","11.3438494","privato",," Tue, Thu: 1530-1900. Mon, Wed, Fri: 0830-1200.","1 Jan, 6 Jan, P, LA, 25 Apr, 1 May, 2 Jun, 15 Aug, 1 Nov, 8 Dec, 25 Dec, 26 Dec, Aug","Gruppo MAL 2012","2012-01-02","2012-12-31","From http://www.salute.bologna.it/"
"amb292","Medico di Medicina Generale","QUARANTA FRANCESCO","Via Francesco Barbieri, Bologna BO, Italy","44.5168254","11.3413632","privato",," Mon: 1400-1530. Tue: 1400-1500. Thu: 1230-1330. Fri: 1345-1515.","1 Jan, 6 Jan, P, LA, 25 Apr, 1 May, 2 Jun, 15 Aug, 1 Nov, 8 Dec, 25 Dec, 26 Dec, Aug","Gruppo MAL 2012","2012-01-02","2012-12-31","From http://www.salute.bologna.it/"
"amb293","Medico di Medicina Generale","QUARANTA FRANCESCO","Via Zampieri, Bologna BO, Italy","44.5092957","11.3437528","privato",," Wed: 1530-1900. Mon, Thu: 0830-1200. Tue, Fri: 1630-1900.","1 Jan, 6 Jan, P, LA, 25 Apr, 1 May, 2 Jun, 15 Aug, 1 Nov, 8 Dec, 25 Dec, 26 Dec, Aug","Gruppo MAL 2012","2012-01-02","2012-12-31","From http://www.salute.bologna.it/"
"amb294","Medico di Medicina Generale","RAGGIOTTO GIANNINA","Via Giuseppe Bentivogli, Bologna BO, Italy","44.496069","11.3643345","privato",," Wed: 0830-1100. Tue, Thu: 1530-1800. Mon, Fri: 0945-1100.","1 Jan, 6 Jan, P, LA, 25 Apr, 1 May, 2 Jun, 15 Aug, 1 Nov, 8 Dec, 25 Dec, 26 Dec, Aug","Gruppo MAL 2012","2012-01-02","2012-12-31","From http://www.salute.bologna.it/"
"amb295","Medico di Medicina Generale","RAIMONDI FABIO","Via Irnerio, Bologna BO, Italy","44.4996822","11.3505157","privato",," Tue, Wed, Thu: 1530-1800. Mon, Fri: 0900-1130.","1 Jan, 6 Jan, P, LA, 25 Apr, 1 May, 2 Jun, 15 Aug, 1 Nov, 8 Dec, 25 Dec, 26 Dec, Aug","Gruppo MAL 2012","2012-01-02","2012-12-31","From http://www.salute.bologna.it/"
"amb296","Medico di Medicina Generale","RAMBALDI FRANCESCA","Via Genuzio Bentini, Bologna BO, Italy","44.5478296","11.3561424","privato",," Fri: 1630-1830. Mon, Wed: 1630-1900. Tue, Thu: 1100-1300.","1 Jan, 6 Jan, P, LA, 25 Apr, 1 May, 2 Jun, 15 Aug, 1 Nov, 8 Dec, 25 Dec, 26 Dec, Aug","Gruppo MAL 2012","2012-01-02","2012-12-31","From http://www.salute.bologna.it/"
"amb297","Medico di Medicina Generale","RAMBALDI FRANCESCA","Via Grazia Deledda, Bologna BO, Italy","44.5095583","11.3967888","privato",," Tue, Thu: 1730-1900. Mon, Wed, Fri: 1000-1200.","1 Jan, 6 Jan, P, LA, 25 Apr, 1 May, 2 Jun, 15 Aug, 1 Nov, 8 Dec, 25 Dec, 26 Dec, Aug","Gruppo MAL 2012","2012-01-02","2012-12-31","From http://www.salute.bologna.it/"
"amb298","Medico di Medicina Generale","RAMINI GIOVANNI","Via Barberia, Bologna BO, Italy","44.4921775","11.3377354","privato",," Mon, Wed: 1530-1700. Tue, Thu, Fri: 1130-1330.","1 Jan, 6 Jan, P, LA, 25 Apr, 1 May, 2 Jun, 15 Aug, 1 Nov, 8 Dec, 25 Dec, 26 Dec, Aug","Gruppo MAL 2012","2012-01-02","2012-12-31","From http://www.salute.bologna.it/"
"amb299","Medico di Medicina Generale","RAMINI GIOVANNI","Via San Vitale, Bologna BO, Italy","44.4942188","11.3518204","privato",," Mon, Tue, Wed, Thu, Fri: 0900-1100.","1 Jan, 6 Jan, P, LA, 25 Apr, 1 May, 2 Jun, 15 Aug, 1 Nov, 8 Dec, 25 Dec, 26 Dec, Aug","Gruppo MAL 2012","2012-01-02","2012-12-31","From http://www.salute.bologna.it/"
"amb300","Medico di Medicina Generale","RAPPOCCIOLO ANTONINO","Via Piana, Bologna BO, Italy","44.5067685","11.367787","privato",," Tue: 0830-1030. Thu: 0900-1200. Mon, Wed, Fri: 1700-1900.","1 Jan, 6 Jan, P, LA, 25 Apr, 1 May, 2 Jun, 15 Aug, 1 Nov, 8 Dec, 25 Dec, 26 Dec, Aug","Gruppo MAL 2012","2012-01-02","2012-12-31","From http://www.salute.bologna.it/"
"amb301","Medico di Medicina Generale","RAPPOCCIOLO ANTONINO","Via Ugo Bassi, Bologna BO, Italy","44.4953418","11.3397028","privato",," Fri: 0915-1030. Mon, Wed: 0830-1030.","1 Jan, 6 Jan, P, LA, 25 Apr, 1 May, 2 Jun, 15 Aug, 1 Nov, 8 Dec, 25 Dec, 26 Dec, Aug","Gruppo MAL 2012","2012-01-02","2012-12-31","From http://www.salute.bologna.it/"
"amb302","Medico di Medicina Generale","RIGHI IRENE","Via Giuseppe Mezzofanti, Bologna BO, Italy","44.4832613","11.3657507","privato",," Thu: 1430-1830. Tue, Wed: 0830-1130. Mon, Fri: 1500-1900.","1 Jan, 6 Jan, P, LA, 25 Apr, 1 May, 2 Jun, 15 Aug, 1 Nov, 8 Dec, 25 Dec, 26 Dec, Aug","Gruppo MAL 2012","2012-01-02","2012-12-31","From http://www.salute.bologna.it/"
"amb303","Medico di Medicina Generale","RINALDI ANGELA MARIA","Via Giuseppe Massarenti, Bologna BO, Italy","44.4933814","11.3739186","privato",," Tue: 1030-1230;1300-1400. Wed: 1030-1230. Thu: 1100-1230;1300-1400. Mon, Fri: 1100-1230.","1 Jan, 6 Jan, P, LA, 25 Apr, 1 May, 2 Jun, 15 Aug, 1 Nov, 8 Dec, 25 Dec, 26 Dec, Aug","Gruppo MAL 2012","2012-01-02","2012-12-31","From http://www.salute.bologna.it/"
"amb304","Medico di Medicina Generale","RINALDI MARCO","Via Saragozza, Bologna BO, Italy","44.4900031","11.3334144","privato",," Tue: 1200-1300;1630-1830. Thu: 1200-1300;1630-1800. Mon, Wed, Fri: 1430-1630.","1 Jan, 6 Jan, P, LA, 25 Apr, 1 May, 2 Jun, 15 Aug, 1 Nov, 8 Dec, 25 Dec, 26 Dec, Aug","Gruppo MAL 2012","2012-01-02","2012-12-31","From http://www.salute.bologna.it/"
"amb305","Medico di Medicina Generale","ROCCHI PIERGIOVANNI","Via Pietralata, Bologna BO, Italy","44.4959366","11.3311651","privato",," Tue: 0800-0900;1530-1830. Wed: 0900-1200. Fri: 0800-1200. Mon, Thu: 1530-1830.","1 Jan, 6 Jan, P, LA, 25 Apr, 1 May, 2 Jun, 15 Aug, 1 Nov, 8 Dec, 25 Dec, 26 Dec, Aug","Gruppo MAL 2012","2012-01-02","2012-12-31","From http://www.salute.bologna.it/"
"amb306","Medico di Medicina Generale","ROMAGNOLI DANIELE","Via G. Cesare Croce, Bologna BO, Italy","44.4944468","11.3565917","privato",," Mon: 0915-1015. Wed: 0900-1100. Fri: 0900-1000. Tue, Thu: 1500-1900.","1 Jan, 6 Jan, P, LA, 25 Apr, 1 May, 2 Jun, 15 Aug, 1 Nov, 8 Dec, 25 Dec, 26 Dec, Aug","Gruppo MAL 2012","2012-01-02","2012-12-31","From http://www.salute.bologna.it/"
"amb307","Medico di Medicina Generale","ROMAGNOLI DANIELE","Via Giuseppe Massarenti, Bologna BO, Italy","44.4933814","11.3739186","privato",," Wed: 1500-1700. Mon, Fri: 1500-1900.","1 Jan, 6 Jan, P, LA, 25 Apr, 1 May, 2 Jun, 15 Aug, 1 Nov, 8 Dec, 25 Dec, 26 Dec, Aug","Gruppo MAL 2012","2012-01-02","2012-12-31","From http://www.salute.bologna.it/"
"amb308","Medico di Medicina Generale","ROMAGNOLI GIANCARLO","Via Di Corticella, Bologna BO, Italy","44.5320902","11.3531639","privato",," Mon, Wed, Thu: 1800-1930. Tue, Fri: 0900-1100.","1 Jan, 6 Jan, P, LA, 25 Apr, 1 May, 2 Jun, 15 Aug, 1 Nov, 8 Dec, 25 Dec, 26 Dec, Aug","Gruppo MAL 2012","2012-01-02","2012-12-31","From http://www.salute.bologna.it/"
"amb309","Medico di Medicina Generale","ROMAGNOLI GIANCARLO","Via Guglielmo Oberdan, Bologna BO, Italy","44.4965546","11.3459426","privato",," Mon, Tue, Wed, Fri: 1500-1700.","1 Jan, 6 Jan, P, LA, 25 Apr, 1 May, 2 Jun, 15 Aug, 1 Nov, 8 Dec, 25 Dec, 26 Dec, Aug","Gruppo MAL 2012","2012-01-02","2012-12-31","From http://www.salute.bologna.it/"
"amb310","Medico di Medicina Generale","ROMUALDI ANNA","Via Fossolo, Bologna BO, Italy","44.4870826","11.3784441","privato",," Wed: 1000-1300. Tue, Thu: 1600-1900. Mon, Fri: 0900-1200.","1 Jan, 6 Jan, P, LA, 25 Apr, 1 May, 2 Jun, 15 Aug, 1 Nov, 8 Dec, 25 Dec, 26 Dec, Aug","Gruppo MAL 2012","2012-01-02","2012-12-31","From http://www.salute.bologna.it/"
"amb311","Medico di Medicina Generale","ROSATO FRANCESCO","Via Alfredo Catalani, Bologna BO, Italy","44.4753166","11.3697911","privato",," Tue, Thu: 1600-1830. Mon, Wed, Fri: 0930-1200.","1 Jan, 6 Jan, P, LA, 25 Apr, 1 May, 2 Jun, 15 Aug, 1 Nov, 8 Dec, 25 Dec, 26 Dec, Aug","Gruppo MAL 2012","2012-01-02","2012-12-31","From http://www.salute.bologna.it/"
"amb312","Medico di Medicina Generale","ROSSI CLAUDIA","Via Giuseppe Massarenti, Bologna BO, Italy","44.4933814","11.3739186","privato",," Mon: 1500-1830. Thu: 1630-1900. Tue, Wed, Fri: 0930-1200.","1 Jan, 6 Jan, P, LA, 25 Apr, 1 May, 2 Jun, 15 Aug, 1 Nov, 8 Dec, 25 Dec, 26 Dec, Aug","Gruppo MAL 2012","2012-01-02","2012-12-31","From http://www.salute.bologna.it/"
"amb313","Medico di Medicina Generale","ROSSI ROSA MARIA","Via Pasubio, Bologna BO, Italy","44.4980875","11.3190464","privato",," Fri: 1130-1530. Mon, Wed: 1400-1830. Tue, Thu: 0900-1300.","1 Jan, 6 Jan, P, LA, 25 Apr, 1 May, 2 Jun, 15 Aug, 1 Nov, 8 Dec, 25 Dec, 26 Dec, Aug","Gruppo MAL 2012","2012-01-02","2012-12-31","From http://www.salute.bologna.it/"
"amb314","Medico di Medicina Generale","ROVERSI TIZIANO","Via Augusto Murri, Bologna BO, Italy","44.4791299","11.3640459","privato",," Tue: 1530-1830. Thu: 1600-1830. Mon, Wed, Fri: 1000-1230.","1 Jan, 6 Jan, P, LA, 25 Apr, 1 May, 2 Jun, 15 Aug, 1 Nov, 8 Dec, 25 Dec, 26 Dec, Aug","Gruppo MAL 2012","2012-01-02","2012-12-31","From http://www.salute.bologna.it/"
"amb315","Medico di Medicina Generale","RUBINI STEFANO","Via F.de Giovanni, Bologna BO, Italy","44.5246346","11.3470267","privato",," Thu: 0830-1045. Mon, Tue, Wed: 1530-1900.","1 Jan, 6 Jan, P, LA, 25 Apr, 1 May, 2 Jun, 15 Aug, 1 Nov, 8 Dec, 25 Dec, 26 Dec, Aug","Gruppo MAL 2012","2012-01-02","2012-12-31","From http://www.salute.bologna.it/"
"amb316","Medico di Medicina Generale","RUBINI STEFANO","Via Ferrarese, Bologna BO, Italy","44.5290248","11.363979","privato",," Thu: 1430-1600. Fri: 1530-1900. Mon, Tue, Wed: 1100-1300.","1 Jan, 6 Jan, P, LA, 25 Apr, 1 May, 2 Jun, 15 Aug, 1 Nov, 8 Dec, 25 Dec, 26 Dec, Aug","Gruppo MAL 2012","2012-01-02","2012-12-31","From http://www.salute.bologna.it/"
"amb317","Medico di Medicina Generale","SALERA MARCELLO","Via Saragozza, Bologna BO, Italy","44.4896238","11.3209597","privato",," Mon, Wed, Thu: 1430-1830. Tue, Fri: 0930-1230.","1 Jan, 6 Jan, P, LA, 25 Apr, 1 May, 2 Jun, 15 Aug, 1 Nov, 8 Dec, 25 Dec, 26 Dec, Aug","Gruppo MAL 2012","2012-01-02","2012-12-31","From http://www.salute.bologna.it/"
"amb318","Medico di Medicina Generale","SAMORI' GIUSEPPE","Via Adelaide Ristori, Bologna BO, Italy","44.5025381","11.3708495","privato",," Wed: 1500-1730. Mon, Thu: 1500-1800. Tue, Fri: 0845-1200.","1 Jan, 6 Jan, P, LA, 25 Apr, 1 May, 2 Jun, 15 Aug, 1 Nov, 8 Dec, 25 Dec, 26 Dec, Aug","Gruppo MAL 2012","2012-01-02","2012-12-31","From http://www.salute.bologna.it/"
"amb319","Medico di Medicina Generale","SANTI MARZIO","Via Delle Belle Arti, Bologna BO, Italy","44.4977103","11.3505595","privato",," Tue, Wed, Thu: 1530-1700. Mon, Fri: 1700-1900.","1 Jan, 6 Jan, P, LA, 25 Apr, 1 May, 2 Jun, 15 Aug, 1 Nov, 8 Dec, 25 Dec, 26 Dec, Aug","Gruppo MAL 2012","2012-01-02","2012-12-31","From http://www.salute.bologna.it/"
"amb320","Medico di Medicina Generale","SANTORO GIUSEPPE","Via Pompeo Vizzani, Bologna BO, Italy","44.4904063","11.3702931","privato",," Fri: 0900-1130. Tue, Wed: 1030-1230. Mon, Thu: 1730-1930.","1 Jan, 6 Jan, P, LA, 25 Apr, 1 May, 2 Jun, 15 Aug, 1 Nov, 8 Dec, 25 Dec, 26 Dec, Aug","Gruppo MAL 2012","2012-01-02","2012-12-31","From http://www.salute.bologna.it/"
"amb321","Medico di Medicina Generale","SAVORANI GIANDOMENICO","Piazza Trento E Trieste, Bologna BO, Italy","44.4877214","11.3611131","privato",," Mon, Wed: 0830-1230. Tue, Thu, Fri: 1500-1900.","1 Jan, 6 Jan, P, LA, 25 Apr, 1 May, 2 Jun, 15 Aug, 1 Nov, 8 Dec, 25 Dec, 26 Dec, Aug","Gruppo MAL 2012","2012-01-02","2012-12-31","From http://www.salute.bologna.it/"
"amb322","Medico di Medicina Generale","SCHIRATO ROBERTO","Via Zampieri, Bologna BO, Italy","44.5092957","11.3437528","privato",," Fri: 0830-1130. Tue, Wed: 0900-1200. Mon, Thu: 1530-1830.","1 Jan, 6 Jan, P, LA, 25 Apr, 1 May, 2 Jun, 15 Aug, 1 Nov, 8 Dec, 25 Dec, 26 Dec, Aug","Gruppo MAL 2012","2012-01-02","2012-12-31","From http://www.salute.bologna.it/"
"amb323","Medico di Medicina Generale","SERIO ALBERTO","Via Fiorita, Bologna BO, Italy","44.4810942","11.3772552","privato",," Mon, Tue, Thu: 1500-1800. Wed, Fri: 1000-1300.","1 Jan, 6 Jan, P, LA, 25 Apr, 1 May, 2 Jun, 15 Aug, 1 Nov, 8 Dec, 25 Dec, 26 Dec, Aug","Gruppo MAL 2012","2012-01-02","2012-12-31","From http://www.salute.bologna.it/"
"amb324","Medico di Medicina Generale","SERRA COSIMO","Via Massenzio Masia, Bologna BO, Italy","44.497219","11.3633179","privato",," Mon: 1530-1730. Wed: 1730-1900. Fri: 1530-1700. Tue, Thu: 0900-1030.","1 Jan, 6 Jan, P, LA, 25 Apr, 1 May, 2 Jun, 15 Aug, 1 Nov, 8 Dec, 25 Dec, 26 Dec, Aug","Gruppo MAL 2012","2012-01-02","2012-12-31","From http://www.salute.bologna.it/"
"amb325","Medico di Medicina Generale","SERRA COSIMO","Via Sardegna, Bologna BO, Italy","44.475348","11.3842196","privato",," Fri: 0830-1100. Mon, Wed: 0930-1130. Tue, Thu: 1500-1700.","1 Jan, 6 Jan, P, LA, 25 Apr, 1 May, 2 Jun, 15 Aug, 1 Nov, 8 Dec, 25 Dec, 26 Dec, Aug","Gruppo MAL 2012","2012-01-02","2012-12-31","From http://www.salute.bologna.it/"
"amb326","Medico di Medicina Generale","SIENA MATTEO","Via Gastone Rossi, Bologna BO, Italy","44.4987799","11.3639476","privato",," Wed: 0900-1100. Fri: 0900-1100;1600-1830. Mon, Tue, Thu: 1600-1830.","1 Jan, 6 Jan, P, LA, 25 Apr, 1 May, 2 Jun, 15 Aug, 1 Nov, 8 Dec, 25 Dec, 26 Dec, Aug","Gruppo MAL 2012","2012-01-02","2012-12-31","From http://www.salute.bologna.it/"
"amb327","Medico di Medicina Generale","SILLETTI ANTONELLA","Via Dell'indipendenza, Bologna BO, Italy","44.4992356","11.3438494","privato",," Tue: 0900-1130;1530-1630. Thu: 1530-1800. Mon, Wed, Fri: 0900-1130.","1 Jan, 6 Jan, P, LA, 25 Apr, 1 May, 2 Jun, 15 Aug, 1 Nov, 8 Dec, 25 Dec, 26 Dec, Aug","Gruppo MAL 2012","2012-01-02","2012-12-31","From http://www.salute.bologna.it/"
"amb328","Medico di Medicina Generale","SIMONCINI ELISABETTA","Via Mascarella, Bologna BO, Italy","44.4999578","11.3506972","privato",," Tue: 1130-1230. Wed, Thu: 1600-1800. Mon, Fri: 0930-1130.","1 Jan, 6 Jan, P, LA, 25 Apr, 1 May, 2 Jun, 15 Aug, 1 Nov, 8 Dec, 25 Dec, 26 Dec, Aug","Gruppo MAL 2012","2012-01-02","2012-12-31","From http://www.salute.bologna.it/"
"amb329","Medico di Medicina Generale","SIMONCINI ELISABETTA","Via Tommaso Martelli, Bologna BO, Italy","44.4922887","11.3993094","privato",," Tue, Thu: 0915-1115. Mon, Fri: 1600-1800.","1 Jan, 6 Jan, P, LA, 25 Apr, 1 May, 2 Jun, 15 Aug, 1 Nov, 8 Dec, 25 Dec, 26 Dec, Aug","Gruppo MAL 2012","2012-01-02","2012-12-31","From http://www.salute.bologna.it/"
"amb330","Medico di Medicina Generale","SIRENI VALERIO","Via Arno, Bologna BO, Italy","44.474803","11.3889243","privato",," Mon: 1100-1230. Wed: 1630-1930. Sat: 1000-1230.","1 Jan, 6 Jan, P, LA, 25 Apr, 1 May, 2 Jun, 15 Aug, 1 Nov, 8 Dec, 25 Dec, 26 Dec, Aug","Gruppo MAL 2012","2012-01-02","2012-12-31","From http://www.salute.bologna.it/"
"amb331","Medico di Medicina Generale","SIRENI VALERIO","Via Paolo Fabbri, Bologna BO, Italy","44.4966999","11.3625469","privato",," Wed: 1000-1230. Mon, Tue: 1600-1800. Thu, Fri: 1500-1630.","1 Jan, 6 Jan, P, LA, 25 Apr, 1 May, 2 Jun, 15 Aug, 1 Nov, 8 Dec, 25 Dec, 26 Dec, Aug","Gruppo MAL 2012","2012-01-02","2012-12-31","From http://www.salute.bologna.it/"
"amb332","Medico di Medicina Generale","SOMAROLI MARINELLA","Via Adelaide Borghi Mamo, Bologna BO, Italy","44.4765426","11.3620714","privato",," Mon, Wed, Thu: 1500-1800. Tue, Fri: 0930-1230.","1 Jan, 6 Jan, P, LA, 25 Apr, 1 May, 2 Jun, 15 Aug, 1 Nov, 8 Dec, 25 Dec, 26 Dec, Aug","Gruppo MAL 2012","2012-01-02","2012-12-31","From http://www.salute.bologna.it/"
"amb333","Medico di Medicina Generale","SORGARELLO ENRICO","Via Fossolo, Bologna BO, Italy","44.4870826","11.3784441","privato",," Tue, Thu: 1030-1230. Mon, Wed, Fri: 1600-1830.","1 Jan, 6 Jan, P, LA, 25 Apr, 1 May, 2 Jun, 15 Aug, 1 Nov, 8 Dec, 25 Dec, 26 Dec, Aug","Gruppo MAL 2012","2012-01-02","2012-12-31","From http://www.salute.bologna.it/"
"amb334","Medico di Medicina Generale","SORRENTINO MARIA ADELE","Via Augusto Romagnoli, Bologna BO, Italy","44.476693","11.3700833","privato",," Fri: 1100-1300. Mon, Wed: 1630-1900.","1 Jan, 6 Jan, P, LA, 25 Apr, 1 May, 2 Jun, 15 Aug, 1 Nov, 8 Dec, 25 Dec, 26 Dec, Aug","Gruppo MAL 2012","2012-01-02","2012-12-31","From http://www.salute.bologna.it/"
"amb335","Medico di Medicina Generale","SORRENTINO MARIA ADELE","Via Parigi, Bologna BO, Italy","44.4966975","11.3405424","privato",," Wed: 1430-1530. Thu: 0900-1030;1530-1630. Fri: 1600-1700. Mon, Tue: 0930-1100.","1 Jan, 6 Jan, P, LA, 25 Apr, 1 May, 2 Jun, 15 Aug, 1 Nov, 8 Dec, 25 Dec, 26 Dec, Aug","Gruppo MAL 2012","2012-01-02","2012-12-31","From http://www.salute.bologna.it/"
"amb336","Medico di Medicina Generale","SPADAVECCHIA CORRADO EMILIO","Via Decumana, Bologna BO, Italy","44.5073634","11.3004325","privato",," Mon, Tue, Wed, Thu, Fri: 1400-1900.","1 Jan, 6 Jan, P, LA, 25 Apr, 1 May, 2 Jun, 15 Aug, 1 Nov, 8 Dec, 25 Dec, 26 Dec, Aug","Gruppo MAL 2012","2012-01-02","2012-12-31","From http://www.salute.bologna.it/"
"amb337","Medico di Medicina Generale","SPEZIALI PIETRO","Via Barberia, Bologna BO, Italy","44.4921775","11.3377354","privato",," Wed: 1130-1300. Mon, Tue, Thu, Fri: 1730-1930.","1 Jan, 6 Jan, P, LA, 25 Apr, 1 May, 2 Jun, 15 Aug, 1 Nov, 8 Dec, 25 Dec, 26 Dec, Aug","Gruppo MAL 2012","2012-01-02","2012-12-31","From http://www.salute.bologna.it/"
"amb338","Medico di Medicina Generale","SPEZIALI PIETRO","Via Della Barca, Bologna BO, Italy","44.494466","11.2959151","privato",," Mon: 0800-1100. Wed: 0800-1130. Tue, Thu, Fri: 1430-1645.","1 Jan, 6 Jan, P, LA, 25 Apr, 1 May, 2 Jun, 15 Aug, 1 Nov, 8 Dec, 25 Dec, 26 Dec, Aug","Gruppo MAL 2012","2012-01-02","2012-12-31","From http://www.salute.bologna.it/"
"amb339","Medico di Medicina Generale","SPINNATO LUIGI","Via Cherubini, Bologna BO, Italy","44.4671501","11.378227","privato",," Tue: 1430-1800. Thu: 1700-1930. Fri: 1430-1730. Mon, Wed: 0830-1130.","1 Jan, 6 Jan, P, LA, 25 Apr, 1 May, 2 Jun, 15 Aug, 1 Nov, 8 Dec, 25 Dec, 26 Dec, Aug","Gruppo MAL 2012","2012-01-02","2012-12-31","From http://www.salute.bologna.it/"
"amb340","Medico di Medicina Generale","SPINNATO LUIGI","Via Enrico Mattei, Bologna BO, Italy","44.4960542","11.4068668","privato",," Fri: 1830-2000. Mon, Wed: 1745-1930.","1 Jan, 6 Jan, P, LA, 25 Apr, 1 May, 2 Jun, 15 Aug, 1 Nov, 8 Dec, 25 Dec, 26 Dec, Aug","Gruppo MAL 2012","2012-01-02","2012-12-31","From http://www.salute.bologna.it/"
"amb341","Medico di Medicina Generale","STROCCHI ALESSANDRA","Via Toscana, Bologna BO, Italy","44.458903","11.3700585","privato",," Mon, Thu: 1600-1930. Tue, Wed, Fri: 0830-1200.","1 Jan, 6 Jan, P, LA, 25 Apr, 1 May, 2 Jun, 15 Aug, 1 Nov, 8 Dec, 25 Dec, 26 Dec, Aug","Gruppo MAL 2012","2012-01-02","2012-12-31","From http://www.salute.bologna.it/"
"amb342","Medico di Medicina Generale","STURANI ANNALISA","Via Adelaide Ristori, Bologna BO, Italy","44.5025381","11.3708495","privato",," Mon, Tue, Thu: 1500-1800. Wed, Fri: 0900-1000.","1 Jan, 6 Jan, P, LA, 25 Apr, 1 May, 2 Jun, 15 Aug, 1 Nov, 8 Dec, 25 Dec, 26 Dec, Aug","Gruppo MAL 2012","2012-01-02","2012-12-31","From http://www.salute.bologna.it/"
"amb343","Medico di Medicina Generale","TAMBURINI MICHELE COSIMO","Piazza Trento E Trieste, Bologna BO, Italy","44.4877214","11.3611131","privato",," Tue: 1500-1900. Thu: 1530-1830. Fri: 0930-1130;1530-1730. Mon, Wed: 0930-1130.","1 Jan, 6 Jan, P, LA, 25 Apr, 1 May, 2 Jun, 15 Aug, 1 Nov, 8 Dec, 25 Dec, 26 Dec, Aug","Gruppo MAL 2012","2012-01-02","2012-12-31","From http://www.salute.bologna.it/"
"amb344","Medico di Medicina Generale","TARANTINI PAOLO","Via Augusto Murri, Bologna BO, Italy","44.4791299","11.3640459","privato",," Mon: 1400-1600. Fri: 1600-1800. Tue, Wed, Thu: 0930-1200.","1 Jan, 6 Jan, P, LA, 25 Apr, 1 May, 2 Jun, 15 Aug, 1 Nov, 8 Dec, 25 Dec, 26 Dec, Aug","Gruppo MAL 2012","2012-01-02","2012-12-31","From http://www.salute.bologna.it/"
"amb345","Medico di Medicina Generale","TARANTINI PAOLO","Via D'azeglio, Bologna BO, Italy","44.6393636","11.1872138","privato",," Wed: 1530-1700. Mon, Fri: 1030-1200.","1 Jan, 6 Jan, P, LA, 25 Apr, 1 May, 2 Jun, 15 Aug, 1 Nov, 8 Dec, 25 Dec, 26 Dec, Aug","Gruppo MAL 2012","2012-01-02","2012-12-31","From http://www.salute.bologna.it/"
"amb346","Medico di Medicina Generale","TAVERNELLI STEFANO","Via Sabotino, Bologna BO, Italy","44.4970571","11.3233298","privato",," Tue, Thu: 0900-1200. Mon, Wed, Fri: 1500-1900.","1 Jan, 6 Jan, P, LA, 25 Apr, 1 May, 2 Jun, 15 Aug, 1 Nov, 8 Dec, 25 Dec, 26 Dec, Aug","Gruppo MAL 2012","2012-01-02","2012-12-31","From http://www.salute.bologna.it/"
"amb347","Medico di Medicina Generale","TEDESCHI ROBERTO","Via Castiglione, Bologna BO, Italy","44.4895186","11.3471222","privato",," Mon: 1130-1300. Tue: 1145-1300. Thu: 1900-2000.","1 Jan, 6 Jan, P, LA, 25 Apr, 1 May, 2 Jun, 15 Aug, 1 Nov, 8 Dec, 25 Dec, 26 Dec, Aug","Gruppo MAL 2012","2012-01-02","2012-12-31","From http://www.salute.bologna.it/"
"amb348","Medico di Medicina Generale","TEDESCHI ROBERTO","Via Marco Emilio Lepido, 45/c, Bologna BO, Italy","44.5172964","11.2757796","privato",," Wed: 1630-1800.","1 Jan, 6 Jan, P, LA, 25 Apr, 1 May, 2 Jun, 15 Aug, 1 Nov, 8 Dec, 25 Dec, 26 Dec, Aug","Gruppo MAL 2012","2012-01-02","2012-12-31","From http://www.salute.bologna.it/"
"amb349","Medico di Medicina Generale","TEDESCHI ROBERTO","Via Parigi, Bologna BO, Italy","44.4966975","11.3405424","privato",," Mon: 1600-1800. Wed: 1000-1200. Thu: 1600-1900. Tue, Fri: 1000-1130.","1 Jan, 6 Jan, P, LA, 25 Apr, 1 May, 2 Jun, 15 Aug, 1 Nov, 8 Dec, 25 Dec, 26 Dec, Aug","Gruppo MAL 2012","2012-01-02","2012-12-31","From http://www.salute.bologna.it/"
"amb350","Medico di Medicina Generale","TESTONI LIANO","Via Della Barca, Bologna BO, Italy","44.494466","11.2959151","privato",," Wed: 1500-1630. Tue, Thu: 1730-1900. Mon, Fri: 0800-1030.","1 Jan, 6 Jan, P, LA, 25 Apr, 1 May, 2 Jun, 15 Aug, 1 Nov, 8 Dec, 25 Dec, 26 Dec, Aug","Gruppo MAL 2012","2012-01-02","2012-12-31","From http://www.salute.bologna.it/"
"amb351","Medico di Medicina Generale","TESTONI LIANO","Via Parigi, Bologna BO, Italy","44.4966975","11.3405424","privato",," Wed: 0800-1100. Tue, Thu: 1500-1730. Mon, Fri: 1500-1700.","1 Jan, 6 Jan, P, LA, 25 Apr, 1 May, 2 Jun, 15 Aug, 1 Nov, 8 Dec, 25 Dec, 26 Dec, Aug","Gruppo MAL 2012","2012-01-02","2012-12-31","From http://www.salute.bologna.it/"
"amb352","Medico di Medicina Generale","TESTONI SIMONETTA","Via Decumana, Bologna BO, Italy","44.5073634","11.3004325","privato",," Mon: 1500-1800. Wed: 1530-1830. Tue, Thu, Fri: 0900-1200.","1 Jan, 6 Jan, P, LA, 25 Apr, 1 May, 2 Jun, 15 Aug, 1 Nov, 8 Dec, 25 Dec, 26 Dec, Aug","Gruppo MAL 2012","2012-01-02","2012-12-31","From http://www.salute.bologna.it/"
"amb353","Medico di Medicina Generale","TIBALDI MARCO","Via Decumana, Bologna BO, Italy","44.5073634","11.3004325","privato",," Mon, Tue, Wed, Thu: 1500-1900. Fri, Sat: 1000-1200.","1 Jan, 6 Jan, P, LA, 25 Apr, 1 May, 2 Jun, 15 Aug, 1 Nov, 8 Dec, 25 Dec, 26 Dec, Aug","Gruppo MAL 2012","2012-01-02","2012-12-31","From http://www.salute.bologna.it/"
"amb354","Medico di Medicina Generale","TIOCCHI PIER PAOLO","Piazza Grigoris Lambrakis, Bologna BO, Italy","44.4768763","11.3974968","privato",," Fri: 1000-1130. Mon, Wed: 1800-1900.","1 Jan, 6 Jan, P, LA, 25 Apr, 1 May, 2 Jun, 15 Aug, 1 Nov, 8 Dec, 25 Dec, 26 Dec, Aug","Gruppo MAL 2012","2012-01-02","2012-12-31","From http://www.salute.bologna.it/"
"amb355","Medico di Medicina Generale","TIOCCHI PIER PAOLO","Via Marche, 2, Bologna BO, Italy","44.4794751","11.3835926","privato",," Mon, Wed: 0900-1230. Tue, Thu, Fri: 1600-1930.","1 Jan, 6 Jan, P, LA, 25 Apr, 1 May, 2 Jun, 15 Aug, 1 Nov, 8 Dec, 25 Dec, 26 Dec, Aug","Gruppo MAL 2012","2012-01-02","2012-12-31","From http://www.salute.bologna.it/"
"amb356","Medico di Medicina Generale","TORCHI PAOLA","Via Giuseppe Massarenti, Bologna BO, Italy","44.4933814","11.3739186","privato",," Tue, Wed: 0900-1200. Mon, Thu, Fri: 1500-1830.","1 Jan, 6 Jan, P, LA, 25 Apr, 1 May, 2 Jun, 15 Aug, 1 Nov, 8 Dec, 25 Dec, 26 Dec, Aug","Gruppo MAL 2012","2012-01-02","2012-12-31","From http://www.salute.bologna.it/"
"amb357","Medico di Medicina Generale","TOZZI ROSSANO","Via Carlo Alberto Pizzardi, Bologna BO, Italy","44.4896654","11.3693644","privato",," Wed: 0830-1230. Mon, Tue, Thu, Fri: 1500-1900.","1 Jan, 6 Jan, P, LA, 25 Apr, 1 May, 2 Jun, 15 Aug, 1 Nov, 8 Dec, 25 Dec, 26 Dec, Aug","Gruppo MAL 2012","2012-01-02","2012-12-31","From http://www.salute.bologna.it/"
"amb358","Medico di Medicina Generale","TOZZI ROSSANO","Via Giuseppe Massarenti, Bologna BO, Italy","44.4933814","11.3739186","privato",," Mon, Tue, Thu, Fri: 1130-1230.","1 Jan, 6 Jan, P, LA, 25 Apr, 1 May, 2 Jun, 15 Aug, 1 Nov, 8 Dec, 25 Dec, 26 Dec, Aug","Gruppo MAL 2012","2012-01-02","2012-12-31","From http://www.salute.bologna.it/"
"amb359","Medico di Medicina Generale","TRENTI MANUELA","Via Leandro Alberti, 50/a, Bologna BO, Italy","44.4844113","11.3683284","privato",," Mon: 1500-1630. Wed: 1500-1800. Fri: 1230-1400. Tue, Thu: 1000-1200.","1 Jan, 6 Jan, P, LA, 25 Apr, 1 May, 2 Jun, 15 Aug, 1 Nov, 8 Dec, 25 Dec, 26 Dec, Aug","Gruppo MAL 2012","2012-01-02","2012-12-31","From http://www.salute.bologna.it/"
"amb360","Medico di Medicina Generale","TRENTO LINO","Via San Mamolo, Bologna BO, Italy","44.4786459","11.329786","privato",," Fri: 0900-1200. Tue, Wed: 1500-1900. Mon, Thu: 0900-1300.","1 Jan, 6 Jan, P, LA, 25 Apr, 1 May, 2 Jun, 15 Aug, 1 Nov, 8 Dec, 25 Dec, 26 Dec, Aug","Gruppo MAL 2012","2012-01-02","2012-12-31","From http://www.salute.bologna.it/"
"amb361","Medico di Medicina Generale","URSO GIOVANNI","Via Andrea Costa, Bologna BO, Italy","44.4945959","11.3144647","privato",," Mon: 0830-1130. Thu: 1530-1830.","1 Jan, 6 Jan, P, LA, 25 Apr, 1 May, 2 Jun, 15 Aug, 1 Nov, 8 Dec, 25 Dec, 26 Dec, Aug","Gruppo MAL 2012","2012-01-02","2012-12-31","From http://www.salute.bologna.it/"
"amb362","Medico di Medicina Generale","URSO GIOVANNI","Via Parigi, Bologna BO, Italy","44.4966975","11.3405424","privato",," Wed: 0900-1200.","1 Jan, 6 Jan, P, LA, 25 Apr, 1 May, 2 Jun, 15 Aug, 1 Nov, 8 Dec, 25 Dec, 26 Dec, Aug","Gruppo MAL 2012","2012-01-02","2012-12-31","From http://www.salute.bologna.it/"
"amb363","Medico di Medicina Generale","URSO GIOVANNI","Via San Felice, Bologna BO, Italy","44.4974618","11.3322049","privato",," Mon: 1200-1230. Tue: 1530-1830. Wed: 1230-1300. Thu: 1430-1500. Fri: 0830-1130.","1 Jan, 6 Jan, P, LA, 25 Apr, 1 May, 2 Jun, 15 Aug, 1 Nov, 8 Dec, 25 Dec, 26 Dec, Aug","Gruppo MAL 2012","2012-01-02","2012-12-31","From http://www.salute.bologna.it/"
"amb364","Medico di Medicina Generale","VACIRCA MAURIZIO","Via Augusto Murri, Bologna BO, Italy","44.4791299","11.3640459","privato",," Mon: 1000-1200. Tue: 1500-1600. Wed: 1530-1730. Thu: 1030-1130. Fri: 1130-1230.","1 Jan, 6 Jan, P, LA, 25 Apr, 1 May, 2 Jun, 15 Aug, 1 Nov, 8 Dec, 25 Dec, 26 Dec, Aug","Gruppo MAL 2012","2012-01-02","2012-12-31","From http://www.salute.bologna.it/"
"amb365","Medico di Medicina Generale","VACIRCA MAURIZIO","Via D'azeglio, Bologna BO, Italy","44.6393636","11.1872138","privato",," Mon: 1530-1730. Thu: 1500-1800. Fri: 1630-1930.","1 Jan, 6 Jan, P, LA, 25 Apr, 1 May, 2 Jun, 15 Aug, 1 Nov, 8 Dec, 25 Dec, 26 Dec, Aug","Gruppo MAL 2012","2012-01-02","2012-12-31","From http://www.salute.bologna.it/"
"amb366","Medico di Medicina Generale","VALENTI ROSA MARIA","Via Ferrarese, Bologna BO, Italy","44.5290248","11.363979","privato",," Tue, Thu: 1600-1900. Mon, Wed, Fri: 0900-1200.","1 Jan, 6 Jan, P, LA, 25 Apr, 1 May, 2 Jun, 15 Aug, 1 Nov, 8 Dec, 25 Dec, 26 Dec, Aug","Gruppo MAL 2012","2012-01-02","2012-12-31","From http://www.salute.bologna.it/"
"amb367","Medico di Medicina Generale","VALENTI ROSA MARIA","Via San Felice, Bologna BO, Italy","44.4974618","11.3322049","privato",," Mon: 1500-1700. Wed: 1530-1630. Thu: 0830-0930.","1 Jan, 6 Jan, P, LA, 25 Apr, 1 May, 2 Jun, 15 Aug, 1 Nov, 8 Dec, 25 Dec, 26 Dec, Aug","Gruppo MAL 2012","2012-01-02","2012-12-31","From http://www.salute.bologna.it/"
"amb368","Medico di Medicina Generale","VALENTINI GIULIO","Via Di Corticella, Bologna BO, Italy","44.5320902","11.3531639","privato",," Wed, Thu: 1430-1800. Mon, Tue, Fri: 0800-1130.","1 Jan, 6 Jan, P, LA, 25 Apr, 1 May, 2 Jun, 15 Aug, 1 Nov, 8 Dec, 25 Dec, 26 Dec, Aug","Gruppo MAL 2012","2012-01-02","2012-12-31","From http://www.salute.bologna.it/"
"amb369","Medico di Medicina Generale","VALLI VITTORIO","Via D'azeglio, Bologna BO, Italy","44.6393636","11.1872138","privato",," Sat: 0930-1200. Mon, Tue, Wed, Thu, Fri: 1130-1230.","1 Jan, 6 Jan, P, LA, 25 Apr, 1 May, 2 Jun, 15 Aug, 1 Nov, 8 Dec, 25 Dec, 26 Dec, Aug","Gruppo MAL 2012","2012-01-02","2012-12-31","From http://www.salute.bologna.it/"
"amb370","Medico di Medicina Generale","VALLI VITTORIO","Via Marco Polo, 22/a, Bologna BO, Italy","44.5188681","11.3287859","privato",," Mon, Tue, Thu, Fri: 0830-1100.","1 Jan, 6 Jan, P, LA, 25 Apr, 1 May, 2 Jun, 15 Aug, 1 Nov, 8 Dec, 25 Dec, 26 Dec, Aug","Gruppo MAL 2012","2012-01-02","2012-12-31","From http://www.salute.bologna.it/"
"amb371","Medico di Medicina Generale","VALLI VITTORIO","Via Parigi, Bologna BO, Italy","44.4966975","11.3405424","privato",," Wed: 0900-1100. Mon, Tue, Thu, Fri: 1700-1900.","1 Jan, 6 Jan, P, LA, 25 Apr, 1 May, 2 Jun, 15 Aug, 1 Nov, 8 Dec, 25 Dec, 26 Dec, Aug","Gruppo MAL 2012","2012-01-02","2012-12-31","From http://www.salute.bologna.it/"
"amb372","Medico di Medicina Generale","VECCHIATINI ROBERTO","Via Lemonia, 45/e, Bologna BO, Italy","44.5066061","11.2996065","privato",," Tue, Thu: 0900-1200. Mon, Wed, Fri: 1500-1830.","1 Jan, 6 Jan, P, LA, 25 Apr, 1 May, 2 Jun, 15 Aug, 1 Nov, 8 Dec, 25 Dec, 26 Dec, Aug","Gruppo MAL 2012","2012-01-02","2012-12-31","From http://www.salute.bologna.it/"
"amb373","Medico di Medicina Generale","VELONA' PIETRO","Via Barberia, Bologna BO, Italy","44.4921775","11.3377354","privato",," Tue, Thu: 0800-0930.","1 Jan, 6 Jan, P, LA, 25 Apr, 1 May, 2 Jun, 15 Aug, 1 Nov, 8 Dec, 25 Dec, 26 Dec, Aug","Gruppo MAL 2012","2012-01-02","2012-12-31","From http://www.salute.bologna.it/"
"amb374","Medico di Medicina Generale","VELONA' PIETRO","Via Luigi Pirandello, 14/l, Bologna BO, Italy","44.5114173","11.3910366","privato",," Tue, Thu: 1500-1900. Mon, Wed, Fri: 1500-1830.","1 Jan, 6 Jan, P, LA, 25 Apr, 1 May, 2 Jun, 15 Aug, 1 Nov, 8 Dec, 25 Dec, 26 Dec, Aug","Gruppo MAL 2012","2012-01-02","2012-12-31","From http://www.salute.bologna.it/"
"amb375","Medico di Medicina Generale","VENTRE MICHELE","Via Grazia Deledda, Bologna BO, Italy","44.5095583","11.3967888","privato",," Tue, Thu: 1530-1700.","1 Jan, 6 Jan, P, LA, 25 Apr, 1 May, 2 Jun, 15 Aug, 1 Nov, 8 Dec, 25 Dec, 26 Dec, Aug","Gruppo MAL 2012","2012-01-02","2012-12-31","From http://www.salute.bologna.it/"
"amb376","Medico di Medicina Generale","VENTURINI MARIELLA","Piazza Grigoris Lambrakis, Bologna BO, Italy","44.4768763","11.3974968","privato",," Mon: 1530-1630. Tue, Wed, Thu, Fri: 0830-0930.","1 Jan, 6 Jan, P, LA, 25 Apr, 1 May, 2 Jun, 15 Aug, 1 Nov, 8 Dec, 25 Dec, 26 Dec, Aug","Gruppo MAL 2012","2012-01-02","2012-12-31","From http://www.salute.bologna.it/"
"amb377","Medico di Medicina Generale","VERRI ANDREA","Via Dell'indipendenza, Bologna BO, Italy","44.4992356","11.3438494","privato",," Tue, Wed, Thu: 0830-1200. Mon, Fri: 1530-1900.","1 Jan, 6 Jan, P, LA, 25 Apr, 1 May, 2 Jun, 15 Aug, 1 Nov, 8 Dec, 25 Dec, 26 Dec, Aug","Gruppo MAL 2012","2012-01-02","2012-12-31","From http://www.salute.bologna.it/"
"amb378","Medico di Medicina Generale","VIRGILIO SILVANA","Via Tullio Golfarelli, Bologna BO, Italy",,,"privato",," Mon: 1700-1930. Tue: 1500-1700. Fri: 1700-1900. Wed, Thu: 0830-1030.","1 Jan, 6 Jan, P, LA, 25 Apr, 1 May, 2 Jun, 15 Aug, 1 Nov, 8 Dec, 25 Dec, 26 Dec, Aug","Gruppo MAL 2012","2012-01-02","2012-12-31","From http://www.salute.bologna.it/"
"amb379","Medico di Medicina Generale","VIRGILIO SILVANA","Viale Abramo Lincoln, Bologna BO, Italy","44.4825916","11.3885805","privato",," Wed: 1500-1700. Mon, Fri: 0900-1100.","1 Jan, 6 Jan, P, LA, 25 Apr, 1 May, 2 Jun, 15 Aug, 1 Nov, 8 Dec, 25 Dec, 26 Dec, Aug","Gruppo MAL 2012","2012-01-02","2012-12-31","From http://www.salute.bologna.it/"
"amb380","Medico di Medicina Generale","VITA PAOLO","Via Alfredo Protti, Bologna BO, Italy","44.4824904","11.3739422","privato",," Mon, Tue, Wed, Thu, Fri: 1030-1130;1630-1930.","1 Jan, 6 Jan, P, LA, 25 Apr, 1 May, 2 Jun, 15 Aug, 1 Nov, 8 Dec, 25 Dec, 26 Dec, Aug","Gruppo MAL 2012","2012-01-02","2012-12-31","From http://www.salute.bologna.it/"
"amb381","Medico di Medicina Generale","VITALI VALERIA","Piazza Aldo Capitini, Bologna BO, Italy","44.4953139","11.2928214","privato",," Mon: 1330-1630. Tue: 1600-1900. Wed, Thu, Fri: 0800-1100.","1 Jan, 6 Jan, P, LA, 25 Apr, 1 May, 2 Jun, 15 Aug, 1 Nov, 8 Dec, 25 Dec, 26 Dec, Aug","Gruppo MAL 2012","2012-01-02","2012-12-31","From http://www.salute.bologna.it/"
"amb382","Medico di Medicina Generale","VITOLO ANDREA","Via Toscana, Bologna BO, Italy","44.458903","11.3700585","privato",," Mon, Wed: 1030-1300;1430-1700. Tue, Thu, Fri: 1030-1300.","1 Jan, 6 Jan, P, LA, 25 Apr, 1 May, 2 Jun, 15 Aug, 1 Nov, 8 Dec, 25 Dec, 26 Dec, Aug","Gruppo MAL 2012","2012-01-02","2012-12-31","From http://www.salute.bologna.it/"
"amb383","Medico di Medicina Generale","VITOLO EMANUELE","Via Toscana, Bologna BO, Italy","44.458903","11.3700585","privato",," Tue, Wed: 1430-1700. Mon, Thu, Fri: 1030-1230.","1 Jan, 6 Jan, P, LA, 25 Apr, 1 May, 2 Jun, 15 Aug, 1 Nov, 8 Dec, 25 Dec, 26 Dec, Aug","Gruppo MAL 2012","2012-01-02","2012-12-31","From http://www.salute.bologna.it/"
"amb384","Medico di Medicina Generale","VOLPE ANTONIO","Via Isabella Andreini, Bologna BO, Italy","44.5019684","11.3737344","privato",," Wed: 1530-1700. Mon, Tue, Thu, Fri: 1100-1200.","1 Jan, 6 Jan, P, LA, 25 Apr, 1 May, 2 Jun, 15 Aug, 1 Nov, 8 Dec, 25 Dec, 26 Dec, Aug","Gruppo MAL 2012","2012-01-02","2012-12-31","From http://www.salute.bologna.it/"
"amb385","Medico di Medicina Generale","VOLPE ANTONIO","Via Zanardi, Bologna BO, Italy","44.524146","11.3226975","privato",," Wed: 0800-0930. Mon, Tue, Thu, Fri: 1500-1830.","1 Jan, 6 Jan, P, LA, 25 Apr, 1 May, 2 Jun, 15 Aug, 1 Nov, 8 Dec, 25 Dec, 26 Dec, Aug","Gruppo MAL 2012","2012-01-02","2012-12-31","From http://www.salute.bologna.it/"
"amb386","Medico di Medicina Generale","VOZA MAURO","Via Gatti, Bologna BO, Italy","44.5433551","11.3559214","privato",," Tue: 1000-1300. Thu: 1500-1800. Mon, Wed, Fri: 1400-1700.","1 Jan, 6 Jan, P, LA, 25 Apr, 1 May, 2 Jun, 15 Aug, 1 Nov, 8 Dec, 25 Dec, 26 Dec, Aug","Gruppo MAL 2012","2012-01-02","2012-12-31","From http://www.salute.bologna.it/"
"amb387","Medico di Medicina Generale","VOZA MAURO","Via Pompeo Vizzani, Bologna BO, Italy","44.4904063","11.3702931","privato",," Mon: 0800-1100;1730-1930. Wed: 0800-1030;1730-1930. Fri: 0800-1100.","1 Jan, 6 Jan, P, LA, 25 Apr, 1 May, 2 Jun, 15 Aug, 1 Nov, 8 Dec, 25 Dec, 26 Dec, Aug","Gruppo MAL 2012","2012-01-02","2012-12-31","From http://www.salute.bologna.it/"
"amb388","Medico di Medicina Generale","ZACCHIA RONDININI TANARI PAOLO EMILIO","Strada Maggiore, Bologna BO, Italy","44.4921561","11.3518739","privato",," Mon, Thu: 1500-1630. Tue, Fri: 0900-1100.","1 Jan, 6 Jan, P, LA, 25 Apr, 1 May, 2 Jun, 15 Aug, 1 Nov, 8 Dec, 25 Dec, 26 Dec, Aug","Gruppo MAL 2012","2012-01-02","2012-12-31","From http://www.salute.bologna.it/"
"amb389","Medico di Medicina Generale","ZACCHIA RONDININI TANARI PAOLO EMILIO","Via Giuseppe Bentivogli, Bologna BO, Italy","44.496069","11.3643345","privato",," Mon, Thu: 0900-1100;1700-1900. Tue, Wed, Fri: 1700-1900.","1 Jan, 6 Jan, P, LA, 25 Apr, 1 May, 2 Jun, 15 Aug, 1 Nov, 8 Dec, 25 Dec, 26 Dec, Aug","Gruppo MAL 2012","2012-01-02","2012-12-31","From http://www.salute.bologna.it/"
"amb390","Medico di Medicina Generale","ZAMBONI STEFANO","Via Francesco Acri, Bologna BO, Italy","44.4951947","11.3525726","privato",," Tue, Thu: 1000-1300;1600-1700. Mon, Wed, Fri: 1000-1300.","1 Jan, 6 Jan, P, LA, 25 Apr, 1 May, 2 Jun, 15 Aug, 1 Nov, 8 Dec, 25 Dec, 26 Dec, Aug","Gruppo MAL 2012","2012-01-02","2012-12-31","From http://www.salute.bologna.it/"
"amb391","Medico di Medicina Generale","ZANASI MASSIMO","Via Genuzio Bentini, Bologna BO, Italy","44.5478296","11.3561424","privato",," Wed: 1100-1200. Tue, Thu: 1530-1930. Mon, Fri: 0800-1130.","1 Jan, 6 Jan, P, LA, 25 Apr, 1 May, 2 Jun, 15 Aug, 1 Nov, 8 Dec, 25 Dec, 26 Dec, Aug","Gruppo MAL 2012","2012-01-02","2012-12-31","From http://www.salute.bologna.it/"
"amb392","Medico di Medicina Generale","ZANNONI STEFANO","Piazza Aldo Capitini, Bologna BO, Italy","44.4953139","11.2928214","privato",," Wed, Thu: 1500-1900. Mon, Tue, Fri: 0900-1200.","1 Jan, 6 Jan, P, LA, 25 Apr, 1 May, 2 Jun, 15 Aug, 1 Nov, 8 Dec, 25 Dec, 26 Dec, Aug","Gruppo MAL 2012","2012-01-02","2012-12-31","From http://www.salute.bologna.it/"
"amb393","Medico di Medicina Generale","ZINGONI STEFANO","Piazza Dell'unita', Bologna BO, Italy","44.5113385","11.3473655","privato",," Mon, Tue, Wed, Thu, Fri: 1500-1915.","1 Jan, 6 Jan, P, LA, 25 Apr, 1 May, 2 Jun, 15 Aug, 1 Nov, 8 Dec, 25 Dec, 26 Dec, Aug","Gruppo MAL 2012","2012-01-02","2012-12-31","From http://www.salute.bologna.it/"
"amb394","Medico di Medicina Generale","ZINI PIERPAOLO","Via Delle Lame, Bologna BO, Italy","44.4992404","11.3351604","privato",," Tue, Thu: 1400-1500. Mon, Fri: 1730-1900.","1 Jan, 6 Jan, P, LA, 25 Apr, 1 May, 2 Jun, 15 Aug, 1 Nov, 8 Dec, 25 Dec, 26 Dec, Aug","Gruppo MAL 2012","2012-01-02","2012-12-31","From http://www.salute.bologna.it/"
"amb395","Medico di Medicina Generale","ZINI PIERPAOLO","Via Grazia Deledda, Bologna BO, Italy","44.5095583","11.3967888","privato",," Tue, Thu: 1600-1800. Mon, Wed, Fri: 0800-1000.","1 Jan, 6 Jan, P, LA, 25 Apr, 1 May, 2 Jun, 15 Aug, 1 Nov, 8 Dec, 25 Dec, 26 Dec, Aug","Gruppo MAL 2012","2012-01-02","2012-12-31","From http://www.salute.bologna.it/"
"amb396","Medico di Medicina Generale","ZOCCHI DONATO","Piazza Belluno, Bologna BO, Italy","44.4766119","11.3823052","privato",," Thu: 1000-1300. Mon, Tue, Wed, Fri: 1530-1930.","1 Jan, 6 Jan, P, LA, 25 Apr, 1 May, 2 Jun, 15 Aug, 1 Nov, 8 Dec, 25 Dec, 26 Dec, Aug","Gruppo MAL 2012","2012-01-02","2012-12-31","From http://www.salute.bologna.it/"
"amb397","Medico di Medicina Generale","ZOCCOLI GIUSEPPE","Via Marco Emilio Lepido, 45/c, Bologna BO, Italy","44.5172964","11.2757796","privato",," Tue, Thu: 1330-1700.","1 Jan, 6 Jan, P, LA, 25 Apr, 1 May, 2 Jun, 15 Aug, 1 Nov, 8 Dec, 25 Dec, 26 Dec, Aug","Gruppo MAL 2012","2012-01-02","2012-12-31","From http://www.salute.bologna.it/"
"amb398","Medico di Medicina Generale","ZOCCOLI GIUSEPPE","Via Zanardi, Bologna BO, Italy","44.524146","11.3226975","privato",," Tue: 1000-1200. Thu: 0930-1200. Mon, Wed, Fri: 1330-1800.","1 Jan, 6 Jan, P, LA, 25 Apr, 1 May, 2 Jun, 15 Aug, 1 Nov, 8 Dec, 25 Dec, 26 Dec, Aug","Gruppo MAL 2012","2012-01-02","2012-12-31","From http://www.salute.bologna.it/"
